{"type":"FeatureCollection","meta":{"region":"QLD","tile":"t-10e148","built":"2026-08-25","sources":["OpenStreetMap (ODbL)","GBRMPA (CC BY)"]},"features":[{"type":"Feature","geometry":{"type":"Point","coordinates":[149.0902,-9.02585]},"properties":{"id":"osm-node13994788847","name":"Afati Bay","kind":"anchorage","source":"OpenStreetMap","sourceRef":"node/13994788847","likelyAnchorage":true,"noAnchoring":false,"noAnchoringName":null,"notes":null,"fetchLandNM":[15,15,15,0.2,0.2,0.2,0.2,0.2,0.2,0.2,0.3,0.4,0.5,0.6,0.7,0.4,0.3,0.3,0.3,0.3,0.3,0.3,0.3,0.3,0.3,0.2,0.2,0.2,0.2,0.3,15,15,15,15,15,15],"fetchReefNM":[15,15,15,0.2,0.2,0.2,0.2,0.2,0.2,0.2,0.3,0.4,0.5,0.6,0.7,0.4,0.3,0.3,0.3,0.3,0.3,0.3,0.3,0.3,0.3,0.2,0.2,0.2,0.2,0.3,15,15,15,15,15,15]}},{"type":"Feature","geometry":{"type":"Point","coordinates":[149.31605,-9.10943]},"properties":{"id":"osm-node13994638338","name":"Amuian Bay","kind":"anchorage","source":"OpenStreetMap","sourceRef":"node/13994638338","likelyAnchorage":true,"noAnchoring":false,"noAnchoringName":null,"notes":null,"fetchLandNM":[0.2,0.2,0.4,0.4,0.9,15,15,15,15,15,0.8,0.4,0.4,0.4,0.4,0.5,0.5,0.5,0.5,0.5,0.8,0.7,0.5,0.6,1,0.5,1.4,2,1,0.8,0.7,0.4,0.4,0.3,0.3,0.2],"fetchReefNM":[0.2,0.2,0.4,0.4,0.9,15,15,15,15,15,0.8,0.4,0.4,0.4,0.4,0.5,0.5,0.5,0.5,0.5,0.8,0.7,0.5,0.6,1,0.5,1.4,2,1,0.8,0.7,0.4,0.4,0.3,0.3,0.2]}},{"type":"Feature","geometry":{"type":"Point","coordinates":[149.14247,-9.02315]},"properties":{"id":"osm-node13994638368","name":"Anasari Harbour","kind":"anchorage","source":"OpenStreetMap","sourceRef":"node/13994638368","likelyAnchorage":true,"noAnchoring":false,"noAnchoringName":null,"notes":null,"fetchLandNM":[1.2,15,15,15,15,0.3,0.3,0.2,0.2,0.3,0.2,0.2,0.3,0.3,0.3,0.3,0.4,0.4,0.5,0.5,0.3,0.3,0.3,0.3,0.3,0.3,0.3,0.3,0.3,0.2,0.2,0.2,0.3,0.3,1,1.1],"fetchReefNM":[1.2,15,15,15,15,0.3,0.3,0.2,0.2,0.3,0.2,0.2,0.3,0.3,0.3,0.3,0.4,0.4,0.5,0.5,0.3,0.3,0.3,0.3,0.3,0.3,0.3,0.3,0.3,0.2,0.2,0.2,0.3,0.3,1,1.1]}},{"type":"Feature","geometry":{"type":"Point","coordinates":[149.18006,-9.01398]},"properties":{"id":"osm-node13994638366","name":"Aruoa Bay","kind":"anchorage","source":"OpenStreetMap","sourceRef":"node/13994638366","likelyAnchorage":true,"noAnchoring":false,"noAnchoringName":null,"notes":null,"fetchLandNM":[15,15,15,15,15,0.3,0.2,0.1,0.1,0.2,0.2,0.3,0.3,0.4,0.7,0.3,0.3,0.3,0.3,0.2,0.2,0.2,0.2,0.2,0.2,0.2,0.2,0.2,0.2,0.2,0.2,15,15,15,15,15],"fetchReefNM":[15,15,15,15,15,0.3,0.2,0.1,0.1,0.2,0.2,0.3,0.3,0.4,0.7,0.3,0.3,0.3,0.3,0.2,0.2,0.2,0.2,0.2,0.2,0.2,0.2,0.2,0.2,0.2,0.2,15,15,15,15,15]}},{"type":"Feature","geometry":{"type":"Point","coordinates":[149.26932,-9.17351]},"properties":{"id":"osm-node13989495964","name":"Awainena Bay","kind":"anchorage","source":"OpenStreetMap","sourceRef":"node/13989495964","likelyAnchorage":true,"noAnchoring":false,"noAnchoringName":null,"notes":null,"fetchLandNM":[0.2,0.2,0.2,0.2,0.2,0.2,0.2,0.2,0.2,0.3,0.5,0.5,0.6,15,15,15,15,15,15,15,0.3,0.2,0.2,0.2,0.2,0.2,0.5,0.3,0.3,0.3,0.4,0.5,0.4,0.3,0.3,0.3],"fetchReefNM":[0.2,0.2,0.2,0.2,0.2,0.2,0.2,0.2,0.2,0.3,0.5,0.5,0.6,15,15,15,15,15,15,15,0.3,0.2,0.2,0.2,0.2,0.2,0.5,0.3,0.3,0.3,0.4,0.5,0.4,0.3,0.3,0.3]}},{"type":"Feature","geometry":{"type":"Point","coordinates":[149.26362,-9.01741]},"properties":{"id":"osm-node13994638362","name":"Beri Bay","kind":"anchorage","source":"OpenStreetMap","sourceRef":"node/13994638362","likelyAnchorage":true,"noAnchoring":false,"noAnchoringName":null,"notes":null,"fetchLandNM":[15,15,15,0.4,0.3,0.3,0.2,0.1,0.1,0.1,0.1,0.1,0.1,0.1,0.1,0.2,0.2,0.3,0.8,0.6,1,0.3,0.2,0.3,0.3,0.3,0.2,0.2,0.1,0.1,0.1,0.1,0.1,0.2,0.2,15],"fetchReefNM":[15,15,15,0.4,0.3,0.3,0.2,0.1,0.1,0.1,0.1,0.1,0.1,0.1,0.1,0.2,0.2,0.3,0.8,0.6,1,0.3,0.2,0.3,0.3,0.3,0.2,0.2,0.1,0.1,0.1,0.1,0.1,0.2,0.2,15]}},{"type":"Feature","geometry":{"type":"Point","coordinates":[149.78657,-9.90741]},"properties":{"id":"osm-node13955361394","name":"Boniboni Bay","kind":"anchorage","source":"OpenStreetMap","sourceRef":"node/13955361394","likelyAnchorage":true,"noAnchoring":false,"noAnchoringName":null,"notes":null,"fetchLandNM":[7.4,7.8,8.4,9.4,11.2,15,15,15,0.3,0.2,0.2,0.2,0.1,0.1,0.1,0.1,0.1,0.1,0.1,0.1,0.1,0.1,0.1,0.1,0.1,0.1,0.2,0.2,0.2,0.2,2.2,3,7,7.1,7.2,7.3],"fetchReefNM":[7.4,7.8,8.4,9.4,11.2,15,15,15,0.3,0.2,0.2,0.2,0.1,0.1,0.1,0.1,0.1,0.1,0.1,0.1,0.1,0.1,0.1,0.1,0.1,0.1,0.2,0.2,0.2,0.2,2.2,3,7,7.1,7.2,7.3]}},{"type":"Feature","geometry":{"type":"Point","coordinates":[149.31164,-9.37436]},"properties":{"id":"osm-node10779861304","name":"Collingwood Bay","kind":"anchorage","source":"OpenStreetMap","sourceRef":"node/10779861304","likelyAnchorage":true,"noAnchoring":false,"noAnchoringName":null,"notes":null,"fetchLandNM":[12.6,15,15,15,15,15,15,15,15,15,15,15,15,15,15,13.4,10.6,9.1,8.5,8,8.4,8.6,8.3,8,7.8,7.7,7.8,8,8,7.8,6.9,7,7.2,8.7,10.8,12.8],"fetchReefNM":[12.6,15,15,15,15,15,15,15,15,15,15,15,15,15,15,13.4,10.6,9.1,8.5,8,8.4,8.6,8.3,8,7.8,7.7,7.8,8,8,7.8,6.9,7,7.2,8.7,10.8,12.8]}},{"type":"Feature","geometry":{"type":"Point","coordinates":[148.12402,-8.07689]},"properties":{"id":"osm-node14070309449","name":"Douglas Harbour","kind":"anchorage","source":"OpenStreetMap","sourceRef":"node/14070309449","likelyAnchorage":true,"noAnchoring":false,"noAnchoringName":null,"notes":null,"fetchLandNM":[0.1,0.1,0.2,0.4,15,15,15,15,15,15,0.4,0.4,0.3,0.3,0.3,0.2,0.2,0.2,0.1,0.1,0.1,0.1,0.1,0.2,0.2,0.3,0.3,0.3,0.3,0.3,0.3,0.2,0.1,0.1,0.1,0.1],"fetchReefNM":[0.1,0.1,0.2,0.4,15,15,15,15,15,15,0.4,0.4,0.3,0.3,0.3,0.2,0.2,0.2,0.1,0.1,0.1,0.1,0.1,0.2,0.2,0.3,0.3,0.3,0.3,0.3,0.3,0.2,0.1,0.1,0.1,0.1]}},{"type":"Feature","geometry":{"type":"Point","coordinates":[149.33882,-9.5161]},"properties":{"id":"osm-node13977794520","name":"Dudububuna Bay","kind":"anchorage","source":"OpenStreetMap","sourceRef":"node/13977794520","likelyAnchorage":true,"noAnchoring":false,"noAnchoringName":null,"notes":null,"fetchLandNM":[15,15,15,15,15,15,15,15,15,15,0.8,0.7,0.6,0.6,0.6,0.5,0.5,0.4,0.4,0.5,0.5,0.5,0.5,0.6,0.6,0.5,0.7,0.7,2,7.9,9.8,12.4,14.1,14,15,15],"fetchReefNM":[15,15,15,15,15,15,15,15,15,1.7,0.8,0.7,0.6,0.6,0.6,0.5,0.5,0.4,0.4,0.5,0.5,0.5,0.5,0.6,0.6,0.5,0.7,0.7,2,7.9,9.8,12.4,14.1,14,15,15]}},{"type":"Feature","geometry":{"type":"Point","coordinates":[148.69408,-8.96865]},"properties":{"id":"osm-node13988391981","name":"Dyke Ackland Bay","kind":"anchorage","source":"OpenStreetMap","sourceRef":"node/13988391981","likelyAnchorage":true,"noAnchoring":false,"noAnchoringName":null,"notes":null,"fetchLandNM":[15,15,15,15,15,15,15,15,15,15,15,13.7,12.6,11.2,10.2,9.7,9.2,8.5,8,7.7,7.6,8,8.8,8.8,8.9,8.7,10.1,10,10.8,11.7,14.6,15,15,15,15,15],"fetchReefNM":[15,15,15,15,15,15,15,15,15,15,15,13.7,12.6,11.2,10.2,9.7,9.2,8.5,8,7.7,7.6,8,8.8,8.8,8.9,8.7,10.1,10,10.8,11.7,14.6,15,15,15,15,15]}},{"type":"Feature","geometry":{"type":"Point","coordinates":[149.26735,-9.50204]},"properties":{"id":"osm-node13977794517","name":"Esulu Bay","kind":"anchorage","source":"OpenStreetMap","sourceRef":"node/13977794517","likelyAnchorage":true,"noAnchoring":false,"noAnchoringName":null,"notes":null,"fetchLandNM":[15,15,15,15,15,15,15,15,15,15,1.2,0.5,0.3,0.3,0.3,0.3,0.3,0.4,0.4,0.4,0.4,0.3,0.3,0.4,0.4,0.4,0.5,0.5,0.5,0.6,3.2,5.3,7.8,10.6,11.4,13.3],"fetchReefNM":[15,15,15,15,15,15,15,15,15,15,1.2,0.5,0.3,0.3,0.3,0.3,0.3,0.4,0.4,0.4,0.4,0.3,0.3,0.4,0.4,0.4,0.5,0.5,0.5,0.6,3.2,5.3,7.8,10.6,11.4,13.3]}},{"type":"Feature","geometry":{"type":"Point","coordinates":[149.32108,-9.09439]},"properties":{"id":"osm-node13994638342","name":"Feiaba Bay","kind":"anchorage","source":"OpenStreetMap","sourceRef":"node/13994638342","likelyAnchorage":true,"noAnchoring":false,"noAnchoringName":null,"notes":null,"fetchLandNM":[0.2,0.2,0.2,15,15,15,15,15,15,15,15,15,15,0.3,0.2,0.2,0.2,0.2,0.2,0.2,0.3,0.4,0.3,0.2,0.3,0.5,0.6,0.4,0.3,0.2,0.2,0.2,0.1,0.2,0.2,0.2],"fetchReefNM":[0.2,0.2,0.2,15,15,15,15,15,15,15,15,15,8.5,0.3,0.2,0.2,0.2,0.2,0.2,0.2,0.3,0.4,0.3,0.2,0.3,0.5,0.6,0.4,0.3,0.2,0.2,0.2,0.1,0.2,0.2,0.2]}},{"type":"Feature","geometry":{"type":"Point","coordinates":[148.27344,-8.54637]},"properties":{"id":"osm-node14068768139","name":"Holnicote Bay","kind":"anchorage","source":"OpenStreetMap","sourceRef":"node/14068768139","likelyAnchorage":true,"noAnchoring":false,"noAnchoringName":null,"notes":null,"fetchLandNM":[15,15,15,15,15,15,15,15,15,15,15,15,15,12.5,5.9,4.5,4.7,4.2,3.7,3.4,3.2,3.1,3,2.9,2.9,3,3.1,3.2,3.4,3.7,3.9,3.4,3.8,4.3,12,15],"fetchReefNM":[15,15,15,15,15,15,15,15,15,15,15,15,15,12.5,5.9,4.5,4.7,4.2,3.7,3.4,3.2,3.1,3,2.9,2.9,3,3.1,3.2,3.4,3.7,3.9,3.4,3.8,4.3,12,15]}},{"type":"Feature","geometry":{"type":"Point","coordinates":[149.24025,-9.00305]},"properties":{"id":"osm-node13994638363","name":"Iba Bay","kind":"anchorage","source":"OpenStreetMap","sourceRef":"node/13994638363","likelyAnchorage":true,"noAnchoring":false,"noAnchoringName":null,"notes":null,"fetchLandNM":[15,15,15,15,15,15,0.3,0.3,0.3,0.3,0.3,0.3,0.3,0.3,0.3,0.3,0.2,0.2,0.2,0.2,0.2,0.4,0.6,0.4,0.3,0.3,0.3,0.3,0.3,15,15,15,15,15,15,15],"fetchReefNM":[15,15,15,15,15,15,0.3,0.3,0.3,0.3,0.3,0.3,0.3,0.3,0.3,0.3,0.2,0.2,0.2,0.2,0.2,0.4,0.6,0.4,0.3,0.3,0.3,0.3,0.3,15,15,15,15,15,15,15]}},{"type":"Feature","geometry":{"type":"Point","coordinates":[149.31863,-9.13783]},"properties":{"id":"osm-node13989495970","name":"Ibura Bay","kind":"anchorage","source":"OpenStreetMap","sourceRef":"node/13989495970","likelyAnchorage":true,"noAnchoring":false,"noAnchoringName":null,"notes":null,"fetchLandNM":[0.1,0.1,0.1,0.1,0.1,0.1,0.2,0.3,15,15,15,15,15,15,0.3,0.3,0.3,0.3,0.2,0.2,0.1,0.1,0.1,0.1,0.2,0.2,0.7,0.8,0.6,0.6,0.3,0.3,0.2,0.2,0.2,0.1],"fetchReefNM":[0.1,0.1,0.1,0.1,0.1,0.1,0.2,0.3,15,15,15,15,15,15,0.3,0.3,0.3,0.3,0.2,0.2,0.1,0.1,0.1,0.1,0.2,0.2,0.7,0.8,0.6,0.6,0.3,0.3,0.2,0.2,0.2,0.1]}},{"type":"Feature","geometry":{"type":"Point","coordinates":[148.11419,-8.06039]},"properties":{"id":"osm-node14070309451","name":"Iu Bay","kind":"anchorage","source":"OpenStreetMap","sourceRef":"node/14070309451","likelyAnchorage":true,"noAnchoring":false,"noAnchoringName":null,"notes":null,"fetchLandNM":[15,15,0.1,15,15,0.4,0.3,0.1,0.1,0.1,0.1,0.1,0.1,0.1,0.1,0.1,0.1,0.1,0.1,0.1,0.1,0.1,0.1,0.1,0.1,0.1,0.4,1.4,8.9,9.7,15,15,15,15,15,15],"fetchReefNM":[15,15,0.1,15,15,0.4,0.3,0.1,0.1,0.1,0.1,0.1,0.1,0.1,0.1,0.1,0.1,0.1,0.1,0.1,0.1,0.1,0.1,0.1,0.1,0.1,0.4,1.4,8.9,9.7,15,15,15,15,15,15]}},{"type":"Feature","geometry":{"type":"Point","coordinates":[149.92568,-9.64341]},"properties":{"id":"osm-node13970637333","name":"Kai-Yo Bay","kind":"anchorage","source":"OpenStreetMap","sourceRef":"node/13970637333","likelyAnchorage":true,"noAnchoring":false,"noAnchoringName":null,"notes":null,"fetchLandNM":[0.1,15,15,0.1,0.1,0.1,0.1,0.1,0.1,0.1,0.1,0.1,0.1,0.1,0.1,0.1,0.1,0.1,0.1,0.1,0.1,0.1,0.1,0.1,0.1,0.1,0.1,0.1,0.1,0.1,0.1,0.1,0.1,0.1,0.1,0.1],"fetchReefNM":[0.1,15,15,0.1,0.1,0.1,0.1,0.1,0.1,0.1,0.1,0.1,0.1,0.1,0.1,0.1,0.1,0.1,0.1,0.1,0.1,0.1,0.1,0.1,0.1,0.1,0.1,0.1,0.1,0.1,0.1,0.1,0.1,0.1,0.1,0.1]}},{"type":"Feature","geometry":{"type":"Point","coordinates":[149.21342,-9.00464]},"properties":{"id":"osm-node13994638364","name":"Karimoa Bay","kind":"anchorage","source":"OpenStreetMap","sourceRef":"node/13994638364","likelyAnchorage":true,"noAnchoring":false,"noAnchoringName":null,"notes":null,"fetchLandNM":[15,15,15,15,15,15,15,15,2,1.2,1.1,0.9,0.4,0.4,0.4,0.3,0.3,0.3,0.4,0.3,0.3,0.3,0.3,0.3,0.3,0.3,0.3,0.4,4.3,15,15,15,15,15,15,15],"fetchReefNM":[15,15,15,15,15,15,15,15,2,1.2,1.1,0.9,0.4,0.4,0.4,0.3,0.3,0.3,0.4,0.3,0.3,0.3,0.3,0.3,0.3,0.3,0.3,0.4,4.3,15,15,15,15,15,15,15]}},{"type":"Feature","geometry":{"type":"Point","coordinates":[148.61694,-9.08341]},"properties":{"id":"osm-node13980952616","name":"Ketakerua Bay","kind":"anchorage","source":"OpenStreetMap","sourceRef":"node/13980952616","likelyAnchorage":true,"noAnchoring":false,"noAnchoringName":null,"notes":null,"fetchLandNM":[15,15,15,15,15,15,15,15,15,15,0.5,0.5,0.4,0.6,0.5,0.5,0.4,0.3,0.3,0.3,0.3,0.3,0.4,0.4,0.4,0.5,0.6,0.8,1.1,1.6,2.6,4.7,8.1,11.2,15,15],"fetchReefNM":[15,15,15,15,15,15,15,15,15,15,0.5,0.5,0.4,0.6,0.5,0.5,0.4,0.3,0.3,0.3,0.3,0.3,0.4,0.4,0.4,0.5,0.6,0.8,1.1,1.6,2.6,4.7,8.1,11.2,15,15]}},{"type":"Feature","geometry":{"type":"Point","coordinates":[149.31054,-9.06853]},"properties":{"id":"osm-node13994638344","name":"Kofulu Harbour","kind":"anchorage","source":"OpenStreetMap","sourceRef":"node/13994638344","likelyAnchorage":true,"noAnchoring":false,"noAnchoringName":null,"notes":null,"fetchLandNM":[0.2,0.2,0.4,1,15,15,15,0.5,0.4,0.4,0.2,0.2,0.2,0.2,0.2,0.2,0.2,0.3,0.3,0.3,0.4,0.6,0.9,1.2,0.6,0.3,0.3,0.2,0.2,0.2,0.2,0.2,0.2,0.2,0.2,0.2],"fetchReefNM":[0.2,0.2,0.4,1,15,15,15,0.5,0.4,0.4,0.2,0.2,0.2,0.2,0.2,0.2,0.2,0.3,0.3,0.3,0.4,0.6,0.9,1.2,0.6,0.3,0.3,0.2,0.2,0.2,0.2,0.2,0.2,0.2,0.2,0.2]}},{"type":"Feature","geometry":{"type":"Point","coordinates":[149.83187,-9.95714]},"properties":{"id":"osm-node13955361385","name":"Koraga Bay","kind":"anchorage","source":"OpenStreetMap","sourceRef":"node/13955361385","likelyAnchorage":true,"noAnchoring":false,"noAnchoringName":null,"notes":null,"fetchLandNM":[10.8,11.3,12.5,14.5,15,15,15,15,15,15,15,15,14.5,10.9,1.8,0.6,0.5,0.4,0.3,0.3,0.3,0.3,0.3,0.2,0.3,0.3,0.3,0.3,0.3,0.3,0.3,0.4,0.6,1.4,11,10.7],"fetchReefNM":[10.8,11.3,12.5,14.5,15,15,15,15,15,15,15,15,14.5,10.9,1.8,0.6,0.5,0.4,0.3,0.3,0.3,0.3,0.3,0.2,0.3,0.3,0.3,0.3,0.3,0.3,0.3,0.4,0.6,1.4,11,10.7]}},{"type":"Feature","geometry":{"type":"Point","coordinates":[149.96337,-9.63246]},"properties":{"id":"osm-node13970637332","name":"Larikuku Bay","kind":"anchorage","source":"OpenStreetMap","sourceRef":"node/13970637332","likelyAnchorage":true,"noAnchoring":false,"noAnchoringName":null,"notes":null,"fetchLandNM":[15,15,15,15,15,15,15,15,1.1,0.6,0.5,0.4,0.4,0.4,0.4,0.4,0.6,0.4,0.4,0.4,0.4,0.5,0.6,0.7,0.8,0.8,2.4,6.2,10.5,15,15,15,15,15,15,15],"fetchReefNM":[15,15,15,15,15,15,15,15,1.1,0.6,0.5,0.4,0.4,0.4,0.4,0.4,0.6,0.4,0.4,0.4,0.4,0.5,0.6,0.7,0.8,0.8,2.4,6.2,10.5,15,15,15,15,15,15,15]}},{"type":"Feature","geometry":{"type":"Point","coordinates":[149.37874,-9.5332]},"properties":{"id":"osm-node13977794456","name":"Masubuna Bay","kind":"anchorage","source":"OpenStreetMap","sourceRef":"node/13977794456","likelyAnchorage":true,"noAnchoring":false,"noAnchoringName":null,"notes":null,"fetchLandNM":[15,15,15,15,15,15,15,15,15,15,15,12.9,7.7,0.9,0.8,0.7,0.6,0.6,0.7,0.6,0.6,0.5,0.5,0.5,0.5,0.5,0.6,0.7,0.8,1,1.2,15,15,15,15,15],"fetchReefNM":[15,15,15,15,15,15,15,15,15,15,15,12.9,7.7,0.9,0.8,0.7,0.6,0.6,0.7,0.6,0.6,0.5,0.5,0.5,0.5,0.5,0.6,0.7,0.8,1,1.2,15,1.1,15,15,15]}},{"type":"Feature","geometry":{"type":"Point","coordinates":[149.4558,-9.59741]},"properties":{"id":"osm-node13045809324","name":"Moi Biri Bay","kind":"anchorage","source":"OpenStreetMap","sourceRef":"node/13045809324","likelyAnchorage":true,"noAnchoring":false,"noAnchoringName":null,"notes":null,"fetchLandNM":[15,15,15,15,15,2.1,15,15,15,1.6,1.1,1,1,0.9,0.9,0.9,0.9,0.9,0.9,0.9,0.8,0.9,0.9,0.8,0.8,0.8,0.8,0.9,1,1.1,1,1.2,1.4,15,15,15],"fetchReefNM":[15,15,15,15,15,2.1,15,15,15,1.6,1.1,1,1,0.9,0.9,0.9,0.9,0.9,0.9,0.9,0.8,0.9,0.9,0.8,0.8,0.8,0.8,0.9,1,1.1,1,1.2,1.4,15,15,15]}},{"type":"Feature","geometry":{"type":"Point","coordinates":[149.74116,-9.8721]},"properties":{"id":"osm-node13955410101","name":"Numa Pupu Bay","kind":"anchorage","source":"OpenStreetMap","sourceRef":"node/13955410101","likelyAnchorage":true,"noAnchoring":false,"noAnchoringName":null,"notes":null,"fetchLandNM":[4.6,4.9,5.6,6.1,7.4,9.2,12.4,15,15,15,15,15,0.4,0.3,0.3,0.3,0.3,0.2,0.2,0.2,0.2,0.2,0.2,0.2,0.2,0.2,0.2,0.2,0.2,0.2,0.2,0.2,0.3,0.4,4.2,4.1],"fetchReefNM":[4.6,4.9,5.6,6.1,7.4,9.2,12.4,15,15,15,15,15,0.4,0.3,0.3,0.3,0.3,0.2,0.2,0.2,0.2,0.2,0.2,0.2,0.2,0.2,0.2,0.2,0.2,0.2,0.2,0.2,0.3,0.4,4.2,4.1]}},{"type":"Feature","geometry":{"type":"Point","coordinates":[148.49018,-8.89482]},"properties":{"id":"osm-node6443994468","name":"Oro Bay","kind":"anchorage","source":"OpenStreetMap","sourceRef":"node/6443994468","likelyAnchorage":true,"noAnchoring":false,"noAnchoringName":null,"notes":null,"fetchLandNM":[0.3,0.7,15,15,15,15,15,15,15,15,0.4,0.3,0.3,0.3,0.3,0.3,0.3,0.3,0.3,0.3,0.3,0.3,0.3,0.3,0.3,0.4,0.4,0.3,0.3,0.3,0.2,0.2,0.2,0.2,0.2,0.2],"fetchReefNM":[0.3,0.7,15,15,15,15,15,15,15,15,0.4,0.3,0.3,0.3,0.3,0.3,0.3,0.3,0.3,0.3,0.3,0.3,0.3,0.3,0.3,0.4,0.4,0.3,0.3,0.3,0.2,0.2,0.2,0.2,0.2,0.2]}},{"type":"Feature","geometry":{"type":"Point","coordinates":[149.06098,-9.05062]},"properties":{"id":"osm-node13994788896","name":"Oumo Bay","kind":"anchorage","source":"OpenStreetMap","sourceRef":"node/13994788896","likelyAnchorage":true,"noAnchoring":false,"noAnchoringName":null,"notes":null,"fetchLandNM":[0.4,0.2,0.2,0.2,0.2,0.2,0.2,0.2,0.2,0.2,0.2,0.2,0.5,0.5,0.4,0.4,0.3,0.3,0.2,0.2,0.2,0.2,0.2,0.2,0.2,0.2,0.2,0.9,15,15,15,15,15,15,15,15],"fetchReefNM":[0.4,0.2,0.2,0.2,0.2,0.2,0.2,0.2,0.2,0.2,0.2,0.2,0.5,0.5,0.4,0.4,0.3,0.3,0.2,0.2,0.2,0.2,0.2,0.2,0.2,0.2,0.2,0.9,15,15,15,15,15,15,15,15]}},{"type":"Feature","geometry":{"type":"Point","coordinates":[149.24755,-9.49737]},"properties":{"id":"osm-node13977794516","name":"Phillips Harbour","kind":"anchorage","source":"OpenStreetMap","sourceRef":"node/13977794516","likelyAnchorage":true,"noAnchoring":false,"noAnchoringName":null,"notes":null,"fetchLandNM":[15,15,15,15,15,15,15,15,15,15,0.5,0.5,0.3,0.3,0.3,0.3,0.3,0.3,0.3,0.3,0.4,0.3,0.3,0.3,0.3,0.3,0.3,0.6,0.7,1.1,1.4,2,4.7,8.3,10.6,11.1],"fetchReefNM":[15,15,15,15,15,15,15,15,15,15,0.5,0.5,0.3,0.3,0.3,0.3,0.3,0.3,0.3,0.3,0.4,0.3,0.3,0.3,0.3,0.3,0.3,0.6,0.7,1.1,1.4,2,4.7,8.3,10.6,11.1]}},{"type":"Feature","geometry":{"type":"Point","coordinates":[149.0757,-9.04453]},"properties":{"id":"osm-node13994788894","name":"Porlock Harbour","kind":"anchorage","source":"OpenStreetMap","sourceRef":"node/13994788894","likelyAnchorage":true,"noAnchoring":false,"noAnchoringName":null,"notes":null,"fetchLandNM":[15,15,0.8,0.3,0.3,0.2,0.2,0.2,0.2,0.3,0.3,0.4,0.4,0.6,1.1,1.1,0.6,0.5,0.3,0.3,0.3,0.3,0.2,0.3,0.6,0.7,0.7,0.7,15,15,15,15,15,15,15,15],"fetchReefNM":[15,15,0.8,0.3,0.3,0.2,0.2,0.2,0.2,0.3,0.3,0.4,0.4,0.6,1.1,1.1,0.6,0.5,0.3,0.3,0.3,0.3,0.2,0.3,0.6,0.7,0.7,0.7,15,15,15,15,15,1.1,15,15]}},{"type":"Feature","geometry":{"type":"Point","coordinates":[148.51305,-8.90879]},"properties":{"id":"osm-node13994839986","name":"Port Harvey","kind":"anchorage","source":"OpenStreetMap","sourceRef":"node/13994839986","likelyAnchorage":true,"noAnchoring":false,"noAnchoringName":null,"notes":null,"fetchLandNM":[15,15,15,15,15,15,15,15,15,15,15,15,0.3,0.3,0.3,0.3,0.3,0.3,0.3,0.4,0.5,0.7,0.8,0.5,0.7,0.9,0.5,0.5,0.4,0.4,0.4,0.5,0.5,0.5,6.5,15],"fetchReefNM":[15,15,15,15,15,15,15,15,15,15,15,15,0.3,0.3,0.3,0.3,0.3,0.3,0.3,0.4,0.5,0.7,0.8,0.5,0.7,0.9,0.5,0.5,0.4,0.4,0.4,0.5,0.5,0.5,6.5,15]}},{"type":"Feature","geometry":{"type":"Point","coordinates":[149.1684,-9.01412]},"properties":{"id":"osm-node13994638367","name":"Port Hennessy","kind":"anchorage","source":"OpenStreetMap","sourceRef":"node/13994638367","likelyAnchorage":true,"noAnchoring":false,"noAnchoringName":null,"notes":null,"fetchLandNM":[15,15,15,15,15,15,15,15,0.3,0.3,0.3,0.3,0.5,0.4,0.2,0.3,0.4,0.6,0.6,1,0.3,0.3,0.2,0.2,0.2,0.2,0.3,0.3,2,1.7,1.8,2,15,15,15,15],"fetchReefNM":[15,15,15,15,15,15,15,15,0.3,0.3,0.3,0.3,0.5,0.4,0.2,0.3,0.4,0.6,0.6,1,0.3,0.3,0.2,0.2,0.2,0.2,0.3,0.3,2,1.7,1.8,2,15,15,15,15]}},{"type":"Feature","geometry":{"type":"Point","coordinates":[149.77632,-9.60498]},"properties":{"id":"osm-node13970637358","name":"Posa Posa Harbour","kind":"anchorage","source":"OpenStreetMap","sourceRef":"node/13970637358","likelyAnchorage":true,"noAnchoring":false,"noAnchoringName":null,"notes":null,"fetchLandNM":[0.3,15,0.6,0.5,0.5,0.4,0.5,0.6,0.7,0.7,0.5,0.4,0.4,0.4,0.3,0.3,0.6,0.2,0.2,0.8,0.8,0.3,0.5,0.5,0.6,0.7,0.3,0.3,0.2,0.2,0.2,0.2,0.3,0.6,0.3,0.2],"fetchReefNM":[0.3,15,0.6,0.5,0.5,0.4,0.5,0.6,0.7,0.7,0.5,0.4,0.4,0.4,0.3,0.3,0.6,0.2,0.2,0.8,0.8,0.3,0.5,0.5,0.6,0.7,0.3,0.3,0.2,0.2,0.2,0.2,0.3,0.6,0.3,0.2]}},{"type":"Feature","geometry":{"type":"Point","coordinates":[148.14529,-8.14627]},"properties":{"id":"osm-node14070309447","name":"Robinson Bay","kind":"anchorage","source":"OpenStreetMap","sourceRef":"node/14070309447","likelyAnchorage":true,"noAnchoring":false,"noAnchoringName":null,"notes":null,"fetchLandNM":[0.4,0.4,0.3,0.4,15,15,15,15,15,15,15,15,15,15,15,2,0.6,0.6,0.5,0.4,0.4,0.4,0.4,0.4,0.4,0.4,0.3,0.3,0.3,0.4,0.4,0.4,0.4,0.4,0.4,0.4],"fetchReefNM":[0.4,0.4,0.3,0.4,15,15,15,15,15,15,15,15,15,15,15,2,0.6,0.6,0.5,0.4,0.4,0.4,0.4,0.4,0.4,0.4,0.3,0.3,0.3,0.4,0.4,0.4,0.4,0.4,0.4,0.4]}},{"type":"Feature","geometry":{"type":"Point","coordinates":[149.90115,-9.64033]},"properties":{"id":"osm-node13970637334","name":"Silaliba Bay","kind":"anchorage","source":"OpenStreetMap","sourceRef":"node/13970637334","likelyAnchorage":true,"noAnchoring":false,"noAnchoringName":null,"notes":null,"fetchLandNM":[15,15,15,15,15,15,15,15,15,0.6,0.3,0.2,0.2,0.2,0.2,0.2,0.1,0.1,0.1,0.1,0.2,0.2,0.2,0.2,0.2,0.2,0.2,0.2,2.5,2.9,15,15,15,15,15,0.3],"fetchReefNM":[15,15,15,15,15,15,15,15,15,0.6,0.3,0.2,0.2,0.2,0.2,0.2,0.1,0.1,0.1,0.1,0.2,0.2,0.2,0.2,0.2,0.2,0.2,0.2,2.5,2.9,15,15,15,15,15,0.3]}},{"type":"Feature","geometry":{"type":"Point","coordinates":[149.26361,-9.17581]},"properties":{"id":"osm-node13989495887","name":"Simoro Bay","kind":"anchorage","source":"OpenStreetMap","sourceRef":"node/13989495887","likelyAnchorage":true,"noAnchoring":false,"noAnchoringName":null,"notes":null,"fetchLandNM":[0.1,0.1,0.1,0.1,0.5,0.1,0.1,0.1,0.1,0.1,0.1,0.2,0.2,0.3,15,15,15,15,15,15,0.4,0.2,0.1,0.1,0.1,0.1,0.1,0.2,0.2,0.2,0.2,0.2,0.3,0.3,0.2,0.2],"fetchReefNM":[0.1,0.1,0.1,0.1,0.5,0.1,0.1,0.1,0.1,0.1,0.1,0.2,0.2,0.3,15,15,15,15,15,15,0.4,0.2,0.1,0.1,0.1,0.1,0.1,0.2,0.2,0.2,0.2,0.2,0.3,0.3,0.2,0.2]}},{"type":"Feature","geometry":{"type":"Point","coordinates":[149.71729,-9.8437]},"properties":{"id":"osm-node13955410103","name":"Sirisiri Bay","kind":"anchorage","source":"OpenStreetMap","sourceRef":"node/13955410103","likelyAnchorage":true,"noAnchoring":false,"noAnchoringName":null,"notes":null,"fetchLandNM":[2.2,2.3,2.7,3.4,4.4,5.6,8.1,13,15,15,15,15,15,0.6,0.4,0.3,0.3,0.3,0.3,0.3,0.3,0.3,0.3,0.3,0.3,0.3,0.3,0.3,0.3,0.3,0.3,0.5,0.6,0.7,1.1,1.8],"fetchReefNM":[2.2,2.3,2.7,3.4,4.4,5.6,8.1,13,15,15,15,15,15,0.6,0.4,0.3,0.3,0.3,0.3,0.3,0.3,0.3,0.3,0.3,0.3,0.3,0.3,0.3,0.3,0.3,0.3,0.5,0.6,0.7,1.1,1.8]}},{"type":"Feature","geometry":{"type":"Point","coordinates":[149.19499,-9.00722]},"properties":{"id":"osm-node13994638365","name":"Tamari Bay","kind":"anchorage","source":"OpenStreetMap","sourceRef":"node/13994638365","likelyAnchorage":true,"noAnchoring":false,"noAnchoringName":null,"notes":null,"fetchLandNM":[15,15,15,15,15,15,15,15,0.5,0.5,0.4,0.4,0.4,0.4,0.4,0.4,0.4,0.4,0.4,0.4,0.4,0.4,0.4,0.4,0.4,0.4,3.6,3.6,3.3,15,15,15,15,15,15,15],"fetchReefNM":[15,15,15,15,15,15,15,15,0.5,0.5,0.4,0.4,0.4,0.4,0.4,0.4,0.4,0.4,0.4,0.4,0.4,0.4,0.4,0.4,0.4,0.4,3.6,3.6,3.3,15,15,15,15,15,15,15]}},{"type":"Feature","geometry":{"type":"Point","coordinates":[149.89136,-9.64157]},"properties":{"id":"osm-node13970637335","name":"Tapio Bay","kind":"anchorage","source":"OpenStreetMap","sourceRef":"node/13970637335","likelyAnchorage":true,"noAnchoring":false,"noAnchoringName":null,"notes":null,"fetchLandNM":[15,15,15,15,15,15,0.2,0.1,0.1,0.1,0.1,0.1,0.1,0.1,0.1,0.2,0.2,0.2,0.2,0.2,0.2,0.2,0.2,0.1,0.1,0.1,0.1,0.1,0.1,2.1,15,15,15,15,15,15],"fetchReefNM":[15,15,15,15,15,15,0.2,0.1,0.1,0.1,0.1,0.1,0.1,0.1,0.1,0.2,0.2,0.2,0.2,0.2,0.2,0.2,0.2,0.1,0.1,0.1,0.1,0.1,0.1,2.1,15,15,15,15,15,15]}},{"type":"Feature","geometry":{"type":"Point","coordinates":[149.27668,-9.02331]},"properties":{"id":"osm-node13994638361","name":"Teniaru Bay","kind":"anchorage","source":"OpenStreetMap","sourceRef":"node/13994638361","likelyAnchorage":true,"noAnchoring":false,"noAnchoringName":null,"notes":null,"fetchLandNM":[0.2,0.6,15,15,15,0.3,0.2,0.2,0.1,0.1,0.1,0.1,0.2,0.2,0.2,0.2,0.2,0.1,0.1,0.1,0.1,0.6,0.7,0.3,0.3,0.3,0.3,0.2,0.2,0.2,0.1,0.1,0.1,0.1,0.1,0.2],"fetchReefNM":[0.2,0.6,15,15,15,0.3,0.2,0.2,0.1,0.1,0.1,0.1,0.2,0.2,0.2,0.2,0.2,0.1,0.1,0.1,0.1,0.6,0.7,0.3,0.3,0.3,0.3,0.2,0.2,0.2,0.1,0.1,0.1,0.1,0.1,0.2]}},{"type":"Feature","geometry":{"type":"Point","coordinates":[149.81453,-9.92895]},"properties":{"id":"osm-node13955361388","name":"Tosi Tosi Bay","kind":"anchorage","source":"OpenStreetMap","sourceRef":"node/13955361388","likelyAnchorage":true,"noAnchoring":false,"noAnchoringName":null,"notes":null,"fetchLandNM":[9.1,9.3,9.7,11.3,13.9,15,15,15,15,15,15,15,15,14.6,6.8,0.4,0.3,0.2,0.2,0.2,0.2,0.2,0.2,0.2,0.2,0.2,0.2,0.2,0.2,0.2,0.2,0.2,0.2,0.3,0.3,8.9],"fetchReefNM":[9.1,9.3,9.7,11.3,13.9,15,15,15,15,15,15,15,15,14.6,6.8,0.4,0.3,0.2,0.2,0.2,0.2,0.2,0.2,0.2,0.2,0.2,0.2,0.2,0.2,0.2,0.2,0.2,0.2,0.3,0.3,8.9]}},{"type":"Feature","geometry":{"type":"Point","coordinates":[149.31126,-9.08495]},"properties":{"id":"osm-node13994638343","name":"Tufi Harbour","kind":"anchorage","source":"OpenStreetMap","sourceRef":"node/13994638343","likelyAnchorage":true,"noAnchoring":false,"noAnchoringName":null,"notes":null,"fetchLandNM":[0.1,0.1,0.1,0.4,0.4,0.4,0.6,1,15,15,0.3,0.2,0.2,0.2,0.2,0.1,0.1,0.1,0.1,0.2,0.2,0.3,0.3,0.6,0.5,0.5,0.8,0.2,0.2,0.2,0.2,0.2,0.2,0.1,0.1,0.1],"fetchReefNM":[0.1,0.1,0.1,0.4,0.4,0.4,0.6,1,15,15,0.3,0.2,0.2,0.2,0.2,0.1,0.1,0.1,0.1,0.2,0.2,0.3,0.3,0.6,0.5,0.5,0.8,0.2,0.2,0.2,0.2,0.2,0.2,0.1,0.1,0.1]}},{"type":"Feature","geometry":{"type":"Point","coordinates":[149.31241,-9.1551]},"properties":{"id":"osm-node13989495968","name":"Uramanoa Bay","kind":"anchorage","source":"OpenStreetMap","sourceRef":"node/13989495968","likelyAnchorage":true,"noAnchoring":false,"noAnchoringName":null,"notes":null,"fetchLandNM":[0.1,0.1,0.1,0.1,0.1,0.1,0.1,0.1,0.2,0.2,0.2,15,15,15,15,15,0.3,0.2,0.1,0.1,0.1,0.1,0.1,0.1,0.1,0.1,0.2,0.2,0.3,0.4,0.7,0.2,0.2,0.2,0.1,0.1],"fetchReefNM":[0.1,0.1,0.1,0.1,0.1,0.1,0.1,0.1,0.2,0.2,0.2,15,15,15,15,15,0.3,0.2,0.1,0.1,0.1,0.1,0.1,0.1,0.1,0.1,0.2,0.2,0.3,0.4,0.7,0.2,0.2,0.2,0.1,0.1]}},{"type":"Feature","geometry":{"type":"Point","coordinates":[149.29426,-9.16536]},"properties":{"id":"osm-node13989495966","name":"Utukwaf Bay","kind":"anchorage","source":"OpenStreetMap","sourceRef":"node/13989495966","likelyAnchorage":true,"noAnchoring":false,"noAnchoringName":null,"notes":null,"fetchLandNM":[0.1,0.1,0.1,0.1,0.1,0.1,0.1,0.1,0.1,0.1,15,15,15,15,15,15,15,15,15,0.1,0.1,0.1,0.1,0.1,0.1,0.1,0.1,0.1,0.2,0.2,0.6,0.5,0.7,0.4,0.2,0.2],"fetchReefNM":[0.1,0.1,0.1,0.1,0.1,0.1,0.1,0.1,0.1,0.1,11.1,15,15,15,15,15,15,15,15,0.1,0.1,0.1,0.1,0.1,0.1,0.1,0.1,0.1,0.2,0.2,0.6,0.5,0.7,0.4,0.2,0.2]}},{"type":"Feature","geometry":{"type":"Point","coordinates":[149.2742,-9.16726]},"properties":{"id":"osm-node13989495965","name":"Wajama Inlet","kind":"anchorage","source":"OpenStreetMap","sourceRef":"node/13989495965","likelyAnchorage":true,"noAnchoring":false,"noAnchoringName":null,"notes":null,"fetchLandNM":[0.1,0.1,0.1,0.1,0.1,0.1,0.1,0.1,0.1,0.1,0.1,0.1,0.1,0.1,0.1,0.2,0.6,15,0.4,0.2,0.1,0.1,0.1,0.1,0.1,0.1,0.1,0.1,0.1,0.1,0.1,0.1,0.3,0.3,0.3,0.2],"fetchReefNM":[0.1,0.1,0.1,0.1,0.1,0.1,0.1,0.1,0.1,0.1,0.1,0.1,0.1,0.1,0.1,0.2,0.6,15,0.4,0.2,0.1,0.1,0.1,0.1,0.1,0.1,0.1,0.1,0.1,0.1,0.1,0.1,0.3,0.3,0.3,0.2]}},{"type":"Feature","geometry":{"type":"Point","coordinates":[149.84692,-9.97747]},"properties":{"id":"osm-node13955361383","name":"Waraka Bay","kind":"anchorage","source":"OpenStreetMap","sourceRef":"node/13955361383","likelyAnchorage":true,"noAnchoring":false,"noAnchoringName":null,"notes":null,"fetchLandNM":[12,13.1,13.3,15,15,15,15,15,15,15,15,0.5,0.3,0.2,0.2,0.2,0.2,0.2,0.2,0.2,0.2,0.2,0.2,0.2,0.2,0.1,0.1,0.1,0.1,0.2,0.2,0.2,0.2,0.3,12.4,12.1],"fetchReefNM":[12,13.1,13.3,15,15,15,15,15,15,15,15,0.5,0.3,0.2,0.2,0.2,0.2,0.2,0.2,0.2,0.2,0.2,0.2,0.2,0.2,0.1,0.1,0.1,0.1,0.2,0.2,0.2,0.2,0.3,12.4,12.1]}},{"type":"Feature","geometry":{"type":"Point","coordinates":[149.2593,-9.18689]},"properties":{"id":"osm-node13989495886","name":"Wonare Bay","kind":"anchorage","source":"OpenStreetMap","sourceRef":"node/13989495886","likelyAnchorage":true,"noAnchoring":false,"noAnchoringName":null,"notes":null,"fetchLandNM":[0.1,0.1,0.2,0.2,0.7,1.3,1.2,2,15,15,15,15,15,15,15,15,15,15,15,15,3.6,0.3,0.2,0.2,0.2,0.2,0.2,0.2,0.2,0.2,0.2,0.2,0.2,0.2,0.1,0.1],"fetchReefNM":[0.1,0.1,0.2,0.2,0.7,1.3,1.2,2,15,15,15,15,15,15,15,15,15,15,15,15,3.6,0.3,0.2,0.2,0.2,0.2,0.2,0.2,0.2,0.2,0.2,0.2,0.2,0.2,0.1,0.1]}}]}