{"type":"FeatureCollection","meta":{"region":"QLD","tile":"t-10e152","built":"2026-08-25","sources":["OpenStreetMap (ODbL)","GBRMPA (CC BY)"]},"features":[{"type":"Feature","geometry":{"type":"Point","coordinates":[152.95159,-9.11962]},"properties":{"id":"osm-node13873741004","name":"Buyuasi Bay","kind":"anchorage","source":"OpenStreetMap","sourceRef":"node/13873741004","likelyAnchorage":true,"noAnchoring":false,"noAnchoringName":null,"notes":null,"fetchLandNM":[15,15,15,15,15,15,15,15,15,15,1.4,1.4,1.3,0.5,0.4,0.4,0.4,0.4,0.4,0.4,0.4,0.5,0.4,0.4,0.4,0.3,0.3,0.3,0.3,0.3,0.3,0.3,0.3,0.4,0.4,0.7],"fetchReefNM":[15,15,15,15,15,15,15,15,15,15,1.4,1.4,1.3,0.5,0.4,0.4,0.4,0.4,0.4,0.4,0.4,0.5,0.4,0.4,0.4,0.3,0.3,0.3,0.3,0.3,0.3,0.3,0.3,0.4,0.4,0.7]}},{"type":"Feature","geometry":{"type":"Point","coordinates":[152.93759,-9.23635]},"properties":{"id":"osm-node13081432482","name":"Guasopa Harbour","kind":"anchorage","source":"OpenStreetMap","sourceRef":"node/13081432482","likelyAnchorage":true,"noAnchoring":false,"noAnchoringName":null,"notes":null,"fetchLandNM":[0.7,0.7,0.7,0.7,0.7,0.7,0.8,0.9,0.9,1,1.1,1,1.5,1.8,15,15,0.9,0.9,15,15,15,15,15,2.2,7,15,1.9,1.7,1.4,0.3,0.8,0.9,0.8,0.7,0.7,0.7],"fetchReefNM":[0.7,0.7,0.7,0.7,0.7,0.7,0.8,0.9,0.9,1,1.1,1,1.5,1.8,15,15,0.9,0.9,15,15,15,15,15,2.1,4.8,15,1.9,1.7,1.4,0.3,0.8,0.9,0.8,0.7,0.7,0.7]}},{"type":"Feature","geometry":{"type":"Point","coordinates":[152.80355,-9.02215]},"properties":{"id":"osm-node13873741005","name":"Kaurai Lagoon","kind":"anchorage","source":"OpenStreetMap","sourceRef":"node/13873741005","likelyAnchorage":true,"noAnchoring":false,"noAnchoringName":null,"notes":null,"fetchLandNM":[0.2,0.2,0.2,0.2,0.2,0.4,0.4,0.3,0.3,0.3,0.3,0.3,0.3,0.3,0.3,0.2,0.2,0.3,0.3,0.3,0.3,0.3,0.2,0.2,0.2,0.2,0.2,0.2,0.3,0.3,0.3,0.3,0.3,0.4,0.4,0.2],"fetchReefNM":[0.2,0.2,0.2,0.2,0.2,0.4,0.4,0.3,0.3,0.3,0.3,0.3,0.3,0.3,0.3,0.2,0.2,0.3,0.3,0.3,0.3,0.3,0.2,0.2,0.2,0.2,0.2,0.2,0.3,0.3,0.3,0.3,0.3,0.4,0.4,0.2]}},{"type":"Feature","geometry":{"type":"Point","coordinates":[152.95879,-9.20567]},"properties":{"id":"osm-node13081442333","name":"Kumarau Bay","kind":"anchorage","source":"OpenStreetMap","sourceRef":"node/13081442333","likelyAnchorage":true,"noAnchoring":false,"noAnchoringName":null,"notes":null,"fetchLandNM":[1,0.9,0.9,0.8,0.8,0.8,0.9,1.2,15,15,15,15,15,15,15,15,1.2,0.9,0.8,0.7,0.6,0.6,0.6,0.6,0.8,0.9,1.1,1.1,1.1,2.5,2,2.2,2.1,2,1.9,1.1],"fetchReefNM":[1,0.9,0.9,0.8,0.8,0.8,0.9,1.2,15,15,8.7,15,15,15,15,15,1.2,0.9,0.8,0.7,0.6,0.6,0.6,0.6,0.8,0.9,1.1,1.1,1.1,2.5,2,2.2,2.1,2,1.9,1.1]}},{"type":"Feature","geometry":{"type":"Point","coordinates":[152.69104,-9.09499]},"properties":{"id":"osm-node13873974372","name":"Kwaiapan Bay","kind":"anchorage","source":"OpenStreetMap","sourceRef":"node/13873974372","likelyAnchorage":true,"noAnchoring":false,"noAnchoringName":null,"notes":null,"fetchLandNM":[0.5,0.5,0.5,0.6,0.6,0.7,0.7,0.7,0.7,0.7,0.7,0.7,0.7,0.6,0.5,0.5,0.5,0.5,0.5,0.5,0.6,0.7,0.7,15,0.6,0.6,1,0.8,0.7,0.6,0.6,0.6,0.6,0.5,0.5,0.5],"fetchReefNM":[0.5,0.5,0.5,0.6,0.6,0.7,0.7,0.7,0.7,0.7,0.7,0.7,0.7,0.6,0.5,0.5,0.5,0.5,0.5,0.5,0.6,0.7,0.7,15,0.6,0.6,1,0.8,0.7,0.6,0.6,0.6,0.6,0.5,0.5,0.5]}},{"type":"Feature","geometry":{"type":"Point","coordinates":[152.74253,-9.20982]},"properties":{"id":"osm-node13873695175","name":"Suloga Harbour","kind":"anchorage","source":"OpenStreetMap","sourceRef":"node/13873695175","likelyAnchorage":true,"noAnchoring":false,"noAnchoringName":null,"notes":null,"fetchLandNM":[1.9,1.3,1,0.8,0.7,0.7,0.8,0.8,0.8,0.9,0.9,0.9,0.9,1,1.8,0.8,0.8,0.8,0.8,0.8,0.8,0.8,0.8,0.8,0.8,0.8,0.9,0.9,0.9,0.9,0.9,0.8,0.8,0.8,0.8,1.2],"fetchReefNM":[1.9,1.3,1,0.8,0.7,0.7,0.8,0.8,0.8,0.9,0.9,0.9,0.9,1,1.8,0.8,0.8,0.8,0.8,0.8,0.8,0.8,0.8,0.8,0.8,0.8,0.9,0.9,0.9,0.9,0.9,0.8,0.8,0.8,0.8,1.2]}},{"type":"Feature","geometry":{"type":"Point","coordinates":[152.45389,-8.99828]},"properties":{"id":"osm-node13873974395","name":"Ukinbod Bay","kind":"anchorage","source":"OpenStreetMap","sourceRef":"node/13873974395","likelyAnchorage":true,"noAnchoring":false,"noAnchoringName":null,"notes":null,"fetchLandNM":[2,2,2.1,2,1.8,1.8,1.8,1.9,2.2,3.1,2.9,2.8,2.6,2.6,2.6,2.6,2.5,15,15,15,4.8,3.3,2.8,2.4,1.8,1.6,1.7,1.9,1.9,2.1,2.1,2.4,1.5,2,1.9,2.1],"fetchReefNM":[2,2,2.1,2,1.8,1.8,1.8,1.9,2.2,3.1,2.9,2.8,2.6,2.6,2.6,2.6,2.5,10.9,10.6,9.3,4.8,3.3,2.8,2.4,1.8,1.6,1.7,1.9,1.9,2.1,2.1,2.4,1.5,2,1.9,2.1]}},{"type":"Feature","geometry":{"type":"Point","coordinates":[152.73804,-9.01523]},"properties":{"id":"osm-node13873974383","name":"Waspimat Bay","kind":"anchorage","source":"OpenStreetMap","sourceRef":"node/13873974383","likelyAnchorage":true,"noAnchoring":false,"noAnchoringName":null,"notes":null,"fetchLandNM":[15,15,15,15,15,15,15,15,1.5,1,0.8,0.8,0.7,0.7,0.7,0.7,0.7,0.6,0.6,0.6,0.6,0.6,0.6,0.6,0.6,0.6,0.7,0.7,2.5,15,15,15,15,15,15,15],"fetchReefNM":[15,15,15,15,15,15,15,15,1.5,1,0.8,0.8,0.7,0.7,0.7,0.7,0.7,0.6,0.6,0.6,0.6,0.6,0.6,0.6,0.6,0.6,0.7,0.7,2.5,15,15,15,15,15,15,15]}},{"type":"Feature","geometry":{"type":"Point","coordinates":[152.68106,-9.17126]},"properties":{"id":"osm-node13873974345","name":"Wonai Bay","kind":"anchorage","source":"OpenStreetMap","sourceRef":"node/13873974345","likelyAnchorage":true,"noAnchoring":false,"noAnchoringName":null,"notes":null,"fetchLandNM":[1.9,1.6,1.6,1.7,1.4,1,0.9,0.9,1,1.7,1.7,1.5,1.5,1.3,1,1,1,0.9,1.1,1.3,1.4,1.7,1.5,1.4,1.8,1.9,1.7,1.4,1.2,1.1,15,11.9,6.3,4,1.9,1.9],"fetchReefNM":[1.9,1.6,1.6,1.7,1.4,1,0.9,0.9,1,1.7,1.7,1.5,1.5,1.3,1,1,1,0.9,1.1,1.3,1.4,1.7,1.5,1.4,1.8,1.9,1.7,1.4,1.2,1.1,15,11.9,6.3,4,1.9,1.9]}}]}