{"type":"FeatureCollection","meta":{"region":"QLD","tile":"t-10e140","built":"2026-08-25","sources":["OpenStreetMap (ODbL)","GBRMPA (CC BY)"]},"features":[{"type":"Feature","geometry":{"type":"Point","coordinates":[141.3321,-9.14514]},"properties":{"id":"osm-node3020492443","name":"Health Bay","kind":"anchorage","source":"OpenStreetMap","sourceRef":"node/3020492443","likelyAnchorage":true,"noAnchoring":false,"noAnchoringName":null,"notes":null,"fetchLandNM":[0.4,0.4,0.4,0.5,0.6,0.7,0.7,0.8,1.2,7.3,10.3,15,15,15,15,15,15,15,15,15,15,15,15,15,1.6,1,0.7,0.6,0.6,0.6,0.6,0.6,0.6,0.5,0.5,0.4],"fetchReefNM":[0.4,0.4,0.4,0.5,0.6,0.7,0.7,0.8,1.2,7.3,10.3,15,15,15,15,15,15,15,15,15,15,15,15,15,1.6,1,0.7,0.6,0.6,0.6,0.6,0.6,0.6,0.5,0.5,0.4]}},{"type":"Feature","geometry":{"type":"Point","coordinates":[141.60291,-9.20683]},"properties":{"id":"osm-node3020492483","name":"Jerai Bay","kind":"anchorage","source":"OpenStreetMap","sourceRef":"node/3020492483","likelyAnchorage":true,"noAnchoring":false,"noAnchoringName":null,"notes":null,"fetchLandNM":[0.5,0.5,0.5,0.5,0.5,0.5,0.6,0.6,0.7,0.8,1.3,15,15,15,15,15,15,15,15,15,15,15,15,15,15,15,15,15,2.5,1.3,1,0.8,0.7,0.6,0.6,0.5],"fetchReefNM":[0.5,0.5,0.5,0.5,0.5,0.5,0.6,0.6,0.7,0.8,1.3,15,15,15,15,15,15,15,15,15,15,15,15,15,15,15,15,15,2.5,1.3,1,0.8,0.7,0.6,0.6,0.5]}},{"type":"Feature","geometry":{"type":"Point","coordinates":[141.77082,-9.18964]},"properties":{"id":"osm-node3020494165","name":"Thomson Bay","kind":"anchorage","source":"OpenStreetMap","sourceRef":"node/3020494165","likelyAnchorage":true,"noAnchoring":false,"noAnchoringName":null,"notes":null,"fetchLandNM":[0.6,0.6,0.6,0.6,0.7,0.8,0.9,1.3,2,3.6,15,15,15,15,15,15,15,15,15,15,15,15,15,15,15,15,15,1.7,1.1,0.9,0.8,0.7,0.7,0.6,0.6,0.6],"fetchReefNM":[0.6,0.6,0.6,0.6,0.7,0.8,0.9,1.3,2,3.6,15,15,15,15,15,15,15,15,15,15,15,15,15,15,15,15,15,1.7,1.1,0.9,0.8,0.7,0.7,0.6,0.6,0.6]}}]}