{"type":"FeatureCollection","meta":{"region":"QLD","tile":"t-10e146","built":"2026-08-25","sources":["OpenStreetMap (ODbL)","GBRMPA (CC BY)"]},"features":[{"type":"Feature","geometry":{"type":"Point","coordinates":[147.28228,-9.50763]},"properties":{"id":"osm-node13988278982","name":"Bogoro Inlet","kind":"anchorage","source":"OpenStreetMap","sourceRef":"node/13988278982","likelyAnchorage":true,"noAnchoring":false,"noAnchoringName":null,"notes":null,"fetchLandNM":[0.5,0.4,0.3,0.4,0.5,0.8,0.9,0.7,0.6,0.3,0.2,0.2,0.2,0.2,0.3,0.4,0.6,0.9,15,1.7,15,15,15,3,0.3,0.3,0.3,0.3,0.3,0.3,0.3,0.3,0.3,0.3,0.6,0.6],"fetchReefNM":[0.5,0.4,0.3,0.4,0.5,0.8,0.9,0.7,0.6,0.3,0.2,0.2,0.2,0.2,0.3,0.4,0.6,0.8,0.7,0.8,4.3,4.2,4,3,0.3,0.3,0.3,0.3,0.3,0.3,0.3,0.3,0.3,0.3,0.6,0.6]}},{"type":"Feature","geometry":{"type":"Point","coordinates":[147.2565,-9.49602]},"properties":{"id":"osm-node13988278983","name":"Bootless Inlet","kind":"anchorage","source":"OpenStreetMap","sourceRef":"node/13988278983","likelyAnchorage":true,"noAnchoring":false,"noAnchoringName":null,"notes":null,"fetchLandNM":[0.8,0.8,0.7,0.7,0.7,0.7,0.7,0.7,0.7,0.7,0.8,0.9,1,4.8,3.1,15,15,15,1.2,1,0.8,0.7,0.6,0.6,0.6,1,0.6,0.6,0.7,0.8,0.9,1,1,0.9,0.8,0.8],"fetchReefNM":[0.8,0.8,0.7,0.7,0.7,0.7,0.7,0.7,0.7,0.7,0.8,0.9,1,4.8,2.1,15,15,4.6,1.2,1,0.8,0.7,0.6,0.6,0.6,1,0.6,0.6,0.7,0.8,0.9,1,1,0.9,0.8,0.8]}},{"type":"Feature","geometry":{"type":"Point","coordinates":[146.96574,-9.30278]},"properties":{"id":"osm-node13790243680","name":"Caution Bay","kind":"anchorage","source":"OpenStreetMap","sourceRef":"node/13790243680","likelyAnchorage":true,"noAnchoring":false,"noAnchoringName":null,"notes":null,"fetchLandNM":[1.6,1.5,1.5,1.4,1.4,1.5,1.6,1.5,1.6,1.9,2.1,2.2,2.4,2.8,4,5,13.1,15,15,15,15,15,15,15,15,15,15,15,15,15,2.7,2.8,2.6,2.3,2,1.8],"fetchReefNM":[1.6,1.5,1.5,1.4,1.4,1.5,1.6,1.5,1.6,1.9,2.1,2.2,2.4,2.8,4,5,13,15,15,15,15,15,15,15,15,15,15,15,15,15,2.7,2.8,2.6,2.3,2,1.8]}},{"type":"Feature","geometry":{"type":"Point","coordinates":[147.09964,-9.43281]},"properties":{"id":"osm-node8329221577","name":"Fairfax Harbour","kind":"anchorage","source":"OpenStreetMap","sourceRef":"node/8329221577","likelyAnchorage":true,"noAnchoring":false,"noAnchoringName":null,"notes":null,"fetchLandNM":[0.5,0.5,0.5,0.4,0.4,0.4,0.3,0.6,2,1.4,0.6,0.6,0.7,0.8,0.4,0.4,0.5,1.1,1.1,1,0.9,0.8,0.4,0.4,0.5,0.6,0.6,0.6,1,1.1,0.5,1.1,0.9,0.8,0.8,0.7],"fetchReefNM":[0.5,0.5,0.5,0.4,0.4,0.4,0.3,0.6,2,1.4,0.6,0.6,0.7,0.8,0.4,0.4,0.5,1.1,1.1,1,0.9,0.8,0.4,0.4,0.5,0.6,0.6,0.6,1,1.1,0.5,1.1,0.9,0.8,0.8,0.7]}},{"type":"Feature","geometry":{"type":"Point","coordinates":[146.91692,-9.1143]},"properties":{"id":"osm-node13790259180","name":"Galley Reach","kind":"anchorage","source":"OpenStreetMap","sourceRef":"node/13790259180","likelyAnchorage":true,"noAnchoring":false,"noAnchoringName":null,"notes":null,"fetchLandNM":[0.7,0.7,0.5,0.5,0.6,1,3.1,2.2,1.5,0.9,0.6,0.5,0.5,1.2,0.5,0.4,0.8,0.7,0.7,0.7,0.7,0.5,0.5,0.6,0.9,1,15,15,0.8,0.7,0.4,0.4,0.4,0.6,0.6,0.7],"fetchReefNM":[0.7,0.7,0.5,0.5,0.6,1,3.1,2.2,1.5,0.9,0.6,0.5,0.5,1.2,0.5,0.4,0.8,0.7,0.7,0.7,0.7,0.5,0.5,0.6,0.9,1,15,15,0.8,0.7,0.4,0.4,0.4,0.6,0.6,0.7]}},{"type":"Feature","geometry":{"type":"Point","coordinates":[146.54288,-8.79134]},"properties":{"id":"osm-node13715698176","name":"Hall Sound","kind":"anchorage","source":"OpenStreetMap","sourceRef":"node/13715698176","likelyAnchorage":false,"noAnchoring":false,"noAnchoringName":null,"notes":null,"fetchLandNM":[1.6,1.3,1.3,1.4,1.4,1.5,1.6,1.5,1.5,1.4,1.5,1.9,1.8,1.6,4.3,4.4,3.8,5.1,1.4,1.2,1.1,1.1,1,1.2,1.1,1,1.1,1.1,1.1,1.3,1.9,15,15,11.3,5.1,1.9],"fetchReefNM":[1.6,1.3,1.3,1.4,1.4,1.5,1.6,1.5,1.5,1.4,1.5,1.9,1.8,1.6,4.3,4.4,3.8,5.1,1.4,1.2,1.1,1.1,1,1.2,1.1,1,1.1,1.1,1.1,1.3,1.9,15,15,11.3,5.1,1.9]}},{"type":"Feature","geometry":{"type":"Point","coordinates":[147.0879,-9.46762]},"properties":{"id":"osm-node8329221196","name":"Idlers Bay","kind":"anchorage","source":"OpenStreetMap","sourceRef":"node/8329221196","likelyAnchorage":true,"noAnchoring":false,"noAnchoringName":null,"notes":null,"fetchLandNM":[0.4,0.5,0.5,0.5,0.5,0.4,0.4,0.4,0.3,0.5,0.5,0.5,0.5,0.5,0.5,0.4,0.4,0.3,0.3,0.3,3.1,3.2,3.4,15,15,15,15,0.4,0.4,0.6,0.7,0.4,0.3,0.3,0.3,0.4],"fetchReefNM":[0.4,0.5,0.5,0.5,0.5,0.4,0.4,0.4,0.3,0.5,0.5,0.5,0.5,0.5,0.5,0.4,0.4,0.3,0.3,0.3,2.3,2.5,3,3.6,15,15,15,0.4,0.4,0.6,0.7,0.4,0.3,0.3,0.3,0.4]}},{"type":"Feature","geometry":{"type":"Point","coordinates":[147.19941,-9.50285]},"properties":{"id":"osm-node13988291622","name":"Iriu Bay","kind":"anchorage","source":"OpenStreetMap","sourceRef":"node/13988291622","likelyAnchorage":true,"noAnchoring":false,"noAnchoringName":null,"notes":null,"fetchLandNM":[0.3,0.3,0.3,0.3,0.3,0.3,0.3,0.3,0.4,0.4,0.5,0.6,0.7,0.9,15,15,15,15,15,15,15,15,15,15,1.4,1.3,0.4,0.4,0.4,0.4,0.5,0.5,0.4,0.4,0.4,0.4],"fetchReefNM":[0.3,0.3,0.3,0.3,0.3,0.3,0.3,0.3,0.4,0.4,0.5,0.6,0.7,0.9,5.8,3.6,3.1,3.2,3.2,3.2,3.5,3.7,3.7,3.8,1.4,1.3,0.4,0.4,0.4,0.4,0.5,0.5,0.4,0.4,0.4,0.4]}},{"type":"Feature","geometry":{"type":"Point","coordinates":[147.3379,-9.58253]},"properties":{"id":"osm-node13988278978","name":"Konebada Bay","kind":"anchorage","source":"OpenStreetMap","sourceRef":"node/13988278978","likelyAnchorage":true,"noAnchoring":false,"noAnchoringName":null,"notes":null,"fetchLandNM":[0.8,0.7,0.8,0.8,0.8,0.8,0.7,0.7,0.9,1.5,1.5,1.3,1,1.1,1.1,15,15,15,15,15,15,15,15,15,15,15,15,15,15,15,6.3,6.6,1.8,1.6,0.9,0.8],"fetchReefNM":[0.8,0.7,0.8,0.8,0.8,0.8,0.7,0.7,0.9,1.5,1.5,1.3,1,1.1,1.1,15,15,15,15,15,15,15,15,15,15,15,15,15,5.6,15,6.3,3.2,1.8,1.6,0.9,0.8]}},{"type":"Feature","geometry":{"type":"Point","coordinates":[147.98641,-8.03455]},"properties":{"id":"osm-node10692689399","name":"Mambare Bay","kind":"anchorage","source":"OpenStreetMap","sourceRef":"node/10692689399","likelyAnchorage":true,"noAnchoring":false,"noAnchoringName":null,"notes":null,"fetchLandNM":[15,15,15,15,15,15,15,15,15,15,8,4.7,2.8,1.8,1.3,1.3,1.3,2.2,2.1,1.8,1.6,1.5,1.2,1.2,1.2,1.2,1.2,1.2,1.3,1.4,1.6,1.9,15,15,15,15],"fetchReefNM":[15,15,15,15,15,15,15,15,15,15,8,4.7,2.8,1.8,1.3,1.3,1.3,2.2,2.1,1.8,1.6,1.5,1.2,1.2,1.2,1.2,1.2,1.2,1.3,1.4,1.6,1.9,15,15,15,15]}},{"type":"Feature","geometry":{"type":"Point","coordinates":[146.86956,-9.15829]},"properties":{"id":"osm-node13790243679","name":"Redscar Bay","kind":"anchorage","source":"OpenStreetMap","sourceRef":"node/13790243679","likelyAnchorage":true,"noAnchoring":false,"noAnchoringName":null,"notes":null,"fetchLandNM":[2.9,2.8,2.8,3.1,1.9,1.9,1.9,2.1,2.4,2.9,2.3,2.4,2.5,2.9,3.2,3.9,6.8,15,15,15,15,15,15,15,15,15,15,15,15,15,15,10.1,8.1,4.6,3.8,3.2],"fetchReefNM":[2.9,2.8,2.8,3.1,1.9,1.9,1.9,2.1,2.4,2.9,2.3,2.4,2.5,2.9,3.2,3.9,6.8,15,15,15,15,15,15,15,15,15,15,15,15,15,15,10.1,8.1,4.6,3.8,3.2]}},{"type":"Feature","geometry":{"type":"Point","coordinates":[147.54521,-9.92743]},"properties":{"id":"osm-node13987561131","name":"Round Hill Anchorage","kind":"anchorage","source":"OpenStreetMap","sourceRef":"node/13987561131","likelyAnchorage":true,"noAnchoring":false,"noAnchoringName":null,"notes":null,"fetchLandNM":[1.7,1.6,1.5,1.5,1.5,1.4,1.5,1.6,1.8,2,2.2,2.3,3.2,13.1,15,15,15,15,15,15,15,15,15,15,15,15,15,15,15,15,15,15,15,15,3.3,2.6],"fetchReefNM":[1.7,1.6,1.5,1.5,1.5,1.4,1.5,1.6,1.8,2,2.2,2.3,3.2,13.1,8.9,7,5,4.9,5,4.5,4.5,4.6,15,15,15,15,15,15,15,15,5.5,6.4,7.2,1.6,1.5,1.3]}}]}