{"type":"FeatureCollection","meta":{"region":"QLD","tile":"t-10e150","built":"2026-08-25","sources":["OpenStreetMap (ODbL)","GBRMPA (CC BY)"]},"features":[{"type":"Feature","geometry":{"type":"Point","coordinates":[150.84907,-9.78618]},"properties":{"id":"osm-node13839723710","name":"Atvia Bay","kind":"anchorage","source":"OpenStreetMap","sourceRef":"node/13839723710","likelyAnchorage":true,"noAnchoring":false,"noAnchoringName":null,"notes":null,"fetchLandNM":[4.1,2.4,1.5,1.4,1.8,2,15,15,15,15,15,15,3.4,2.3,1.7,1.2,1.1,0.8,0.7,0.7,0.6,0.6,0.6,0.6,0.6,0.6,0.7,0.8,1,1.1,1.2,1.4,1.8,2.3,7.5,7.6],"fetchReefNM":[4.1,2.4,1.5,1.4,1.8,2,15,15,15,15,15,15,3.4,2.3,1.7,1.2,1.1,0.8,0.7,0.7,0.6,0.6,0.6,0.6,0.6,0.6,0.7,0.8,1,1.1,1.2,1.4,1.8,2.3,7.5,7.6]}},{"type":"Feature","geometry":{"type":"Point","coordinates":[151.10415,-9.99429]},"properties":{"id":"osm-node13839745354","name":"Awaiara Bay","kind":"anchorage","source":"OpenStreetMap","sourceRef":"node/13839745354","likelyAnchorage":true,"noAnchoring":false,"noAnchoringName":null,"notes":null,"fetchLandNM":[15,15,15,15,15,15,3.9,3.6,2.9,2.5,2.7,2.5,2.8,3.1,3.3,3.2,3.1,2.7,2.5,2.4,2.5,2.3,2.2,2.4,2.6,2.8,3.1,3.5,4.3,4.5,4.8,3.7,15,15,15,15],"fetchReefNM":[15,15,15,15,15,15,3.9,2.4,2.9,2.5,2.7,2.5,2.8,3.1,3.3,3.2,3.1,2.7,2.5,2.4,2.5,2.3,2.2,2.4,2.6,2.8,3.1,3.5,4.3,4.5,4.8,3.7,15,15,15,15]}},{"type":"Feature","geometry":{"type":"Point","coordinates":[150.96078,-9.88526]},"properties":{"id":"osm-node13839745211","name":"Awarai Bay","kind":"anchorage","source":"OpenStreetMap","sourceRef":"node/13839745211","likelyAnchorage":true,"noAnchoring":false,"noAnchoringName":null,"notes":null,"fetchLandNM":[15,14.8,15,15,15,15,15,15,15,15,15,13.3,12.7,1.1,0.8,0.5,0.2,0.1,0.1,0.1,0.1,0.2,0.2,0.2,0.2,0.2,0.2,0.2,0.2,0.2,0.1,0.1,0.1,0.1,0.2,0.2],"fetchReefNM":[15,14.8,15,15,15,15,15,15,15,15,15,13.3,12.7,1.1,0.8,0.5,0.2,0.1,0.1,0.1,0.1,0.2,0.2,0.2,0.2,0.2,0.2,0.2,0.2,0.2,0.1,0.1,0.1,0.1,0.2,0.2]}},{"type":"Feature","geometry":{"type":"Point","coordinates":[150.47041,-9.48031]},"properties":{"id":"osm-node13818106783","name":"Awaula Bay","kind":"anchorage","source":"OpenStreetMap","sourceRef":"node/13818106783","likelyAnchorage":true,"noAnchoring":false,"noAnchoringName":null,"notes":null,"fetchLandNM":[0.4,0.3,0.3,0.3,0.3,0.3,0.3,0.4,0.5,0.6,0.8,0.9,1.1,1.7,4.7,5.3,5.3,5.3,4.9,6.6,15,15,15,15,15,0.5,0.5,0.4,0.5,0.5,0.6,0.6,0.5,0.5,0.5,0.4],"fetchReefNM":[0.4,0.3,0.3,0.3,0.3,0.3,0.3,0.4,0.5,0.6,0.8,0.9,1.1,1.7,4.7,5.3,5.3,5.3,4.9,6.6,15,15,15,15,15,0.5,0.5,0.4,0.5,0.5,0.6,0.6,0.5,0.5,0.5,0.4]}},{"type":"Feature","geometry":{"type":"Point","coordinates":[150.34253,-9.29047]},"properties":{"id":"osm-node13814321010","name":"Boda Boda Bay","kind":"anchorage","source":"OpenStreetMap","sourceRef":"node/13814321010","likelyAnchorage":true,"noAnchoring":false,"noAnchoringName":null,"notes":null,"fetchLandNM":[15,15,15,15,15,15,15,15,15,15,15,7.9,7,6.9,6,6,1.1,0.2,0.2,0.2,0.1,0.1,0.1,0.1,0.1,0.1,0.1,0.1,0.1,0.1,0.1,0.1,0.2,0.2,0.5,15],"fetchReefNM":[15,15,15,15,15,15,15,15,15,15,15,7.9,7,6.9,6,6,1.1,0.2,0.2,0.2,0.1,0.1,0.1,0.1,0.1,0.1,0.1,0.1,0.1,0.1,0.1,0.1,0.2,0.2,0.5,15]}},{"type":"Feature","geometry":{"type":"Point","coordinates":[151.19182,-9.9356]},"properties":{"id":"osm-node13839772583","name":"Bwaruada Bay","kind":"anchorage","source":"OpenStreetMap","sourceRef":"node/13839772583","likelyAnchorage":true,"noAnchoring":false,"noAnchoringName":null,"notes":null,"fetchLandNM":[15,15,15,15,15,15,15,2.3,0.4,0.4,0.4,0.4,0.4,0.3,0.3,0.3,0.3,0.3,0.3,0.3,0.3,0.3,0.4,0.4,0.4,0.4,8.1,8.8,12.8,15,15,15,15,15,15,15],"fetchReefNM":[15,15,15,15,15,15,15,2.3,0.4,0.4,0.4,0.4,0.4,0.3,0.3,0.3,0.3,0.3,0.3,0.3,0.3,0.3,0.4,0.4,0.4,0.4,8.1,8.8,12.8,15,15,15,15,15,15,15]}},{"type":"Feature","geometry":{"type":"Point","coordinates":[151.21498,-9.92597]},"properties":{"id":"osm-node13839772584","name":"Dawada Bay","kind":"anchorage","source":"OpenStreetMap","sourceRef":"node/13839772584","likelyAnchorage":true,"noAnchoring":false,"noAnchoringName":null,"notes":null,"fetchLandNM":[15,15,15,15,15,15,15,0.8,0.8,0.9,0.8,0.8,0.7,0.6,0.6,0.5,0.5,0.5,0.5,0.6,0.6,0.7,0.8,0.9,1,11.1,9.5,11.4,15,15,15,15,15,15,15,15],"fetchReefNM":[15,15,15,15,15,15,15,0.8,0.8,0.9,0.8,0.8,0.7,0.6,0.6,0.5,0.5,0.5,0.5,0.6,0.6,0.7,0.8,0.9,1,11.1,9.5,11.4,15,15,15,15,15,15,15,15]}},{"type":"Feature","geometry":{"type":"Point","coordinates":[150.88422,-9.96881]},"properties":{"id":"osm-node13839745336","name":"Dudo Bay","kind":"anchorage","source":"OpenStreetMap","sourceRef":"node/13839745336","likelyAnchorage":true,"noAnchoring":false,"noAnchoringName":null,"notes":null,"fetchLandNM":[0.3,0.2,0.2,0.2,0.2,0.2,0.2,0.2,0.2,0.2,0.2,0.2,0.2,0.3,0.3,0.3,0.4,0.8,15,15,15,15,15,15,15,15,15,15,15,2.2,15,15,0.4,0.4,0.4,0.4],"fetchReefNM":[0.3,0.2,0.2,0.2,0.2,0.2,0.2,0.2,0.2,0.2,0.2,0.2,0.2,0.3,0.3,0.3,0.4,0.8,14.9,15,15,15,3.4,3.5,15,15,15,15,15,2.2,15,15,0.4,0.4,0.4,0.4]}},{"type":"Feature","geometry":{"type":"Point","coordinates":[151.04286,-9.95529]},"properties":{"id":"osm-node13839745353","name":"Etabu Bay","kind":"anchorage","source":"OpenStreetMap","sourceRef":"node/13839745353","likelyAnchorage":true,"noAnchoring":false,"noAnchoringName":null,"notes":null,"fetchLandNM":[0.5,0.6,0.6,0.5,0.5,0.4,0.4,0.5,0.5,0.5,0.5,0.8,6.9,7.5,6.4,4.9,3.9,2.9,2.3,2.1,1.7,0.6,0.6,0.6,0.6,0.6,0.5,0.6,0.5,0.5,0.5,0.9,0.9,0.6,0.5,0.5],"fetchReefNM":[0.5,0.6,0.6,0.5,0.5,0.4,0.4,0.5,0.5,0.5,0.5,0.8,6.9,7.5,6.4,4.9,3.9,2.9,2.3,2.1,1.7,0.6,0.6,0.6,0.6,0.6,0.5,0.6,0.5,0.5,0.5,0.9,0.9,0.6,0.5,0.5]}},{"type":"Feature","geometry":{"type":"Point","coordinates":[150.45151,-9.4614]},"properties":{"id":"osm-node13818106784","name":"Fegani Bay","kind":"anchorage","source":"OpenStreetMap","sourceRef":"node/13818106784","likelyAnchorage":true,"noAnchoring":false,"noAnchoringName":null,"notes":null,"fetchLandNM":[0.5,0.4,0.4,0.4,0.4,0.4,0.4,0.4,0.3,0.3,0.4,0.4,0.5,0.5,0.5,0.5,0.5,0.6,7.6,15,15,15,15,15,15,5.2,5.3,7,6.3,6.2,5.7,5.8,8.1,2.1,0.5,0.5],"fetchReefNM":[0.5,0.4,0.4,0.4,0.4,0.4,0.4,0.4,0.3,0.3,0.4,0.4,0.5,0.5,0.5,0.5,0.5,0.6,7.6,15,15,15,15,15,15,5.2,5.3,7,6.3,6.2,5.7,5.8,8.1,2.1,0.5,0.5]}},{"type":"Feature","geometry":{"type":"Point","coordinates":[150.29593,-9.50354]},"properties":{"id":"osm-node13814321167","name":"Galaiy","kind":"anchorage","source":"OpenStreetMap","sourceRef":"node/13814321167","likelyAnchorage":true,"noAnchoring":false,"noAnchoringName":null,"notes":null,"fetchLandNM":[0.2,0.2,0.2,0.2,0.2,0.2,0.3,0.3,0.3,0.2,0.2,0.1,0.2,0.2,0.2,0.2,0.3,0.3,15,15,0.2,0.2,15,15,15,15,15,15,15,15,1.3,0.3,0.2,0.2,0.2,0.2],"fetchReefNM":[0.2,0.2,0.2,0.2,0.2,0.2,0.3,0.3,0.3,0.2,0.2,0.1,0.2,0.2,0.2,0.2,0.3,0.3,15,15,0.2,0.2,15,15,15,15,15,15,15,15,1.3,0.3,0.2,0.2,0.2,0.2]}},{"type":"Feature","geometry":{"type":"Point","coordinates":[151.14186,-8.86733]},"properties":{"id":"osm-node13801945965","name":"Gimwa Bay","kind":"anchorage","source":"OpenStreetMap","sourceRef":"node/13801945965","likelyAnchorage":true,"noAnchoring":false,"noAnchoringName":null,"notes":null,"fetchLandNM":[0.2,0.2,0.2,0.2,0.2,0.2,0.2,0.2,0.2,0.3,0.4,0.7,15,15,15,15,15,15,15,15,15,5.2,15,15,15,15,1.4,0.8,0.3,0.2,0.2,0.2,0.2,0.2,0.2,0.2],"fetchReefNM":[0.2,0.2,0.2,0.2,0.2,0.2,0.2,0.2,0.2,0.3,0.4,0.7,15,15,15,15,15,15,15,15,7.8,5.1,4,3.3,3,2.1,1.4,0.8,0.3,0.2,0.2,0.2,0.2,0.2,0.2,0.2]}},{"type":"Feature","geometry":{"type":"Point","coordinates":[150.82141,-9.68117]},"properties":{"id":"osm-node13830858129","name":"Gomwa Bay","kind":"anchorage","source":"OpenStreetMap","sourceRef":"node/13830858129","likelyAnchorage":true,"noAnchoring":false,"noAnchoringName":null,"notes":null,"fetchLandNM":[1.3,1.1,1.3,1.2,1.9,2.1,2.2,2.1,1.9,1.7,1.5,1.5,1.7,2,2.3,2.7,8.1,6.7,3.6,3.2,3.1,3,3.1,3.4,3.7,15,15,1.5,1.1,1,1.1,1.2,1.3,1.4,0.9,0.9],"fetchReefNM":[1.3,1.1,1.3,1.2,1.9,2.1,2.2,2.1,1.9,1.7,1.5,1.5,1.7,2,2.3,2.7,8.1,6.7,3.6,3.2,3.1,3,3.1,3.4,3.7,15,15,1.5,1.1,1,1.1,1.2,1.3,1.4,0.9,0.9]}},{"type":"Feature","geometry":{"type":"Point","coordinates":[150.7921,-9.8107]},"properties":{"id":"osm-node13839008183","name":"Hautai Ia Bay","kind":"anchorage","source":"OpenStreetMap","sourceRef":"node/13839008183","likelyAnchorage":true,"noAnchoring":false,"noAnchoringName":null,"notes":null,"fetchLandNM":[0.8,0.8,0.8,0.7,0.6,0.7,0.7,0.7,0.6,0.7,0.7,0.7,0.6,0.5,0.6,10.2,9.4,15,15,15,15,15,15,15,15,15,15,1,0.6,0.6,0.6,0.6,0.6,0.9,0.9,0.9],"fetchReefNM":[0.8,0.8,0.8,0.7,0.6,0.7,0.7,0.7,0.6,0.7,0.7,0.7,0.6,0.5,0.6,10.2,9.4,15,15,15,15,15,15,15,15,15,15,1,0.6,0.6,0.6,0.6,0.6,0.9,0.9,0.9]}},{"type":"Feature","geometry":{"type":"Point","coordinates":[150.67457,-9.39673]},"properties":{"id":"osm-node4359422726","name":"Hughes Bay","kind":"anchorage","source":"OpenStreetMap","sourceRef":"node/4359422726","likelyAnchorage":true,"noAnchoring":false,"noAnchoringName":null,"notes":null,"fetchLandNM":[15,15,5.6,4.4,7.5,9,15,15,15,15,4.8,4.3,3.3,2.8,2.3,2.2,2.4,2.4,2.2,2.2,2.2,2.1,2.2,2.4,2.6,2.6,2.6,2.6,3.1,8.5,15,15,15,15,15,15],"fetchReefNM":[15,3.6,5.6,4.3,7.4,9,15,15,15,15,4.8,4.3,3.3,2.8,2.3,2.2,2.4,2.4,2.2,2.2,2.2,2.1,2.2,2.4,2.6,2.6,2.6,2.6,3.1,8.5,15,13.7,15,15,15,15]}},{"type":"Feature","geometry":{"type":"Point","coordinates":[150.01521,-9.66169]},"properties":{"id":"osm-node13827829369","name":"Iasi Iasi Anchorage","kind":"anchorage","source":"OpenStreetMap","sourceRef":"node/13827829369","likelyAnchorage":true,"noAnchoring":false,"noAnchoringName":null,"notes":null,"fetchLandNM":[15,1.9,15,15,15,15,15,15,0.2,0.1,0.2,0.2,0.1,0.1,0.1,0.1,0.1,0.1,0.1,0.1,0.3,0.3,0.4,0.2,0.2,0.2,0.1,0.1,0.1,0.1,0.1,0.1,0.1,0.2,0.8,1.1],"fetchReefNM":[15,1.8,15,15,15,15,15,15,0.2,0.1,0.2,0.2,0.1,0.1,0.1,0.1,0.1,0.1,0.1,0.1,0.3,0.3,0.4,0.2,0.2,0.2,0.1,0.1,0.1,0.1,0.1,0.1,0.1,0.2,0.8,1.1]}},{"type":"Feature","geometry":{"type":"Point","coordinates":[151.23432,-9.91981]},"properties":{"id":"osm-node13839772585","name":"Kaula Bay","kind":"anchorage","source":"OpenStreetMap","sourceRef":"node/13839772585","likelyAnchorage":true,"noAnchoring":false,"noAnchoringName":null,"notes":null,"fetchLandNM":[15,15,15,15,15,0.1,0.1,0.1,0.1,0.1,0.1,0.1,0.1,0.1,0.1,0.1,0.1,0.1,0.2,0.2,0.2,0.2,0.2,0.1,0.1,0.1,0.1,0.1,0.1,15,15,15,15,15,15,15],"fetchReefNM":[15,15,15,15,15,0.1,0.1,0.1,0.1,0.1,0.1,0.1,0.1,0.1,0.1,0.1,0.1,0.1,0.2,0.2,0.2,0.2,0.2,0.1,0.1,0.1,0.1,0.1,0.1,15,15,15,15,15,15,15]}},{"type":"Feature","geometry":{"type":"Point","coordinates":[150.05908,-9.70502]},"properties":{"id":"osm-node13827829365","name":"Kumoio Bay","kind":"anchorage","source":"OpenStreetMap","sourceRef":"node/13827829365","likelyAnchorage":true,"noAnchoring":false,"noAnchoringName":null,"notes":null,"fetchLandNM":[15,15,15,15,15,15,15,15,15,15,15,15,15,15,15,15,15,15,15,15,0.9,0.9,0.9,0.9,0.9,0.8,0.7,0.7,0.7,0.7,0.7,0.7,0.8,0.9,1,1.1],"fetchReefNM":[15,15,15,15,15,15,15,15,15,15,15,15,15,15,15,15,15,15,15,15,0.9,0.9,0.9,0.9,0.9,0.8,0.7,0.7,0.7,0.7,0.7,0.7,0.8,0.9,1,1.1]}},{"type":"Feature","geometry":{"type":"Point","coordinates":[150.28502,-9.22732]},"properties":{"id":"osm-node13814320805","name":"Laketa Bay","kind":"anchorage","source":"OpenStreetMap","sourceRef":"node/13814320805","likelyAnchorage":true,"noAnchoring":false,"noAnchoringName":null,"notes":null,"fetchLandNM":[15,15,15,15,15,15,15,15,15,15,15,15,1.5,1.2,1.1,0.6,0.5,0.4,0.4,0.3,0.3,0.2,0.2,0.2,0.2,0.2,0.3,0.3,0.3,0.3,0.4,0.4,0.6,15,15,15],"fetchReefNM":[1.4,0.5,0.2,0.6,15,1,15,15,15,15,13.4,0.2,0.3,0.8,1.1,0.6,0.5,0.4,0.4,0.3,0.3,0.2,0.2,0.2,0.2,0.2,0.3,0.3,0.3,0.3,0.4,0.4,0.6,11.3,14,0.8]}},{"type":"Feature","geometry":{"type":"Point","coordinates":[150.21861,-9.19431]},"properties":{"id":"osm-node13813273311","name":"Luposa Bay","kind":"anchorage","source":"OpenStreetMap","sourceRef":"node/13813273311","likelyAnchorage":true,"noAnchoring":false,"noAnchoringName":null,"notes":null,"fetchLandNM":[15,15,15,15,15,15,15,15,15,15,0.7,0.6,0.5,0.4,0.3,0.3,0.3,0.3,0.3,0.3,0.3,0.3,0.3,0.4,0.4,0.5,0.7,15,15,15,15,1.3,1.1,15,15,15],"fetchReefNM":[15,12.5,15,15,15,15,15,15,15,15,0.7,0.6,0.5,0.4,0.3,0.3,0.3,0.3,0.3,0.3,0.3,0.3,0.3,0.4,0.4,0.5,0.7,1.2,1.3,1.4,1.8,1,1,1.2,15,15]}},{"type":"Feature","geometry":{"type":"Point","coordinates":[150.88626,-9.9409]},"properties":{"id":"osm-node13830624189","name":"Maiabari Bay","kind":"anchorage","source":"OpenStreetMap","sourceRef":"node/13830624189","likelyAnchorage":true,"noAnchoring":false,"noAnchoringName":null,"notes":null,"fetchLandNM":[0.1,0.1,0.1,0.2,0.2,0.2,0.2,0.2,0.2,0.2,0.2,0.1,0.1,0.1,0.1,0.1,0.1,0.1,0.1,0.1,0.1,0.1,0.1,0.2,15,15,15,15,15,15,15,15,0.1,0.1,0.1,0.1],"fetchReefNM":[0.1,0.1,0.1,0.2,0.2,0.2,0.2,0.2,0.2,0.2,0.2,0.1,0.1,0.1,0.1,0.1,0.1,0.1,0.1,0.1,0.1,0.1,0.1,0.2,15,15,15,15,15,15,15,15,0.1,0.1,0.1,0.1]}},{"type":"Feature","geometry":{"type":"Point","coordinates":[151.29293,-9.97465]},"properties":{"id":"osm-node13850011107","name":"Malakwasia Bay","kind":"anchorage","source":"OpenStreetMap","sourceRef":"node/13850011107","likelyAnchorage":true,"noAnchoring":false,"noAnchoringName":null,"notes":null,"fetchLandNM":[0.1,0.1,0.1,15,15,15,15,15,15,15,15,15,15,15,15,15,15,0.3,0.2,0.2,0.1,0.1,0.1,0.1,0.1,0.1,0.1,0.1,0.1,0.1,0.1,0.1,0.1,0.1,0.1,0.1],"fetchReefNM":[0.1,0.1,0.1,15,15,15,15,15,15,15,15,15,15,15,15,15,15,0.3,0.2,0.2,0.1,0.1,0.1,0.1,0.1,0.1,0.1,0.1,0.1,0.1,0.1,0.1,0.1,0.1,0.1,0.1]}},{"type":"Feature","geometry":{"type":"Point","coordinates":[150.29706,-9.23813]},"properties":{"id":"osm-node13814320806","name":"Malauna Bay","kind":"anchorage","source":"OpenStreetMap","sourceRef":"node/13814320806","likelyAnchorage":true,"noAnchoring":false,"noAnchoringName":null,"notes":null,"fetchLandNM":[15,15,15,15,15,15,15,15,15,15,0.6,0.2,0.2,0.2,0.2,0.2,0.2,0.2,0.2,0.2,0.2,0.3,0.2,0.2,0.2,0.2,0.2,0.2,0.2,0.3,1,1.3,15,15,15,15],"fetchReefNM":[1.2,1.2,15,15,15,15,15,15,15,15,0.6,0.2,0.2,0.2,0.2,0.2,0.2,0.2,0.2,0.2,0.2,0.3,0.2,0.2,0.2,0.2,0.2,0.2,0.2,0.3,1,1.3,0.2,1.7,1.2,0.4]}},{"type":"Feature","geometry":{"type":"Point","coordinates":[150.34077,-9.4639]},"properties":{"id":"osm-node13814321090","name":"Mud Bay","kind":"anchorage","source":"OpenStreetMap","sourceRef":"node/13814321090","likelyAnchorage":true,"noAnchoring":false,"noAnchoringName":null,"notes":null,"fetchLandNM":[0.5,0.7,2.7,5.1,15,6.9,5.8,5.8,6.3,7,8.7,0.7,0.7,0.7,0.7,0.3,0.3,0.3,0.4,0.5,0.4,0.4,0.4,0.4,0.4,0.4,0.4,0.5,0.4,0.4,0.4,0.4,0.4,0.4,0.4,0.4],"fetchReefNM":[0.5,0.7,2.7,5.1,15,6.9,5.8,5.8,6.3,7,8.7,0.7,0.7,0.7,0.7,0.3,0.3,0.3,0.4,0.5,0.4,0.4,0.4,0.4,0.4,0.4,0.4,0.5,0.4,0.4,0.4,0.4,0.4,0.4,0.4,0.4]}},{"type":"Feature","geometry":{"type":"Point","coordinates":[151.11461,-8.50602]},"properties":{"id":"osm-node13798584231","name":"Muiau Bay","kind":"anchorage","source":"OpenStreetMap","sourceRef":"node/13798584231","likelyAnchorage":true,"noAnchoring":false,"noAnchoringName":null,"notes":null,"fetchLandNM":[0.5,0.6,0.8,1,15,15,15,15,15,15,15,15,13.5,15,15,1.8,1.3,1,0.8,0.7,0.6,0.5,0.4,0.4,0.4,0.4,0.4,0.4,0.4,0.4,0.4,0.4,0.4,0.4,0.5,0.5],"fetchReefNM":[0.5,0.6,0.8,1,15,15,15,15,15,15,15,15,13.5,15,15,1.8,1.3,1,0.8,0.7,0.6,0.5,0.4,0.4,0.4,0.4,0.4,0.4,0.4,0.4,0.4,0.4,0.4,0.4,0.5,0.5]}},{"type":"Feature","geometry":{"type":"Point","coordinates":[150.61106,-9.38165]},"properties":{"id":"osm-node13821286382","name":"Muneia Bay","kind":"anchorage","source":"OpenStreetMap","sourceRef":"node/13821286382","likelyAnchorage":true,"noAnchoring":false,"noAnchoringName":null,"notes":null,"fetchLandNM":[15,15,15,15,15,7.2,5.3,15,15,15,8.8,7.5,0.4,0.3,0.3,0.3,0.3,0.3,0.3,0.2,0.2,0.2,0.2,0.2,0.2,0.2,0.2,0.3,0.3,0.3,0.4,15,15,15,15,15],"fetchReefNM":[15,15,15,15,15,7.1,5.2,15,15,15,8.8,7.5,0.4,0.3,0.3,0.3,0.3,0.3,0.3,0.2,0.2,0.2,0.2,0.2,0.2,0.2,0.2,0.3,0.3,0.3,0.4,7.4,15,15,15,15]}},{"type":"Feature","geometry":{"type":"Point","coordinates":[150.38054,-9.39264]},"properties":{"id":"osm-node13814321055","name":"Nuatutu Bay","kind":"anchorage","source":"OpenStreetMap","sourceRef":"node/13814321055","likelyAnchorage":true,"noAnchoring":false,"noAnchoringName":null,"notes":null,"fetchLandNM":[0.1,0.1,0.1,0.1,0.1,0.1,0.2,2.7,2.8,2.9,3,3.2,3.1,4.9,12.7,12.3,12.4,15,15,6.5,0.1,0.1,0.1,0.1,0.1,0.1,0.1,0.1,0.1,0.1,0.1,0.1,0.1,0.1,0.1,0.1],"fetchReefNM":[0.1,0.1,0.1,0.1,0.1,0.1,0.2,2.7,2.8,2.9,3,3.2,3.1,4.9,12.7,12.3,12.4,15,15,6.5,0.1,0.1,0.1,0.1,0.1,0.1,0.1,0.1,0.1,0.1,0.1,0.1,0.1,0.1,0.1,0.1]}},{"type":"Feature","geometry":{"type":"Point","coordinates":[150.88476,-9.68926]},"properties":{"id":"osm-node13830858128","name":"Numanuma Bay","kind":"anchorage","source":"OpenStreetMap","sourceRef":"node/13830858128","likelyAnchorage":true,"noAnchoring":false,"noAnchoringName":null,"notes":null,"fetchLandNM":[0.5,0.6,0.7,0.8,0.9,0.9,0.9,1,1,1.2,1.5,15,15,15,15,2.3,2.5,2.4,4.1,3.3,3.1,3.6,5.1,0.5,0.6,0.6,0.7,0.7,0.7,0.7,0.6,0.6,0.6,0.6,0.7,0.7],"fetchReefNM":[0.5,0.6,0.7,0.8,0.9,0.9,0.9,1,1,1.2,1.5,15,15,15,15,2.3,2.5,2.4,4.1,3.3,3.1,3.6,5.1,0.5,0.6,0.6,0.7,0.7,0.7,0.7,0.6,0.6,0.6,0.6,0.7,0.7]}},{"type":"Feature","geometry":{"type":"Point","coordinates":[150.86158,-9.8886]},"properties":{"id":"osm-node13839745268","name":"Perry Bay","kind":"anchorage","source":"OpenStreetMap","sourceRef":"node/13839745268","likelyAnchorage":true,"noAnchoring":false,"noAnchoringName":null,"notes":null,"fetchLandNM":[1.2,1.1,0.9,0.8,0.7,0.7,0.8,0.8,0.8,0.8,0.9,0.9,1.1,1.3,1.5,1.7,3.6,15,15,4,15,15,15,15,15,15,15,15,15,15,15,15,5.5,4.1,3.4,1.7],"fetchReefNM":[1.2,1.1,0.9,0.8,0.7,0.7,0.8,0.8,0.8,0.8,0.9,0.9,1.1,1.3,1.5,1.7,3.6,15,15,4,15,15,15,15,15,15,15,15,15,15,15,15,5.5,4.1,3.4,1.7]}},{"type":"Feature","geometry":{"type":"Point","coordinates":[150.87828,-9.5797]},"properties":{"id":"osm-node13830858088","name":"Sebutuia Bay","kind":"anchorage","source":"OpenStreetMap","sourceRef":"node/13830858088","likelyAnchorage":true,"noAnchoring":false,"noAnchoringName":null,"notes":null,"fetchLandNM":[0.6,0.6,0.7,8.6,15,15,15,15,15,6.5,4.6,4.9,8.2,1,0.9,0.8,0.9,0.8,0.8,0.8,0.8,0.8,0.7,0.7,0.7,0.7,0.8,0.8,0.9,0.9,0.9,0.9,0.8,0.7,0.6,0.6],"fetchReefNM":[0.6,0.6,0.7,8.5,8.6,10,12.5,15,15,6.5,4.6,4.9,8.2,1,0.9,0.8,0.9,0.8,0.8,0.8,0.8,0.8,0.7,0.7,0.7,0.7,0.8,0.8,0.9,0.9,0.9,0.9,0.8,0.7,0.6,0.6]}},{"type":"Feature","geometry":{"type":"Point","coordinates":[150.96515,-9.99575]},"properties":{"id":"osm-node13839745339","name":"Sewa Bay","kind":"anchorage","source":"OpenStreetMap","sourceRef":"node/13839745339","likelyAnchorage":true,"noAnchoring":false,"noAnchoringName":null,"notes":null,"fetchLandNM":[1,0.9,0.8,0.8,0.8,0.9,0.9,0.9,0.9,1,1.2,1.3,1.4,1.2,1.3,1.5,1.6,1,1,1,1.4,1.3,1.5,1.7,1.5,0.9,1,0.9,1,0.9,0.9,1,1,1.7,2.1,1.4],"fetchReefNM":[1,0.9,0.8,0.8,0.8,0.9,0.9,0.9,0.9,1,1.2,1.3,1.4,1.2,1.3,1.5,1.6,1,1,1,1.4,1.3,1.5,1.7,1.5,0.9,1,0.9,1,0.9,0.9,1,1,1.7,2.1,1.4]}},{"type":"Feature","geometry":{"type":"Point","coordinates":[151.04764,-9.97794]},"properties":{"id":"osm-node13850011501","name":"Sewataitai Bay","kind":"anchorage","source":"OpenStreetMap","sourceRef":"node/13850011501","likelyAnchorage":true,"noAnchoring":false,"noAnchoringName":null,"notes":null,"fetchLandNM":[1.8,1.3,1.2,1.1,15,15,15,15,7.8,6.6,6,6.1,6.7,6,4.4,2.9,1.9,1.5,1.7,1.2,0.9,0.8,0.9,1,1.1,0.9,1,1.1,1.1,0.8,0.9,1.3,1,1.7,2,1.9],"fetchReefNM":[1.8,1.3,1.2,1.1,15,15,15,15,7.8,6.6,6,6.1,6.7,6,4.4,2.9,1.9,1.5,1.7,1.2,0.9,0.8,0.9,1,1.1,0.9,1,1.1,1.1,0.8,0.9,1.3,1,1.7,2,1.9]}},{"type":"Feature","geometry":{"type":"Point","coordinates":[150.48913,-9.53751]},"properties":{"id":"osm-node4359422756","name":"Seymour Bay","kind":"anchorage","source":"OpenStreetMap","sourceRef":"node/4359422756","likelyAnchorage":true,"noAnchoring":false,"noAnchoringName":null,"notes":null,"fetchLandNM":[2.6,2.2,2.2,2.3,2.2,2,2,2,2.1,2,1.9,2.1,2,1.9,1.7,1.6,1.7,1.7,1.7,2.1,2.2,2.6,1.9,15,15,15,15,15,8.6,7.1,10.1,10.5,10.6,11,4.1,3.6],"fetchReefNM":[2.6,2.2,2.2,2.3,2.2,2,2,2,2.1,2,1.9,2.1,2,1.9,1.7,1.6,1.7,1.7,1.7,2.1,2.2,2.6,1.9,15,15,15,15,15,8.6,7.1,10.1,10.5,10.6,11,4.1,3.6]}},{"type":"Feature","geometry":{"type":"Point","coordinates":[150.7529,-9.67026]},"properties":{"id":"osm-node13830858200","name":"Si Ilugu Bay","kind":"anchorage","source":"OpenStreetMap","sourceRef":"node/13830858200","likelyAnchorage":true,"noAnchoring":false,"noAnchoringName":null,"notes":null,"fetchLandNM":[0.5,0.5,0.5,0.5,0.5,0.6,0.6,0.7,0.8,1,1.3,1.6,15,7.9,4.6,3.5,2.7,2.6,3.1,3.9,15,15,15,15,15,15,15,3.2,1.9,1,0.8,0.7,0.7,0.7,0.6,0.6],"fetchReefNM":[0.5,0.5,0.5,0.5,0.5,0.6,0.6,0.7,0.8,1,1.3,1.6,15,7.9,4.6,3.5,2.7,2.6,3.1,3.9,15,15,15,15,15,15,15,3.2,1.9,1,0.8,0.7,0.7,0.7,0.6,0.6]}},{"type":"Feature","geometry":{"type":"Point","coordinates":[151.17218,-9.95086]},"properties":{"id":"osm-node13839772581","name":"Sipupu Bay","kind":"anchorage","source":"OpenStreetMap","sourceRef":"node/13839772581","likelyAnchorage":true,"noAnchoring":false,"noAnchoringName":null,"notes":null,"fetchLandNM":[15,15,15,15,0.7,0.6,0.6,0.6,0.5,0.5,0.4,0.4,0.4,0.4,0.4,0.5,0.5,0.5,0.6,0.6,0.7,0.7,0.7,0.8,7.5,8.1,8.5,6.8,9.4,13.6,15,15,15,15,15,15],"fetchReefNM":[15,15,15,15,0.7,0.6,0.6,0.6,0.5,0.5,0.4,0.4,0.4,0.4,0.4,0.5,0.5,0.5,0.6,0.6,0.7,0.7,0.7,0.8,7.5,8.1,8.5,6.8,9.4,13.6,15,15,15,15,15,15]}},{"type":"Feature","geometry":{"type":"Point","coordinates":[151.29102,-9.98736]},"properties":{"id":"osm-node13839772575","name":"Sobulasi Bay","kind":"anchorage","source":"OpenStreetMap","sourceRef":"node/13839772575","likelyAnchorage":true,"noAnchoring":false,"noAnchoringName":null,"notes":null,"fetchLandNM":[0.2,0.2,0.3,15,15,15,15,15,15,15,15,15,15,15,15,15,15,15,15,15,0.2,0.2,0.2,0.2,0.2,0.2,0.2,0.2,0.2,0.2,0.2,0.2,0.2,0.2,0.2,0.2],"fetchReefNM":[0.2,0.2,0.3,15,15,15,15,15,15,15,15,15,15,15,15,15,15,15,15,15,0.2,0.2,0.2,0.2,0.2,0.2,0.2,0.2,0.2,0.2,0.2,0.2,0.2,0.2,0.2,0.2]}},{"type":"Feature","geometry":{"type":"Point","coordinates":[151.28059,-9.92804]},"properties":{"id":"osm-node13839772577","name":"Soisoia Bay","kind":"anchorage","source":"OpenStreetMap","sourceRef":"node/13839772577","likelyAnchorage":true,"noAnchoring":false,"noAnchoringName":null,"notes":null,"fetchLandNM":[15,15,15,15,15,15,15,15,15,15,15,15,15,15,15,0.7,0.7,0.6,0.5,0.5,0.3,0.3,0.2,0.2,0.3,0.4,0.4,0.4,0.4,0.4,0.4,0.4,0.6,15,15,15],"fetchReefNM":[15,15,15,15,15,15,15,15,15,15,15,15,15,15,15,0.7,0.7,0.6,0.5,0.5,0.3,0.3,0.2,0.2,0.3,0.4,0.4,0.4,0.4,0.4,0.4,0.4,0.6,15,15,15]}},{"type":"Feature","geometry":{"type":"Point","coordinates":[151.00321,-8.49048]},"properties":{"id":"osm-node13810935539","name":"Taiagila Bay","kind":"anchorage","source":"OpenStreetMap","sourceRef":"node/13810935539","likelyAnchorage":true,"noAnchoring":false,"noAnchoringName":null,"notes":null,"fetchLandNM":[15,15,15,1.9,1.2,0.5,0.4,0.4,0.3,0.3,0.3,0.3,0.3,0.3,0.3,0.3,0.3,0.3,0.4,0.4,0.6,4.1,2.6,2.2,1.9,1.8,1.8,1.9,2.2,15,15,9.4,15,15,15,15],"fetchReefNM":[15,15,15,1.9,1.2,0.5,0.4,0.4,0.3,0.3,0.3,0.3,0.3,0.3,0.3,0.3,0.3,0.3,0.4,0.4,0.6,4.1,2.6,2.2,1.9,1.8,1.8,1.9,2.2,15,7.4,9.4,15,15,15,15]}},{"type":"Feature","geometry":{"type":"Point","coordinates":[150.36607,-9.36727]},"properties":{"id":"osm-node13814321038","name":"Talafatama Bay","kind":"anchorage","source":"OpenStreetMap","sourceRef":"node/13814321038","likelyAnchorage":true,"noAnchoring":false,"noAnchoringName":null,"notes":null,"fetchLandNM":[15,15,15,15,15,15,15,15,4.7,2.4,3.4,1.7,4.4,4.6,1.2,0.6,0.5,0.5,0.4,0.3,0.3,0.3,0.3,0.3,0.3,0.3,0.3,0.3,0.3,0.3,0.2,0.2,0.3,0.3,0.4,0.7],"fetchReefNM":[15,15,15,15,15,15,15,15,4.7,2.4,3.4,1.7,4.4,4.6,1.2,0.6,0.5,0.5,0.4,0.3,0.3,0.3,0.3,0.3,0.3,0.3,0.3,0.3,0.3,0.3,0.2,0.2,0.3,0.3,0.4,0.7]}},{"type":"Feature","geometry":{"type":"Point","coordinates":[150.1183,-9.37529]},"properties":{"id":"osm-node13811655498","name":"Tawanaguna Bay","kind":"anchorage","source":"OpenStreetMap","sourceRef":"node/13811655498","likelyAnchorage":true,"noAnchoring":false,"noAnchoringName":null,"notes":null,"fetchLandNM":[0.4,0.3,0.3,0.3,0.3,0.3,0.4,0.4,0.5,0.5,0.5,0.5,0.5,0.5,0.5,0.4,0.4,15,15,15,15,15,15,15,15,15,15,15,15,0.8,0.6,0.5,0.4,0.4,0.4,0.4],"fetchReefNM":[0.4,0.3,0.3,0.3,0.3,0.3,0.4,0.4,0.5,0.5,0.5,0.5,0.5,0.5,0.5,0.4,0.4,15,15,15,15,15,15,15,15,15,15,15,15,0.8,0.6,0.5,0.4,0.4,0.4,0.4]}},{"type":"Feature","geometry":{"type":"Point","coordinates":[151.11566,-8.59538]},"properties":{"id":"osm-node13798634586","name":"Wagwama Bay","kind":"anchorage","source":"OpenStreetMap","sourceRef":"node/13798634586","likelyAnchorage":true,"noAnchoring":false,"noAnchoringName":null,"notes":null,"fetchLandNM":[0.7,0.7,0.8,0.8,0.8,0.8,0.9,1.1,1.1,1.2,1.1,1.1,1.1,1.1,1.1,1.1,1.2,1.5,1.7,3.4,5.4,15,15,15,0.9,0.8,0.7,0.8,0.8,0.9,0.9,1,1,3.1,1.1,0.8],"fetchReefNM":[0.7,0.7,0.8,0.8,0.8,0.8,0.9,1.1,1.1,1.2,1.1,1.1,1.1,1.1,1.1,1.1,1.2,1.5,1.7,3.4,5.4,15,15,15,0.9,0.8,0.7,0.8,0.8,0.9,0.9,1,1,3.1,1.1,0.8]}},{"type":"Feature","geometry":{"type":"Point","coordinates":[150.24139,-9.20157]},"properties":{"id":"osm-node13814238634","name":"Wataluma Bay","kind":"anchorage","source":"OpenStreetMap","sourceRef":"node/13814238634","likelyAnchorage":true,"noAnchoring":false,"noAnchoringName":null,"notes":null,"fetchLandNM":[15,15,15,15,15,15,15,15,15,15,15,15,0.6,0.6,0.6,0.6,0.6,0.5,0.5,0.5,0.5,0.5,0.4,0.4,0.4,0.5,0.5,0.5,0.6,0.6,0.6,15,15,15,15,15],"fetchReefNM":[15,15,15,15,15,15,15,15,15,3,2.6,2.8,0.6,0.6,0.6,0.6,0.6,0.5,0.5,0.5,0.5,0.5,0.4,0.4,0.4,0.5,0.5,0.5,0.6,0.6,0.6,4.2,8.1,8.6,9,15]}},{"type":"Feature","geometry":{"type":"Point","coordinates":[150.89131,-9.98448]},"properties":{"id":"osm-node13839745337","name":"Watamaleai Bay","kind":"anchorage","source":"OpenStreetMap","sourceRef":"node/13839745337","likelyAnchorage":true,"noAnchoring":false,"noAnchoringName":null,"notes":null,"fetchLandNM":[0.1,0.1,0.1,0.1,0.1,0.1,0.1,0.1,0.1,0.1,0.2,0.2,0.2,0.2,0.2,0.1,0.1,0.1,0.1,0.1,0.1,0.1,0.1,0.1,15,15,15,15,15,0.3,0.3,0.2,0.2,0.1,0.1,0.1],"fetchReefNM":[0.1,0.1,0.1,0.1,0.1,0.1,0.1,0.1,0.1,0.1,0.2,0.2,0.2,0.2,0.2,0.1,0.1,0.1,0.1,0.1,0.1,0.1,0.1,0.1,15,3.5,15,15,15,0.3,0.3,0.2,0.2,0.1,0.1,0.1]}},{"type":"Feature","geometry":{"type":"Point","coordinates":[151.15959,-9.97263]},"properties":{"id":"osm-node13850011204","name":"Weioko Bay","kind":"anchorage","source":"OpenStreetMap","sourceRef":"node/13850011204","likelyAnchorage":true,"noAnchoring":false,"noAnchoringName":null,"notes":null,"fetchLandNM":[15,0.3,0.2,0.2,0.2,0.2,0.2,0.2,0.1,0.2,0.2,0.2,0.2,0.2,0.2,0.2,0.2,0.2,0.2,0.5,0.6,1,5,5.5,5.8,6.3,7,7.3,6.2,10.8,15,15,15,15,15,15],"fetchReefNM":[15,0.3,0.2,0.2,0.2,0.2,0.2,0.2,0.1,0.2,0.2,0.2,0.2,0.2,0.2,0.2,0.2,0.2,0.2,0.5,0.6,1,5,1,0.9,6.3,7,7.3,6.2,10.8,15,15,15,15,15,15]}}]}