{"type":"FeatureCollection","meta":{"region":"QLD","tile":"t-10e142","built":"2026-08-25","sources":["OpenStreetMap (ODbL)","GBRMPA (CC BY)"]},"features":[{"type":"Feature","geometry":{"type":"Point","coordinates":[143.20986,-9.06465]},"properties":{"id":"osm-node4035679894","name":"Barge Ramp","kind":"marina","source":"OpenStreetMap","sourceRef":"node/4035679894","likelyAnchorage":true,"noAnchoring":false,"noAnchoringName":null,"notes":null,"fetchLandNM":[0,0,0,0,0,0,0,0,0,0,0,0,0,0,0,0,0,1.8,0.1,0,0,0,0,0,0,0,0,0,0,0,0,0,0,0,0,0],"fetchReefNM":[0,0,0,0,0,0,0,0,0,0,0,0,0,0,0,0,0,1.8,0.1,0,0,0,0,0,0,0,0,0,0,0,0,0,0,0,0,0]}}]}