{"type":"FeatureCollection","meta":{"region":"QLD","tile":"t-12e140","built":"2026-08-25","sources":["OpenStreetMap (ODbL)","GBRMPA (CC BY)"]},"features":[{"type":"Feature","geometry":{"type":"Point","coordinates":[141.92668,-11.98903]},"properties":{"id":"osm-node3020493540","name":"Port Musgrave","kind":"anchorage","source":"OpenStreetMap","sourceRef":"node/3020493540","likelyAnchorage":true,"noAnchoring":false,"noAnchoringName":null,"notes":null,"fetchLandNM":[15,15,2.6,1.7,1.4,1.2,1.6,1.4,2.6,3.1,3.8,4.7,5.6,7.3,5.1,3.8,4,4.5,5.6,3.1,2.5,2.1,2.2,2.1,2.1,2.1,2.1,2.2,2.3,2.3,2.3,2.3,2.3,2.2,15,15],"fetchReefNM":[15,15,2.6,1.7,1.4,1.2,1.6,1.4,2.6,3.1,3.8,4.7,5.6,7.3,5.1,3.8,4,4.5,5.6,3.1,2.5,2.1,2.2,2.1,2.1,2.1,2.1,2.2,2.3,2.3,2.3,2.3,2.3,2.2,15,15]}}]}