{"type":"FeatureCollection","meta":{"region":"QLD","tile":"t-12e148","built":"2026-08-25","sources":["OpenStreetMap (ODbL)","GBRMPA (CC BY)"]},"features":[{"type":"Feature","geometry":{"type":"Point","coordinates":[149.36342,-10.29701]},"properties":{"id":"osm-node13982483096","name":"Amazon Bay","kind":"anchorage","source":"OpenStreetMap","sourceRef":"node/13982483096","likelyAnchorage":true,"noAnchoring":false,"noAnchoringName":null,"notes":null,"fetchLandNM":[0.9,1.1,1.1,1,1,0.9,0.8,0.8,0.8,1.2,2.5,1.8,3.3,4.9,15,15,15,15,6.7,15,2.9,15,15,2.9,15,1.9,1.3,1.1,1.1,1.1,1,0.9,0.9,0.8,0.8,0.9],"fetchReefNM":[0.9,1.1,1.1,1,1,0.9,0.8,0.8,0.8,1.2,2.5,1.8,3.3,4.9,15,15,15,5.8,2.7,2.7,1.5,1.5,1.8,2.4,0.9,0.9,1.2,1.1,1.1,1.1,1,0.9,0.9,0.8,0.8,0.9]}},{"type":"Feature","geometry":{"type":"Point","coordinates":[149.87003,-10.531]},"properties":{"id":"osm-node10290254100","name":"Argyle Bay","kind":"anchorage","source":"OpenStreetMap","sourceRef":"node/10290254100","likelyAnchorage":true,"noAnchoring":false,"noAnchoringName":null,"notes":null,"fetchLandNM":[0.5,0.5,0.5,0.5,0.6,1,1,2,2.1,1,1.1,1.2,1.2,1,0.7,0.6,0.6,0.6,0.9,1.2,1.4,1.5,15,15,15,15,15,15,2.7,1.4,1.5,0.4,0.3,0.4,0.5,0.5],"fetchReefNM":[0.5,0.5,0.5,0.5,0.6,1,1,2,2.1,1,1.1,1.2,1.2,1,0.7,0.6,0.6,0.6,0.9,1.2,1.4,1.5,15,15,15,15,15,15,2.7,1.4,1.5,0.4,0.3,0.4,0.5,0.5]}},{"type":"Feature","geometry":{"type":"Point","coordinates":[148.89205,-10.26535]},"properties":{"id":"osm-node13982985867","name":"Baxter Bay","kind":"anchorage","source":"OpenStreetMap","sourceRef":"node/13982985867","likelyAnchorage":true,"noAnchoring":false,"noAnchoringName":null,"notes":null,"fetchLandNM":[1.7,1.7,1.7,1.8,1.9,2,2.2,2.5,2.8,3.2,3.8,15,15,15,15,15,15,15,15,15,15,15,15,15,15,15,15,15,5.7,4.8,3.4,2.7,2.4,2.1,1.9,1.8],"fetchReefNM":[1.7,1.7,1.7,1.8,1.9,2,2.2,2.5,2.8,3.2,3.8,15,15,15,15,15,3.3,3,2.9,3,2.7,2.6,2.8,5.9,11,13.6,15,10.2,5.7,4.8,3.4,2.7,2.4,2.1,1.9,1.8]}},{"type":"Feature","geometry":{"type":"Point","coordinates":[148.3064,-10.15345]},"properties":{"id":"osm-node13985549411","name":"Cheshunt Bay","kind":"anchorage","source":"OpenStreetMap","sourceRef":"node/13985549411","likelyAnchorage":true,"noAnchoring":false,"noAnchoringName":null,"notes":null,"fetchLandNM":[1.6,1.6,1.5,1.5,1.6,1.6,1.6,1.6,1.6,1.7,1.8,2,2.2,15,15,15,15,15,15,15,15,15,15,15,15,15,15,15,10.6,9.2,2,1.9,1.7,1.6,1.6,1.7],"fetchReefNM":[0.8,1.6,1.5,1.5,1.6,1.6,1.6,1.6,1.6,1.7,1.8,2,2.2,12.9,2.6,8.1,7.9,2.5,1.9,1.9,2.7,3,8.7,9.4,3.7,6.5,9.6,15,10.6,9.2,2,1.9,1.7,1.6,1.6,0.8]}},{"type":"Feature","geometry":{"type":"Point","coordinates":[148.71188,-10.16246]},"properties":{"id":"osm-node13982986114","name":"Cloudy Bay","kind":"anchorage","source":"OpenStreetMap","sourceRef":"node/13982986114","likelyAnchorage":true,"noAnchoring":false,"noAnchoringName":null,"notes":null,"fetchLandNM":[0.8,0.9,0.9,1,1.2,1.3,1.3,1.3,1.4,1.5,2.2,1.8,1.1,1,0.8,0.8,0.8,0.9,0.9,15,1.1,1,15,15,4.6,3,2.4,1.3,1.2,1.2,1.2,1.1,1.2,1.2,1.3,0.6],"fetchReefNM":[0.8,0.9,0.9,1,1.2,1.3,1.3,1.3,1.4,1.5,2.2,1.8,1.1,1,0.8,0.8,0.8,0.9,0.9,11.1,1.1,1,13.5,15,4.6,3,2.4,1.3,1.2,1.2,1.2,1.1,1.2,1.2,1.3,0.6]}},{"type":"Feature","geometry":{"type":"Point","coordinates":[149.86553,-10.00919]},"properties":{"id":"osm-node13974889096","name":"Dogura Bay","kind":"anchorage","source":"OpenStreetMap","sourceRef":"node/13974889096","likelyAnchorage":true,"noAnchoring":false,"noAnchoringName":null,"notes":null,"fetchLandNM":[14.2,14.8,15,15,15,15,15,15,15,15,15,1.3,0.7,0.6,0.6,0.6,0.6,0.6,0.6,0.6,0.6,0.6,0.6,0.5,0.5,0.5,0.5,0.4,0.4,0.5,0.5,0.6,0.6,0.6,0.7,0.9],"fetchReefNM":[14.2,14.8,15,15,15,15,15,15,15,15,15,1.3,0.7,0.6,0.6,0.6,0.6,0.6,0.6,0.6,0.6,0.6,0.6,0.5,0.5,0.5,0.5,0.4,0.4,0.5,0.5,0.6,0.6,0.6,0.7,0.9]}},{"type":"Feature","geometry":{"type":"Point","coordinates":[149.97787,-10.58584]},"properties":{"id":"osm-node10290787598","name":"Gabugoghi Bay","kind":"anchorage","source":"OpenStreetMap","sourceRef":"node/10290787598","likelyAnchorage":true,"noAnchoring":false,"noAnchoringName":null,"notes":null,"fetchLandNM":[0.3,0.3,0.3,0.3,0.3,0.3,0.4,0.5,0.5,0.5,0.5,0.5,0.5,0.4,0.3,0.3,0.3,0.3,0.5,15,15,15,15,15,0.9,0.7,0.6,0.5,0.3,0.4,0.4,0.4,0.4,0.4,0.4,0.3],"fetchReefNM":[0.3,0.3,0.3,0.3,0.3,0.3,0.4,0.5,0.5,0.5,0.5,0.5,0.5,0.4,0.3,0.3,0.3,0.3,0.5,15,15,15,15,15,0.9,0.7,0.6,0.5,0.3,0.4,0.4,0.4,0.4,0.4,0.4,0.3]}},{"type":"Feature","geometry":{"type":"Point","coordinates":[149.93901,-10.56839]},"properties":{"id":"osm-node10290254105","name":"Gabusuaiaru Bay","kind":"anchorage","source":"OpenStreetMap","sourceRef":"node/10290254105","likelyAnchorage":true,"noAnchoring":false,"noAnchoringName":null,"notes":null,"fetchLandNM":[0.6,0.5,0.5,0.4,0.4,0.4,0.8,0.8,0.7,0.7,0.6,0.5,0.5,0.5,0.6,0.7,0.7,15,15,15,0.8,0.7,0.6,15,0.7,0.7,0.7,0.7,0.6,0.7,0.7,0.8,0.7,0.6,0.6,0.6],"fetchReefNM":[0.6,0.5,0.5,0.4,0.4,0.4,0.8,0.8,0.7,0.7,0.6,0.5,0.5,0.5,0.6,0.7,0.7,15,15,15,0.8,0.7,0.6,15,0.7,0.7,0.7,0.7,0.6,0.7,0.7,0.8,0.7,0.6,0.6,0.6]}},{"type":"Feature","geometry":{"type":"Point","coordinates":[149.96107,-10.56658]},"properties":{"id":"osm-node10290254107","name":"Gabusunarea Bay","kind":"anchorage","source":"OpenStreetMap","sourceRef":"node/10290254107","likelyAnchorage":true,"noAnchoring":false,"noAnchoringName":null,"notes":null,"fetchLandNM":[0.6,0.6,0.7,1.1,0.6,0.5,0.4,0.4,0.3,0.3,0.3,0.3,0.3,0.3,0.4,0.4,0.3,0.9,1.7,15,15,0.8,0.6,0.6,0.5,0.5,0.4,0.3,0.3,0.2,0.2,0.3,0.3,0.3,0.3,0.6],"fetchReefNM":[0.6,0.6,0.7,1.1,0.6,0.5,0.4,0.4,0.3,0.3,0.3,0.3,0.3,0.3,0.4,0.4,0.3,0.9,1.7,15,15,0.8,0.6,0.6,0.5,0.5,0.4,0.3,0.3,0.2,0.2,0.3,0.3,0.3,0.3,0.6]}},{"type":"Feature","geometry":{"type":"Point","coordinates":[149.87378,-10.56176]},"properties":{"id":"osm-node13974654895","name":"Gabutanoteri Bay","kind":"anchorage","source":"OpenStreetMap","sourceRef":"node/13974654895","likelyAnchorage":true,"noAnchoring":false,"noAnchoringName":null,"notes":null,"fetchLandNM":[0.5,0.5,0.5,0.5,0.2,0.4,0.4,0.3,0.4,0.4,0.4,0.4,0.4,0.4,0.4,0.5,15,15,15,15,15,15,15,15,15,15,15,15,0.5,0.4,0.3,0.3,0.3,0.4,0.4,0.5],"fetchReefNM":[0.2,0.2,0.2,0.2,0.2,0.2,0.3,0.3,0.3,0.3,0.3,0.3,0.3,0.4,0.4,0.5,15,15,15,15,15,15,15,15,15,15,15,15,0.5,0.4,0.3,0.3,0.3,0.3,0.3,0.4]}},{"type":"Feature","geometry":{"type":"Point","coordinates":[149.83994,-10.51378]},"properties":{"id":"osm-node13974692001","name":"Gogadi Bay","kind":"anchorage","source":"OpenStreetMap","sourceRef":"node/13974692001","likelyAnchorage":true,"noAnchoring":false,"noAnchoringName":null,"notes":null,"fetchLandNM":[0.5,0.5,0.5,0.4,0.3,0.3,0.3,0.3,0.3,0.3,0.4,0.4,0.4,0.5,0.5,0.5,15,15,15,15,15,15,15,15,1.1,1.2,1,0.6,0.4,0.3,0.2,0.3,0.3,0.4,0.4,0.5],"fetchReefNM":[0.5,0.5,0.5,0.4,0.3,0.3,0.3,0.3,0.3,0.3,0.4,0.4,0.3,0.3,0.3,0.5,15,15,15,15,15,15,15,15,1.1,0.8,0.7,0.6,0.4,0.3,0.2,0.3,0.3,0.4,0.4,0.5]}},{"type":"Feature","geometry":{"type":"Point","coordinates":[148.76618,-10.24095]},"properties":{"id":"osm-node13982985868","name":"Henderson Bay","kind":"anchorage","source":"OpenStreetMap","sourceRef":"node/13982985868","likelyAnchorage":true,"noAnchoring":false,"noAnchoringName":null,"notes":null,"fetchLandNM":[0.7,0.7,0.8,0.8,0.8,0.9,1,1.1,1.2,1.5,1.7,15,15,15,15,15,15,15,15,15,15,15,15,15,15,15,15,15,15,1.1,1,0.9,0.9,0.8,0.8,0.8],"fetchReefNM":[0.7,0.7,0.8,0.8,0.8,0.9,1,1.1,1.2,1.5,1.7,15,8.9,6.2,6.3,6.4,6.4,15,5.9,7,7.4,8.1,8.1,1,1.2,2,15,15,15,1.1,1,0.9,0.9,0.8,0.8,0.8]}},{"type":"Feature","geometry":{"type":"Point","coordinates":[149.90637,-10.5504]},"properties":{"id":"osm-node10290254101","name":"Kau Kau Bay","kind":"anchorage","source":"OpenStreetMap","sourceRef":"node/10290254101","likelyAnchorage":true,"noAnchoring":false,"noAnchoringName":null,"notes":null,"fetchLandNM":[0.5,0.5,0.4,0.4,0.4,0.5,0.5,0.5,0.5,0.6,0.7,0.8,0.9,1.1,1.5,15,1.8,15,0.4,15,0.4,0.4,0.4,0.5,0.6,0.7,0.7,0.6,0.6,0.6,0.6,0.5,0.6,0.6,0.5,0.5],"fetchReefNM":[0.5,0.5,0.4,0.4,0.4,0.5,0.5,0.5,0.5,0.6,0.7,0.8,0.9,1.1,1.5,15,1.8,15,0.4,15,0.4,0.4,0.4,0.5,0.6,0.7,0.7,0.6,0.6,0.6,0.6,0.5,0.6,0.6,0.5,0.5]}},{"type":"Feature","geometry":{"type":"Point","coordinates":[148.02818,-10.14654]},"properties":{"id":"osm-node13985549950","name":"Keakoro Bay","kind":"anchorage","source":"OpenStreetMap","sourceRef":"node/13985549950","likelyAnchorage":true,"noAnchoring":false,"noAnchoringName":null,"notes":null,"fetchLandNM":[0.9,1,1,1.1,1,1,1.2,1.4,4.1,15,15,15,15,15,15,15,15,15,15,15,15,15,15,15,1.5,1.3,1.1,1,0.9,0.8,0.8,0.8,0.8,0.8,0.8,0.8],"fetchReefNM":[0.9,1,1,1.1,1,1,1.2,1.4,4.1,15,12.9,15,8.6,6.2,15,15,15,1.1,1,0.9,0.8,1,1,2.4,1.5,1.3,1.1,1,0.9,0.8,0.8,0.8,0.8,0.8,0.8,0.8]}},{"type":"Feature","geometry":{"type":"Point","coordinates":[149.88273,-10.53579]},"properties":{"id":"osm-node13974654896","name":"Kelosa Bay","kind":"anchorage","source":"OpenStreetMap","sourceRef":"node/13974654896","likelyAnchorage":true,"noAnchoring":false,"noAnchoringName":null,"notes":null,"fetchLandNM":[0.9,0.8,0.9,1.4,0.5,0.4,0.4,0.4,0.4,0.4,0.4,0.4,0.4,0.4,0.4,0.4,0.4,0.4,0.4,0.3,0.3,0.3,0.4,0.4,0.4,0.5,15,15,15,2.2,1.1,1.1,0.9,0.8,0.9,0.9],"fetchReefNM":[0.9,0.8,0.9,1.4,0.5,0.4,0.4,0.4,0.4,0.4,0.4,0.4,0.4,0.4,0.4,0.4,0.4,0.4,0.4,0.3,0.3,0.3,0.4,0.4,0.4,0.5,15,15,15,2.2,1.1,1.1,0.9,0.8,0.9,0.9]}},{"type":"Feature","geometry":{"type":"Point","coordinates":[148.37241,-10.19479]},"properties":{"id":"osm-node13985549134","name":"Kini Kini Bay","kind":"anchorage","source":"OpenStreetMap","sourceRef":"node/13985549134","likelyAnchorage":true,"noAnchoring":false,"noAnchoringName":null,"notes":null,"fetchLandNM":[0.7,0.7,0.7,0.7,0.7,0.8,1,1.1,1.2,1.3,1.4,1.5,15,15,15,15,15,15,15,15,15,15,15,15,15,15,15,15,15,14.4,1,1,0.9,0.8,0.8,0.7],"fetchReefNM":[0.7,0.7,0.7,0.7,0.7,0.8,1,1.1,1.2,1.3,1.4,1.5,15,8.1,6.9,3.3,3.5,3.4,3.9,4.6,5.2,5.8,6.4,2.3,9.7,11.1,11.8,3.3,2.1,14.4,1,1,0.9,0.8,0.8,0.7]}},{"type":"Feature","geometry":{"type":"Point","coordinates":[148.20979,-10.03389]},"properties":{"id":"osm-node13985549730","name":"Marshall Lagoon","kind":"anchorage","source":"OpenStreetMap","sourceRef":"node/13985549730","likelyAnchorage":true,"noAnchoring":false,"noAnchoringName":null,"notes":null,"fetchLandNM":[0.7,0.8,0.9,1,1.2,1.5,1.2,0.9,0.6,0.4,0.4,0.3,0.3,0.3,0.3,0.8,1,1.2,1.4,1.6,1.7,1.7,3.8,1.3,1,0.7,0.6,0.5,0.5,0.5,0.5,0.5,0.6,0.7,0.7,0.7],"fetchReefNM":[0.7,0.8,0.9,1,1.2,1.5,1.2,0.9,0.6,0.4,0.4,0.3,0.3,0.3,0.3,0.8,1,1.2,1.4,1.6,1.7,1.7,3.8,1.3,1,0.7,0.6,0.5,0.5,0.5,0.5,0.5,0.6,0.7,0.7,0.7]}},{"type":"Feature","geometry":{"type":"Point","coordinates":[149.88452,-10.56638]},"properties":{"id":"osm-node13974654894","name":"Masaiasaia Bay","kind":"anchorage","source":"OpenStreetMap","sourceRef":"node/13974654894","likelyAnchorage":true,"noAnchoring":false,"noAnchoringName":null,"notes":null,"fetchLandNM":[0.2,0.1,0.2,0.2,0.2,0.3,0.7,0.7,0.8,2.2,2.3,4.9,3.4,15,15,15,15,15,15,15,0.2,0.2,0.2,0.2,0.2,0.2,0.2,0.2,0.2,0.2,0.2,0.2,0.2,0.2,0.2,0.2],"fetchReefNM":[0.2,0.1,0.2,0.2,0.2,0.3,0.7,0.7,0.8,2.2,2.3,4.9,3.4,15,15,15,15,15,15,15,0.2,0.2,0.2,0.2,0.2,0.2,0.2,0.2,0.2,0.2,0.2,0.2,0.2,0.2,0.2,0.2]}},{"type":"Feature","geometry":{"type":"Point","coordinates":[149.43127,-10.33399]},"properties":{"id":"osm-node13982483081","name":"Mayri Bay","kind":"anchorage","source":"OpenStreetMap","sourceRef":"node/13982483081","likelyAnchorage":true,"noAnchoring":false,"noAnchoringName":null,"notes":null,"fetchLandNM":[0.6,0.6,0.6,0.5,0.5,0.6,0.7,0.8,0.9,1,1.2,0.8,0.7,0.7,0.5,0.5,0.5,0.6,0.7,0.8,1,15,15,5.5,15,15,15,15,15,5.7,1,1.1,1.1,1.2,1.3,0.6],"fetchReefNM":[0.6,0.6,0.6,0.5,0.5,0.6,0.7,0.8,0.9,1,1.2,0.8,0.7,0.7,0.5,0.5,0.5,0.6,0.7,0.8,1,15,4.3,4.9,5.1,15,4,5.6,4.6,5.1,1,1.1,1.1,1.2,1.3,0.6]}},{"type":"Feature","geometry":{"type":"Point","coordinates":[148.17491,-10.07916]},"properties":{"id":"osm-node13985549729","name":"McFarlane Harbour","kind":"anchorage","source":"OpenStreetMap","sourceRef":"node/13985549729","likelyAnchorage":true,"noAnchoring":false,"noAnchoringName":null,"notes":null,"fetchLandNM":[0.7,0.8,1,1.1,0.5,0.4,0.4,0.4,0.4,0.5,0.5,0.5,0.6,0.6,0.6,0.5,0.5,0.6,0.6,0.8,9.3,0.5,0.5,0.4,0.5,0.5,0.6,0.6,0.8,0.4,0.5,0.6,0.6,0.6,0.6,0.6],"fetchReefNM":[0.7,0.8,1,1.1,0.5,0.4,0.4,0.4,0.4,0.5,0.5,0.5,0.6,0.6,0.6,0.5,0.5,0.6,0.6,0.8,7.1,0.5,0.5,0.4,0.5,0.5,0.6,0.6,0.8,0.4,0.5,0.6,0.6,0.6,0.6,0.6]}},{"type":"Feature","geometry":{"type":"Point","coordinates":[149.47741,-10.34654]},"properties":{"id":"osm-node13982483080","name":"Millport Harbour","kind":"anchorage","source":"OpenStreetMap","sourceRef":"node/13982483080","likelyAnchorage":true,"noAnchoring":false,"noAnchoringName":null,"notes":null,"fetchLandNM":[0.8,0.8,1,0.9,0.9,0.8,0.8,0.9,1,1.1,0.9,0.9,1,1,0.9,0.8,0.8,0.8,15,15,3,15,3.6,0.8,0.9,1,0.9,1,1.1,1.2,1.2,1.1,1.1,1.1,1,0.8],"fetchReefNM":[0.8,0.8,1,0.9,0.9,0.8,0.8,0.9,1,1.1,0.9,0.9,1,1,0.9,0.8,0.8,0.8,2.8,15,2.7,3,3.4,0.8,0.9,1,0.9,1,1.1,1.2,1.2,1.1,1.1,1.1,1,0.8]}},{"type":"Feature","geometry":{"type":"Point","coordinates":[149.97911,-10.48294]},"properties":{"id":"osm-node10290254098","name":"Mullins Harbour","kind":"anchorage","source":"OpenStreetMap","sourceRef":"node/10290254098","likelyAnchorage":true,"noAnchoring":false,"noAnchoringName":null,"notes":null,"fetchLandNM":[2.5,2.3,2.2,2.2,2.2,2.3,2.6,4.6,6.5,4.1,3.6,3.2,3.1,2.9,2.6,2.6,2.5,2.4,2.4,2.4,2.2,2.2,2.4,3.1,3.3,4.7,3.1,3,2.9,2.9,2.9,3,3.7,3.5,3.1,2.8],"fetchReefNM":[2.5,2.3,2.2,2.2,2.2,2.3,2.6,4.6,6.5,4.1,3.6,3.2,3.1,2.9,2.6,2.6,2.5,2.4,2.4,2.4,2.2,2.2,2.4,3.1,3.3,4.7,3.1,3,2.9,2.9,2.9,3,3.7,3.5,3.1,2.8]}},{"type":"Feature","geometry":{"type":"Point","coordinates":[149.79415,-10.40133]},"properties":{"id":"osm-node13970637005","name":"Orangerie Bay","kind":"anchorage","source":"OpenStreetMap","sourceRef":"node/13970637005","likelyAnchorage":true,"noAnchoring":false,"noAnchoringName":null,"notes":null,"fetchLandNM":[2.2,2.1,2,1.9,1.8,1.8,2.1,2.3,2.9,3.4,4.9,5.8,7.4,10.5,8,5.3,6.1,15,15,15,15,15,15,15,15,15,15,15,14.8,10,7.1,5.4,4.3,3.3,2.4,2.3],"fetchReefNM":[2.2,2.1,2,1.9,1.8,1.8,2.1,2.3,2.9,3.4,4.9,5.8,7.4,10.5,8,5.3,6.1,15,15,15,15,15,15,15,15,15,15,15,14.8,10,7.1,5.4,4.3,3.3,2.4,2.3]}},{"type":"Feature","geometry":{"type":"Point","coordinates":[149.94954,-10.06646]},"properties":{"id":"osm-node13974907053","name":"Pipira Bay","kind":"anchorage","source":"OpenStreetMap","sourceRef":"node/13974907053","likelyAnchorage":true,"noAnchoring":false,"noAnchoringName":null,"notes":null,"fetchLandNM":[15,15,15,15,15,15,15,15,15,15,0.3,0.2,0.2,0.2,0.2,0.2,0.2,0.1,0.1,0.1,0.1,0.1,0.1,0.1,0.2,0.2,0.2,0.2,0.2,0.4,2.6,3.5,15,15,15,15],"fetchReefNM":[15,15,15,15,15,15,15,15,15,15,0.3,0.2,0.2,0.2,0.2,0.2,0.2,0.1,0.1,0.1,0.1,0.1,0.1,0.1,0.2,0.2,0.2,0.2,0.2,0.4,2.6,3.5,15,15,15,15]}},{"type":"Feature","geometry":{"type":"Point","coordinates":[149.51781,-10.35295]},"properties":{"id":"osm-node13974823004","name":"Port Glasgow","kind":"anchorage","source":"OpenStreetMap","sourceRef":"node/13974823004","likelyAnchorage":true,"noAnchoring":false,"noAnchoringName":null,"notes":null,"fetchLandNM":[0.3,0.4,0.4,0.4,0.4,0.5,0.5,0.4,0.5,0.7,0.8,0.8,1,15,0.5,0.4,0.4,0.3,0.3,0.3,0.2,0.3,0.3,0.4,0.9,1.3,1,1.3,0.7,0.7,0.7,0.6,0.4,0.4,0.4,0.3],"fetchReefNM":[0.3,0.4,0.4,0.4,0.4,0.5,0.5,0.4,0.5,0.7,0.8,0.8,1,4.6,0.5,0.4,0.4,0.3,0.3,0.3,0.2,0.3,0.3,0.4,0.9,1.3,1,1.3,0.7,0.7,0.7,0.6,0.4,0.4,0.4,0.3]}},{"type":"Feature","geometry":{"type":"Point","coordinates":[148.56639,-10.18602]},"properties":{"id":"osm-node13982986782","name":"Sandbank Bay","kind":"anchorage","source":"OpenStreetMap","sourceRef":"node/13982986782","likelyAnchorage":true,"noAnchoring":false,"noAnchoringName":null,"notes":null,"fetchLandNM":[0.8,0.7,0.7,0.7,0.7,0.7,0.7,0.8,0.8,0.9,4.5,15,15,15,15,15,15,15,15,15,15,15,15,15,15,15,2.7,1.6,1,0.7,0.6,0.6,0.7,0.8,0.7,0.7],"fetchReefNM":[0.8,0.7,0.7,0.7,0.7,0.7,0.7,0.8,0.8,0.9,4.5,11.4,15,14.8,13.2,10.6,9.3,8.9,8.9,8.2,15,6.9,7.4,8.8,15,9.8,2.7,1.6,1,0.7,0.6,0.6,0.7,0.8,0.7,0.7]}},{"type":"Feature","geometry":{"type":"Point","coordinates":[149.94918,-10.56141]},"properties":{"id":"osm-node13974654828","name":"Silo Silo Bay","kind":"anchorage","source":"OpenStreetMap","sourceRef":"node/13974654828","likelyAnchorage":true,"noAnchoring":false,"noAnchoringName":null,"notes":null,"fetchLandNM":[0.2,0.2,0.2,0.1,0.1,0.1,0.1,0.1,0.1,0.1,0.1,0.1,0.2,0.2,0.2,0.3,0.3,0.5,0.5,0.7,1.1,15,1.5,0.2,0.2,0.2,0.1,0.1,0.1,0.1,0.1,0.2,0.2,0.2,0.2,0.2],"fetchReefNM":[0.2,0.2,0.2,0.1,0.1,0.1,0.1,0.1,0.1,0.1,0.1,0.1,0.2,0.2,0.2,0.3,0.3,0.5,0.5,0.7,1.1,15,1.5,0.2,0.2,0.2,0.1,0.1,0.1,0.1,0.1,0.2,0.2,0.2,0.2,0.2]}},{"type":"Feature","geometry":{"type":"Point","coordinates":[149.07245,-10.25712]},"properties":{"id":"osm-node13982530643","name":"Table Bay","kind":"anchorage","source":"OpenStreetMap","sourceRef":"node/13982530643","likelyAnchorage":true,"noAnchoring":false,"noAnchoringName":null,"notes":null,"fetchLandNM":[1.3,1.4,1.4,1.6,1.7,2,2.5,3.3,4.8,6.4,11.4,15,15,15,15,15,15,15,15,15,15,15,15,15,15,15,5.3,4,3,2.4,2,1.7,1.5,1.4,1.3,1.3],"fetchReefNM":[1.3,1.4,1.4,1.6,1.7,2,2.5,3.3,4.8,6.4,11.4,14.4,15,15,15,15,15,15,15,15,15,15,15,15,15,10.4,5.3,4,3,2.4,2,1.7,1.5,1.4,1.3,1.3]}},{"type":"Feature","geometry":{"type":"Point","coordinates":[149.89617,-10.52309]},"properties":{"id":"osm-node13974654897","name":"Woleni Bay","kind":"anchorage","source":"OpenStreetMap","sourceRef":"node/13974654897","likelyAnchorage":true,"noAnchoring":false,"noAnchoringName":null,"notes":null,"fetchLandNM":[0.4,0.4,0.4,0.4,0.4,0.4,0.4,0.5,0.5,0.5,0.5,0.4,0.4,0.4,0.4,0.5,0.5,0.5,0.5,0.5,0.5,0.5,0.5,0.5,15,15,15,0.6,0.5,0.4,0.4,0.4,0.4,0.4,0.5,0.4],"fetchReefNM":[0.4,0.4,0.4,0.4,0.4,0.4,0.4,0.5,0.5,0.5,0.5,0.4,0.4,0.4,0.4,0.5,0.5,0.5,0.5,0.5,0.5,0.5,0.5,0.5,15,15,15,0.6,0.5,0.4,0.4,0.4,0.4,0.4,0.5,0.4]}}]}