{"type":"FeatureCollection","meta":{"region":"QLD","tile":"t-12e146","built":"2026-08-25","sources":["OpenStreetMap (ODbL)","GBRMPA (CC BY)"]},"features":[{"type":"Feature","geometry":{"type":"Point","coordinates":[147.69579,-10.02318]},"properties":{"id":"osm-node13987840112","name":"Beagle Bay","kind":"anchorage","source":"OpenStreetMap","sourceRef":"node/13987840112","likelyAnchorage":true,"noAnchoring":false,"noAnchoringName":null,"notes":null,"fetchLandNM":[0.7,0.7,0.7,0.7,0.8,0.8,0.8,0.8,0.9,0.9,1,1,1.2,1.3,1.8,2.4,3.1,15,15,15,15,15,15,15,15,15,15,15,15,15,3.5,1.2,1.1,0.9,0.8,0.8],"fetchReefNM":[0.7,0.7,0.7,0.7,0.8,0.8,0.8,0.8,0.9,0.9,1,1,1.2,1.3,1.8,2.4,3.1,5,5,4.5,3.9,3.6,3,3.1,3.2,3.3,5.1,6.2,11.6,15,3.5,1.2,1.1,0.9,0.8,0.8]}},{"type":"Feature","geometry":{"type":"Point","coordinates":[147.79278,-10.06898]},"properties":{"id":"osm-node2943113852","name":"Hood Bay","kind":"anchorage","source":"OpenStreetMap","sourceRef":"node/2943113852","likelyAnchorage":true,"noAnchoring":false,"noAnchoringName":null,"notes":null,"fetchLandNM":[0.9,0.9,1,1,1.1,1.3,1.6,2,2.3,2.7,3.2,3.5,15,15,15,15,15,15,15,15,15,15,15,15,15,3.8,3.2,2.8,2.3,1.8,1.4,1.3,1.2,1,1,0.9],"fetchReefNM":[0.9,0.9,1,1,1.1,1.3,1.6,2,2.3,2.7,3.2,3.5,8.5,8.7,15,15,15,15,15,15,15,15,15,3.7,3.6,3.3,3.2,2.8,2.3,1.8,1.4,1.3,1.2,1,1,0.9]}},{"type":"Feature","geometry":{"type":"Point","coordinates":[147.79216,-10.09281]},"properties":{"id":"osm-node13987840113","name":"Hood Bay","kind":"anchorage","source":"OpenStreetMap","sourceRef":"node/13987840113","likelyAnchorage":true,"noAnchoring":false,"noAnchoringName":null,"notes":null,"fetchLandNM":[2.3,2.4,2.4,2.6,2.8,2.9,3,3.2,3.3,3.4,9.8,11.2,15,15,15,15,15,15,15,15,15,15,15,15,15,15,15,3.6,3.4,3.2,3,2.9,2.6,2.5,2.4,2.4],"fetchReefNM":[2.3,2.4,2.4,2.6,2.8,2.9,3,3.2,3.3,3.4,9.8,8,8,15,15,15,15,15,15,15,15,15,15,15,15,3,3.2,3,3.4,3.2,3,2.9,2.6,2.5,2.4,2.4]}}]}