{"type":"FeatureCollection","meta":{"tile":"t-12e142","built":"2026-08-25"},"features":[{"type":"Feature","geometry":{"type":"Polygon","coordinates":[[[143.4711,-11.7877],[143.5011,-11.8209],[143.5327,-11.8343],[143.6252,-11.8028],[143.9019,-11.8028],[143.9019,-12.0212],[143.8426,-12.0212],[143.8428,-12.3183],[143.8508,-12.3183],[143.8508,-12.3633],[143.8921,-12.3633],[144,-12.2454],[144,-12.04],[144.4676,-12.04],[144.4676,-12.62],[143.9004,-12.62],[143.9004,-13.0497],[143.9382,-13.0774],[143.9382,-13.1389],[143.9277,-13.1524],[143.9472,-13.2184],[143.9292,-13.2819],[143.9607,-13.3098],[143.9382,-13.3623],[143.7213,-13.5296],[143.7121,-13.5048],[143.7186,-13.4269],[143.7363,-13.3798],[143.84,-13.3698],[143.84,-13.26],[143.81,-13.26],[143.81,-13.1967],[143.8,-13.2067],[143.7867,-13.2067],[143.78,-13.2],[143.78,-13.1933],[143.7933,-13.18],[143.8098,-13.1799],[143.7822,-13.0847],[143.74,-12.98],[143.74,-12.96],[143.72,-12.94],[143.72,-12.88],[143.7,-12.88],[143.68,-12.86],[143.68,-12.84],[143.71,-12.84],[143.71,-12.79],[143.7844,-12.79],[143.7844,-12.64],[143.7311,-12.4301],[143.6826,-12.4048],[143.6434,-12.4405],[143.6906,-12.681],[143.6906,-12.79],[143.6414,-12.79],[143.6414,-12.7291],[143.5998,-12.7291],[143.5748,-12.7166],[143.5664,-12.7041],[143.5664,-12.6958],[143.6141,-12.6958],[143.614,-12.5875],[143.5789,-12.5875],[143.5456,-12.6083],[143.5248,-12.6083],[143.5039,-12.5916],[143.5039,-12.575],[143.5331,-12.575],[143.57,-12.56],[143.57,-12.5386],[143.4684,-12.5386],[143.38,-12.43],[143.3586,-12.3977],[143.373,-12.3862],[143.307,-12.2839],[143.2989,-12.2839],[143.2731,-12.2585],[143.2581,-12.2325],[143.2581,-12.207],[143.2706,-12.207],[143.3123,-12.2278],[143.3123,-12.2346],[143.3199,-12.2346],[143.4,-12.2146],[143.4,-12.1846],[143.37,-12.1646],[143.33,-12.1445],[143.31,-12.1245],[143.3,-12.1046],[143.3,-12.0746],[143.31,-12.0646],[143.3331,-12.0112],[143.3563,-11.9899],[143.4105,-11.9719],[143.4118,-11.97],[143.45,-11.97],[143.53,-11.96],[143.6144,-11.96],[143.6144,-11.8852],[143.5928,-11.8685],[143.5411,-11.8535],[143.503,-11.8512],[143.46,-11.86],[143.4,-11.89],[143.36,-11.92],[143.36,-11.9385],[143.3,-11.88],[143.29,-11.88],[143.27,-11.87],[143.27,-11.85],[143.29,-11.85],[143.27,-11.81],[143.26,-11.81],[143.26,-11.79],[143.27,-11.79],[143.25,-11.76],[143.25,-11.75],[143.2661,-11.7332],[143.2878,-11.7316],[143.4537,-11.7797],[143.4711,-11.7877]],[[143.8332,-12.5663],[143.8332,-12.6013],[143.8901,-12.6013],[143.8901,-12.5663],[143.8332,-12.5663]],[[143.8257,-12.9902],[143.8495,-13.0192],[143.8712,-13.0192],[143.8714,-13.0041],[143.8494,-12.9744],[143.8418,-12.9744],[143.8257,-12.9902]],[[143.393,-12.274],[143.393,-12.306],[143.425,-12.306],[143.425,-12.274],[143.393,-12.274]],[[143.8315,-12.401],[143.8315,-12.4279],[143.8603,-12.4279],[143.8603,-12.401],[143.8315,-12.401]],[[143.4807,-12.5244],[143.4962,-12.5275],[143.505,-12.5263],[143.4905,-12.5262],[143.475,-12.5211],[143.4623,-12.513],[143.4557,-12.5074],[143.454,-12.5036],[143.4548,-12.5079],[143.4618,-12.5136],[143.4807,-12.5244]],[[143.4471,-12.4976],[143.4483,-12.4969],[143.4335,-12.4832],[143.4333,-12.4814],[143.4324,-12.4837],[143.4404,-12.4899],[143.4471,-12.4976]],[[143.2806,-11.8601],[143.2843,-11.8557],[143.2809,-11.8564],[143.2806,-11.8601]],[[143.321,-12.2506],[143.3216,-12.2515],[143.3227,-12.2501],[143.3217,-12.2467],[143.321,-12.2506]],[[143.2674,-12.2393],[143.2689,-12.2384],[143.2658,-12.2359],[143.2674,-12.2393]],[[143.4525,-12.0623],[143.4547,-12.0619],[143.4613,-12.0538],[143.4525,-12.0623]],[[143.3154,-11.8353],[143.3142,-11.8366],[143.3154,-11.8382],[143.3176,-11.8365],[143.3154,-11.8353]],[[143.7332,-13.4879],[143.7344,-13.4886],[143.7362,-13.4864],[143.7332,-13.4879]],[[143.3016,-11.8489],[143.3016,-11.846],[143.3004,-11.8478],[143.3016,-11.8489]],[[143.4739,-11.835],[143.4691,-11.8355],[143.4717,-11.8364],[143.4739,-11.835]],[[143.7464,-13.389],[143.7477,-13.3902],[143.7492,-13.3894],[143.7464,-13.389]],[[143.8533,-13.0225],[143.8496,-13.023],[143.8512,-13.0243],[143.8533,-13.0225]],[[143.3837,-11.8846],[143.3866,-11.8836],[143.3889,-11.8815],[143.3837,-11.8846]],[[143.722,-13.4946],[143.7234,-13.4945],[143.7245,-13.4919],[143.722,-13.4946]],[[143.3714,-12.405],[143.3692,-12.4027],[143.3724,-12.4087],[143.3714,-12.405]],[[143.2942,-12.2685],[143.2957,-12.2684],[143.2929,-12.2657],[143.2942,-12.2685]],[[143.6431,-11.8848],[143.6461,-11.8838],[143.6433,-11.8835],[143.6431,-11.8848]],[[143.7363,-13.4789],[143.7375,-13.4799],[143.7371,-13.4776],[143.7363,-13.4789]],[[143.3048,-11.8487],[143.304,-11.8505],[143.3055,-11.85],[143.3048,-11.8487]],[[143.5728,-12.7042],[143.5738,-12.7045],[143.5745,-12.7027],[143.5728,-12.7042]],[[143.8646,-13.0405],[143.8664,-13.0395],[143.8654,-13.0391],[143.8646,-13.0405]],[[143.3007,-12.2318],[143.3036,-12.2355],[143.3036,-12.2342],[143.3007,-12.2318]],[[143.3808,-11.8858],[143.38,-11.8853],[143.3777,-11.8863],[143.3808,-11.8858]],[[143.8198,-12.9593],[143.8208,-12.9594],[143.8214,-12.9574],[143.8198,-12.9593]],[[143.475,-11.8337],[143.4736,-11.8345],[143.4765,-11.8346],[143.475,-11.8337]],[[143.4613,-11.841],[143.4629,-11.8412],[143.4631,-11.8399],[143.4613,-11.841]],[[143.691,-11.9254],[143.6915,-11.924],[143.6903,-11.9244],[143.691,-11.9254]],[[143.4314,-11.8534],[143.4325,-11.8532],[143.4334,-11.8514],[143.4314,-11.8534]],[[143.4186,-11.8616],[143.4171,-11.8637],[143.4182,-11.8634],[143.4186,-11.8616]],[[143.6774,-11.8875],[143.6789,-11.8872],[143.6778,-11.8865],[143.6774,-11.8875]],[[143.4129,-11.8659],[143.4142,-11.8639],[143.4136,-11.864],[143.4129,-11.8659]],[[143.4214,-11.86],[143.4224,-11.8602],[143.4238,-11.8581],[143.4214,-11.86]],[[143.5876,-12.1219],[143.5892,-12.1217],[143.588,-12.121],[143.5876,-12.1219]],[[143.5719,-12.1189],[143.573,-12.1185],[143.573,-12.1174],[143.5719,-12.1189]],[[143.5097,-12.5874],[143.5098,-12.5862],[143.5085,-12.586],[143.5097,-12.5874]],[[143.3832,-11.8847],[143.382,-11.8849],[143.3818,-11.8862],[143.3832,-11.8847]],[[143.2648,-12.2177],[143.2639,-12.2183],[143.2653,-12.2184],[143.2648,-12.2177]],[[143.4777,-11.8336],[143.4772,-11.8332],[143.4773,-11.8348],[143.4777,-11.8336]],[[143.811,-12.7986],[143.8125,-12.7977],[143.8128,-12.7968],[143.811,-12.7986]],[[143.3045,-12.2374],[143.3051,-12.2373],[143.304,-12.2361],[143.3045,-12.2374]],[[143.48,-11.8325],[143.4805,-11.8327],[143.4811,-11.8315],[143.48,-11.8325]],[[143.3044,-12.2393],[143.3046,-12.238],[143.3041,-12.2386],[143.3044,-12.2393]],[[143.3675,-12.4007],[143.3678,-12.401],[143.3683,-12.4],[143.3675,-12.4007]],[[143.7908,-12.7921],[143.7918,-12.7924],[143.7919,-12.7916],[143.7908,-12.7921]],[[143.4195,-11.8612],[143.4193,-11.8621],[143.4203,-11.861],[143.4195,-11.8612]],[[143.4885,-12.4047],[143.4886,-12.4033],[143.4882,-12.4037],[143.4885,-12.4047]]]},"properties":{"id":"gbrmpa-zone-524","type":"Habitat Protection Zone","zone":"Dark Blue Zone","color":"#3f6fb0","name":"HP-11-5046","permit":"Far Northern Mid-Shelf","source":"GBRMPA"}},{"type":"Feature","geometry":{"type":"Polygon","coordinates":[[[143.1901,-10.92],[143.1701,-10.92],[143.1601,-10.91],[143.1601,-10.9],[143.1701,-10.89],[143.1901,-10.89],[143.1901,-10.92]]]},"properties":{"id":"gbrmpa-zone-716","type":"Habitat Protection Zone","zone":"Dark Blue Zone","color":"#3f6fb0","name":"HP-10-5029","permit":"Linda Reef (10-365)","source":"GBRMPA"}},{"type":"Feature","geometry":{"type":"Polygon","coordinates":[[[142.9952,-11.0018],[142.9976,-11.0049],[142.9977,-11.0114],[142.992,-11.0114],[142.9871,-11.0079],[142.9871,-11.0018],[142.9952,-11.0018]],[[142.9924,-11.0094],[142.9943,-11.0084],[142.9913,-11.0067],[142.9924,-11.0094]],[[142.9885,-11.0062],[142.9897,-11.0034],[142.9882,-11.0041],[142.9885,-11.0062]]]},"properties":{"id":"gbrmpa-zone-616","type":"Habitat Protection Zone","zone":"Dark Blue Zone","color":"#3f6fb0","name":"HP-11-5036","permit":"Arnold Islets Reefs (11-001)","source":"GBRMPA"}},{"type":"Feature","geometry":{"type":"Polygon","coordinates":[[[144.09,-11.2],[144.09,-11.23],[145.0011,-11.23],[145.0011,-12.9985],[145.1548,-13.3084],[144.36,-13.3084],[144.36,-13.45],[144.0798,-13.45],[144.0798,-13.4834],[144.0432,-13.5148],[143.9716,-13.56],[143.8084,-13.6116],[143.7289,-13.6116],[143.7247,-13.54],[143.7213,-13.5296],[143.9382,-13.3623],[143.9607,-13.3098],[143.9292,-13.2819],[143.9472,-13.2184],[143.9277,-13.1524],[143.9382,-13.1389],[143.9382,-13.0774],[143.9004,-13.0497],[143.9004,-12.62],[144.4676,-12.62],[144.4676,-12.04],[144,-12.04],[144,-12.2454],[143.8921,-12.3633],[143.8508,-12.3633],[143.8508,-12.3183],[143.8428,-12.3183],[143.8426,-12.0212],[143.9019,-12.0212],[143.9019,-11.8028],[143.6252,-11.8028],[143.5327,-11.8343],[143.5011,-11.8209],[143.4711,-11.7877],[143.4537,-11.7797],[143.2878,-11.7316],[143.2661,-11.7332],[143.25,-11.75],[143.2175,-11.742],[143.1,-11.7],[143.1,-11.84],[143.0964,-11.8997],[143.0929,-11.9042],[143.0837,-11.9108],[143.0685,-11.9177],[143.0643,-11.9233],[143.0597,-11.9234],[143.0514,-11.9292],[143.0309,-11.9354],[143.0304,-11.934],[143.026,-11.9345],[143.0152,-11.9379],[143.0136,-11.9364],[143.0008,-11.9363],[142.9889,-11.9335],[142.9829,-11.9293],[142.9773,-11.9326],[142.9698,-11.9307],[142.966,-11.9271],[142.9635,-11.9217],[142.9602,-11.9214],[142.9604,-11.9171],[142.9549,-11.9141],[142.9557,-11.9123],[142.9529,-11.9075],[142.9454,-11.9],[142.934,-11.8943],[142.9307,-11.8945],[142.9288,-11.8922],[142.9241,-11.8916],[142.917,-11.8945],[142.9141,-11.8922],[142.9125,-11.8927],[142.9088,-11.8895],[142.9008,-11.8717],[142.896,-11.8714],[142.8914,-11.8736],[142.8834,-11.8719],[142.8765,-11.8679],[142.8729,-11.8631],[142.8704,-11.8561],[142.8711,-11.8541],[142.8564,-11.8449],[142.8539,-11.8366],[142.8526,-11.8243],[142.8546,-11.8155],[142.8503,-11.8058],[142.8517,-11.8043],[142.855,-11.7791],[142.8603,-11.7666],[142.8602,-11.7571],[142.8589,-11.7539],[142.8564,-11.7538],[142.8617,-11.7527],[142.8627,-11.7479],[142.8576,-11.7161],[142.8584,-11.714],[142.8598,-11.7144],[142.8612,-11.6902],[142.861,-11.6744],[142.8584,-11.6693],[142.86,-11.6524],[142.8581,-11.6485],[142.8927,-11.6485],[142.884,-11.5316],[142.8366,-11.5316],[142.8365,-11.5125],[142.8396,-11.5062],[142.8392,-11.4934],[142.8333,-11.4902],[142.8258,-11.4785],[142.8278,-11.4668],[142.8272,-11.4602],[142.8322,-11.4341],[142.8353,-11.4278],[142.8682,-11.3824],[142.8644,-11.38],[142.8621,-11.3755],[142.8611,-11.3693],[142.8631,-11.3589],[142.8565,-11.3552],[142.8544,-11.3482],[142.8549,-11.343],[142.842,-11.3258],[142.8404,-11.32],[142.828,-11.3144],[142.8232,-11.2998],[142.8213,-11.2985],[143.1888,-11.2985],[143.1888,-11.28],[143.2306,-11.28],[143.2306,-11.2983],[143.6403,-11.2983],[143.6403,-11.28],[143.67,-11.28],[143.67,-11.23],[144.06,-11.23],[144.07,-11.2],[144.09,-11.2]],[[143.952,-11.948],[144,-11.98],[144.024,-11.96],[144.024,-11.94],[143.976,-11.924],[143.952,-11.924],[143.952,-11.948]],[[143.9484,-13.392],[143.9627,-13.4169],[143.9793,-13.4158],[143.9831,-13.4192],[143.9862,-13.428],[143.9924,-13.428],[144.0004,-13.424],[144.0004,-13.408],[143.9804,-13.368],[143.9484,-13.384],[143.9484,-13.392]],[[143.7,-11.548],[143.7,-11.576],[143.74,-11.576],[143.74,-11.548],[143.7,-11.548]],[[143.108,-11.448],[143.108,-11.484],[143.136,-11.484],[143.136,-11.448],[143.108,-11.448]],[[143.948,-11.4],[143.948,-11.408],[143.968,-11.412],[143.98,-11.408],[143.98,-11.396],[143.96,-11.396],[143.948,-11.4]],[[143.0889,-11.7656],[143.087,-11.7668],[143.0876,-11.77],[143.0907,-11.7691],[143.0937,-11.772],[143.096,-11.7722],[143.0946,-11.7684],[143.0889,-11.7656]],[[144.0314,-11.5897],[144.0327,-11.592],[144.0392,-11.593],[144.0353,-11.5878],[144.0327,-11.5878],[144.0314,-11.5897]],[[143.0185,-11.4887],[143.0232,-11.4876],[143.0285,-11.489],[143.0274,-11.4869],[143.0213,-11.4842],[143.0175,-11.487],[143.0185,-11.4887]],[[143.0153,-11.5519],[143.0102,-11.5503],[143.0111,-11.5525],[143.0186,-11.5567],[143.0153,-11.5519]],[[143.179,-11.7],[143.1811,-11.7051],[143.1827,-11.7034],[143.1819,-11.7],[143.1805,-11.6987],[143.179,-11.7]],[[144.021,-11.412],[144.0225,-11.4118],[144.0222,-11.4098],[144.0197,-11.4067],[144.0186,-11.4089],[144.021,-11.412]],[[142.9677,-11.3802],[142.9635,-11.3813],[142.9672,-11.3818],[142.968,-11.3849],[142.9677,-11.3802]],[[143.9056,-13.4927],[143.9076,-13.4938],[143.9076,-13.4889],[143.9056,-13.4927]],[[143.0843,-11.7661],[143.0808,-11.7669],[143.0832,-11.7681],[143.0826,-11.7702],[143.0849,-11.7681],[143.0843,-11.7661]],[[143.0324,-11.4507],[143.033,-11.4464],[143.0312,-11.4469],[143.0324,-11.4507]],[[143.8114,-11.3231],[143.8126,-11.323],[143.8125,-11.3209],[143.8095,-11.3182],[143.8114,-11.3231]],[[142.9329,-11.5928],[142.9348,-11.5911],[142.9341,-11.59],[142.9304,-11.5915],[142.9329,-11.5928]],[[143.9519,-13.3676],[143.9541,-13.3657],[143.9507,-13.3654],[143.9519,-13.3676]],[[142.9198,-11.7639],[142.9244,-11.7627],[142.9317,-11.765],[142.9244,-11.7621],[142.9198,-11.7639]],[[142.9444,-11.5915],[142.9356,-11.5924],[142.9385,-11.5932],[142.9423,-11.5917],[142.9454,-11.5937],[142.9444,-11.5915]],[[144.0325,-13.4795],[144.0351,-13.4798],[144.0336,-13.4774],[144.0318,-13.478],[144.0325,-13.4795]],[[143.9707,-13.4416],[143.9734,-13.4409],[143.9713,-13.4394],[143.9697,-13.4407],[143.9707,-13.4416]],[[142.9827,-11.7645],[142.9837,-11.7663],[142.9853,-11.7632],[142.9827,-11.7645]],[[143.028,-11.3796],[143.0333,-11.3801],[143.0289,-11.3781],[143.028,-11.3796]],[[143.7382,-13.5521],[143.7399,-13.5517],[143.7391,-13.5506],[143.7358,-13.5498],[143.7382,-13.5521]],[[143.0881,-11.7887],[143.0895,-11.7911],[143.0884,-11.7922],[143.0902,-11.7921],[143.0906,-11.7904],[143.0881,-11.7887]],[[143.0542,-11.3732],[143.0538,-11.3755],[143.056,-11.3733],[143.0542,-11.3732]],[[143.0314,-11.4813],[143.0327,-11.4811],[143.0319,-11.4796],[143.0294,-11.4805],[143.0314,-11.4813]],[[142.9351,-11.7687],[142.9341,-11.7661],[142.9335,-11.7689],[142.9351,-11.7687]],[[142.8996,-11.5875],[142.8956,-11.5877],[142.901,-11.5898],[142.8996,-11.5875]],[[142.9605,-11.7525],[142.9617,-11.7537],[142.9642,-11.749],[142.9605,-11.7525]],[[143.0916,-11.7722],[143.0892,-11.7714],[143.0898,-11.7729],[143.0916,-11.7722]],[[142.9703,-11.7505],[142.9724,-11.7496],[142.9706,-11.749],[142.9703,-11.7505]],[[143.0824,-11.7853],[143.083,-11.7862],[143.0873,-11.7875],[143.0824,-11.7853]],[[142.9781,-11.7286],[142.9768,-11.7275],[142.9748,-11.7278],[142.9781,-11.7286]],[[143.0191,-11.5508],[143.0217,-11.5512],[143.0202,-11.55],[143.0191,-11.5508]],[[143.0166,-11.6027],[143.0182,-11.6023],[143.0166,-11.6014],[143.0166,-11.6027]],[[142.9876,-11.7257],[142.9906,-11.7298],[142.9893,-11.7272],[142.9876,-11.7257]],[[142.9759,-11.7507],[142.9774,-11.7499],[142.9764,-11.7492],[142.9759,-11.7507]],[[143.0897,-11.7741],[143.0908,-11.7757],[143.0928,-11.7758],[143.0897,-11.7741]],[[143.0836,-11.7889],[143.0829,-11.7897],[143.085,-11.7909],[143.0836,-11.7889]],[[143.0818,-11.7855],[143.0797,-11.7862],[143.0813,-11.7866],[143.0818,-11.7855]],[[143.7813,-11.4031],[143.7802,-11.4044],[143.7815,-11.4044],[143.7813,-11.4031]],[[143.1327,-11.4993],[143.1338,-11.4989],[143.1332,-11.4976],[143.1327,-11.4993]],[[143.0738,-11.5097],[143.0746,-11.5097],[143.074,-11.508],[143.0738,-11.5097]],[[142.9782,-11.7275],[142.9792,-11.7278],[142.9797,-11.7259],[142.9782,-11.7275]],[[142.9922,-11.739],[142.993,-11.7391],[142.9923,-11.7369],[142.9922,-11.739]],[[142.9365,-11.7959],[142.9372,-11.7962],[142.9372,-11.7945],[142.9365,-11.7959]],[[142.9979,-11.5859],[142.9964,-11.5838],[142.9964,-11.5847],[142.9979,-11.5859]],[[143.068,-11.4728],[143.0672,-11.4728],[143.0676,-11.4741],[143.068,-11.4728]],[[143.3173,-11.6375],[143.318,-11.6375],[143.3183,-11.636],[143.3173,-11.6375]],[[143.6513,-11.7723],[143.6522,-11.7708],[143.6514,-11.7708],[143.6513,-11.7723]],[[143.666,-11.6889],[143.6671,-11.6894],[143.6673,-11.6888],[143.666,-11.6889]],[[142.9088,-11.8654],[142.9096,-11.8652],[142.9094,-11.8644],[142.9088,-11.8654]],[[143.0957,-11.7737],[143.0951,-11.7753],[143.096,-11.774],[143.0957,-11.7737]],[[143.6363,-11.7587],[143.637,-11.759],[143.6371,-11.7579],[143.6363,-11.7587]],[[142.8783,-11.781],[142.879,-11.7809],[142.879,-11.7799],[142.8783,-11.781]],[[143.2835,-11.5993],[143.2846,-11.5991],[143.2842,-11.5987],[143.2835,-11.5993]],[[142.8573,-11.8007],[142.8579,-11.8],[142.8574,-11.7996],[142.8573,-11.8007]],[[143.0939,-11.7754],[143.0935,-11.7759],[143.0947,-11.7754],[143.0939,-11.7754]],[[143.6565,-11.754],[143.6575,-11.7541],[143.6572,-11.7535],[143.6565,-11.754]],[[143.6561,-11.7791],[143.6569,-11.7793],[143.6568,-11.7785],[143.6561,-11.7791]],[[142.9925,-11.7408],[142.9933,-11.7407],[142.9929,-11.7403],[142.9925,-11.7408]],[[142.9933,-11.7423],[142.9934,-11.7419],[142.9927,-11.7416],[142.9933,-11.7423]]]},"properties":{"id":"gbrmpa-zone-607","type":"Marine National Park Zone","zone":"Green Zone","color":"#2fae5a","name":"MNP-11-1004","permit":"Far Northern Cross Shelf Transect","source":"GBRMPA"}},{"type":"Feature","geometry":{"type":"Polygon","coordinates":[[[142.884,-11.5316],[142.8927,-11.6485],[142.8581,-11.6485],[142.8592,-11.6358],[142.8559,-11.6317],[142.856,-11.6273],[142.8521,-11.6201],[142.8519,-11.5874],[142.8494,-11.5841],[142.8492,-11.5804],[142.8436,-11.5778],[142.84,-11.5677],[142.8342,-11.5595],[142.8366,-11.5316],[142.884,-11.5316]]]},"properties":{"id":"gbrmpa-zone-527","type":"Conservation Park Zone","zone":"Yellow Zone","color":"#e8c23f","name":"CP-11-4001","permit":"Captain Billy Landing","source":"GBRMPA"}},{"type":"Feature","geometry":{"type":"Polygon","coordinates":[[[143.162,-10.9552],[143.1525,-10.9523],[143.149,-10.9459],[143.1584,-10.9459],[143.1643,-10.9501],[143.1643,-10.9528],[143.162,-10.9552]]]},"properties":{"id":"gbrmpa-zone-619","type":"Habitat Protection Zone","zone":"Dark Blue Zone","color":"#3f6fb0","name":"HP-10-5033","permit":"Unnamed reef 10-372","source":"GBRMPA"}},{"type":"Feature","geometry":{"type":"Polygon","coordinates":[[[143.476,-10.704],[143.456,-10.704],[143.456,-10.6877],[143.476,-10.6877],[143.476,-10.704]]]},"properties":{"id":"gbrmpa-zone-653","type":"Habitat Protection Zone","zone":"Dark Blue Zone","color":"#3f6fb0","name":"HP-10-5005","permit":"Unnamed reef 10-350","source":"GBRMPA"}},{"type":"Feature","geometry":{"type":"Polygon","coordinates":[[[143.1521,-11.2842],[143.1428,-11.2816],[143.1361,-11.2763],[143.1269,-11.2613],[143.1255,-11.2541],[143.1273,-11.2511],[143.1344,-11.2515],[143.1516,-11.2609],[143.1593,-11.2688],[143.1605,-11.2764],[143.1556,-11.2825],[143.1521,-11.2842]]]},"properties":{"id":"gbrmpa-zone-604","type":"Habitat Protection Zone","zone":"Dark Blue Zone","color":"#3f6fb0","name":"HP-11-5045","permit":"Unnamed reef 11-040","source":"GBRMPA"}},{"type":"Feature","geometry":{"type":"Polygon","coordinates":[[[142.9356,-11.5924],[142.9392,-11.5928],[142.9428,-11.5909],[142.9455,-11.5935],[142.9423,-11.5917],[142.9385,-11.5932],[142.9356,-11.5924]]]},"properties":{"id":"gbrmpa-zone-739","type":"Commonwealth Islands Zone (GBRMPA)","zone":"Commonwealth Island Zone","color":"#b0b8bd","name":"Hannibal Islands (East) (11136102)","permit":null,"source":"GBRMPA"}},{"type":"Feature","geometry":{"type":"Polygon","coordinates":[[[143.136,-11.448],[143.136,-11.484],[143.108,-11.484],[143.108,-11.448],[143.136,-11.448]],[[143.1183,-11.4604],[143.1193,-11.4601],[143.119,-11.4587],[143.1183,-11.4604]]]},"properties":{"id":"gbrmpa-zone-528","type":"Preservation Zone","zone":"Pink Zone","color":"#e58fb0","name":"P-11-4","permit":"Parkinson Reef (11-058)","source":"GBRMPA"}},{"type":"Feature","geometry":{"type":"Polygon","coordinates":[[[143.2871,-11.9682],[143.2907,-11.9705],[143.2876,-11.9745],[143.2849,-11.9696],[143.2859,-11.9676],[143.2871,-11.9682]]]},"properties":{"id":"gbrmpa-zone-662","type":"Commonwealth Islands Zone (GBRMPA)","zone":"Commonwealth Island Zone","color":"#b0b8bd","name":"Clerke Island (11188100)","permit":null,"source":"GBRMPA"}},{"type":"Feature","geometry":{"type":"Polygon","coordinates":[[[143.3306,-10.9231],[143.3157,-10.9231],[143.2954,-10.9178],[143.2954,-10.9072],[143.3217,-10.9073],[143.3306,-10.9142],[143.3306,-10.9231]]]},"properties":{"id":"gbrmpa-zone-714","type":"Habitat Protection Zone","zone":"Dark Blue Zone","color":"#3f6fb0","name":"HP-10-5031","permit":"Unnamed reef 10-368","source":"GBRMPA"}},{"type":"Feature","geometry":{"type":"Polygon","coordinates":[[[142.9276,-11.2375],[142.9388,-11.2488],[142.9388,-11.2611],[142.9312,-11.2611],[142.9159,-11.2456],[142.9159,-11.2375],[142.9276,-11.2375]],[[142.9204,-11.244],[142.9274,-11.2432],[142.9348,-11.2502],[142.9276,-11.2419],[142.9236,-11.2423],[142.9232,-11.2407],[142.9193,-11.2394],[142.9184,-11.2403],[142.9204,-11.244]],[[142.9339,-11.2518],[142.9349,-11.2518],[142.9349,-11.2509],[142.9339,-11.2518]]]},"properties":{"id":"gbrmpa-zone-605","type":"Habitat Protection Zone","zone":"Dark Blue Zone","color":"#3f6fb0","name":"HP-11-5044","permit":"Cairncross Islets Reefs (11-010)","source":"GBRMPA"}},{"type":"Feature","geometry":{"type":"Polygon","coordinates":[[[143.5248,-10.7083],[143.4956,-10.7083],[143.4956,-10.6877],[143.5456,-10.6876],[143.5456,-10.7],[143.5248,-10.7083]]]},"properties":{"id":"gbrmpa-zone-654","type":"Habitat Protection Zone","zone":"Dark Blue Zone","color":"#3f6fb0","name":"HP-10-5003","permit":"Unnamed reef 10-387","source":"GBRMPA"}},{"type":"Feature","geometry":{"type":"Polygon","coordinates":[[[143.2218,-11.9411],[143.2218,-11.9491],[143.2299,-11.9491],[143.25,-11.96],[143.26,-11.96],[143.26,-11.95],[143.2677,-11.9423],[143.2957,-11.9713],[143.2768,-12],[143.25,-12],[143.21,-12.01],[143.1246,-12.1505],[143.1246,-12.1737],[143.0952,-12.1737],[143.0932,-12.1578],[143.1015,-12.146],[143.1128,-12.1212],[143.1183,-12.1141],[143.1212,-12.1145],[143.1191,-12.1118],[143.1201,-12.1091],[143.1373,-12.087],[143.1359,-12.0864],[143.1362,-12.0845],[143.1466,-12.0698],[143.1524,-12.0569],[143.1518,-12.0542],[143.1554,-12.0494],[143.161,-12.0456],[143.1655,-12.0367],[143.167,-12.0296],[143.1782,-12.0129],[143.1853,-11.9911],[143.2077,-11.9758],[143.2139,-11.9745],[143.2169,-11.9746],[143.2214,-11.9811],[143.2211,-11.984],[143.2283,-11.9886],[143.2292,-11.9862],[143.2374,-11.9848],[143.2368,-11.9814],[143.2444,-11.974],[143.2442,-11.9687],[143.2415,-11.9654],[143.2324,-11.9643],[143.232,-11.9598],[143.2296,-11.9593],[143.225,-11.9538],[143.2192,-11.9537],[143.2192,-11.9488],[143.2022,-11.9411],[143.2218,-11.9411]],[[143.2687,-11.975],[143.2633,-11.9735],[143.2612,-11.9758],[143.2636,-11.9789],[143.2663,-11.9886],[143.2676,-11.9902],[143.2714,-11.9905],[143.2775,-11.9875],[143.2777,-11.9861],[143.2687,-11.975]],[[143.2515,-11.9914],[143.2475,-11.9842],[143.2449,-11.9853],[143.2442,-11.9882],[143.2479,-11.9903],[143.2478,-11.9939],[143.2523,-11.9954],[143.2515,-11.9914]],[[143.2859,-11.9676],[143.2851,-11.9704],[143.2876,-11.9745],[143.2907,-11.9705],[143.2859,-11.9676]],[[143.2439,-11.9947],[143.2415,-11.9934],[143.2405,-11.9943],[143.2432,-11.9964],[143.2445,-11.9961],[143.2439,-11.9947]],[[143.2624,-11.9674],[143.2631,-11.9701],[143.265,-11.9686],[143.2631,-11.9654],[143.2624,-11.9674]],[[143.2542,-11.9702],[143.2556,-11.9694],[143.2529,-11.9679],[143.2523,-11.9699],[143.2542,-11.9702]],[[143.2684,-11.9506],[143.2665,-11.9492],[143.2664,-11.9502],[143.2684,-11.9506]],[[143.218,-11.9833],[143.2174,-11.9838],[143.2188,-11.9842],[143.218,-11.9833]],[[143.2723,-11.9606],[143.2736,-11.9604],[143.2729,-11.9598],[143.2723,-11.9606]],[[143.2678,-11.9582],[143.2675,-11.9576],[143.2665,-11.9577],[143.2678,-11.9582]]]},"properties":{"id":"gbrmpa-zone-579","type":"Habitat Protection Zone","zone":"Dark Blue Zone","color":"#3f6fb0","name":"HP-11-5049","permit":"Cape Grenville coastal area","source":"GBRMPA"}},{"type":"Feature","geometry":{"type":"Polygon","coordinates":[[[143.26,-11.79],[143.26,-11.81],[143.27,-11.81],[143.29,-11.85],[143.27,-11.85],[143.27,-11.87],[143.29,-11.88],[143.3,-11.88],[143.36,-11.9385],[143.36,-11.97],[143.4118,-11.97],[143.4105,-11.9719],[143.3563,-11.9899],[143.3331,-12.0112],[143.31,-12.0646],[143.3,-12.0746],[143.3,-12.1046],[143.31,-12.1245],[143.33,-12.1445],[143.37,-12.1646],[143.4,-12.1846],[143.4,-12.2146],[143.3199,-12.2346],[143.3123,-12.2346],[143.3123,-12.2278],[143.2706,-12.207],[143.2581,-12.207],[143.2581,-12.2325],[143.2731,-12.2585],[143.2989,-12.2839],[143.307,-12.2839],[143.373,-12.3862],[143.3586,-12.3977],[143.38,-12.43],[143.4684,-12.5386],[143.57,-12.5386],[143.57,-12.56],[143.5331,-12.575],[143.5039,-12.575],[143.5039,-12.5916],[143.5248,-12.6083],[143.5456,-12.6083],[143.5789,-12.5875],[143.614,-12.5875],[143.6141,-12.6958],[143.5664,-12.6958],[143.5664,-12.7041],[143.5748,-12.7166],[143.5998,-12.7291],[143.6414,-12.7291],[143.6414,-12.79],[143.71,-12.79],[143.71,-12.84],[143.68,-12.84],[143.68,-12.86],[143.7,-12.88],[143.72,-12.88],[143.72,-12.94],[143.74,-12.96],[143.74,-12.98],[143.7822,-13.0847],[143.8098,-13.1799],[143.7933,-13.18],[143.78,-13.1933],[143.78,-13.2],[143.7867,-13.2067],[143.8,-13.2067],[143.81,-13.1967],[143.81,-13.26],[143.84,-13.26],[143.84,-13.3698],[143.7363,-13.3798],[143.7186,-13.4269],[143.7121,-13.5048],[143.7247,-13.54],[143.7289,-13.6116],[143.8084,-13.6116],[143.9716,-13.56],[144.0432,-13.5148],[144.08,-13.57],[144.08,-13.6322],[144.0914,-13.65],[144.14,-13.65],[144.14,-13.68],[144.19,-13.71],[144.2,-13.71],[144.2671,-13.8106],[144.2671,-13.8583],[144.28,-13.9],[144.334,-13.9202],[144.334,-13.9497],[144.3438,-13.96],[144.37,-13.96],[144.37,-13.97],[144.43,-13.97],[144.43,-14],[144.5474,-14],[144.5474,-14.0625],[144.6156,-14.0625],[144.625,-14.075],[144.625,-14.175],[144.65,-14.25],[144.675,-14.3],[144.725,-14.375],[144.775,-14.4],[144.7934,-14.4],[144.8676,-14.4225],[144.8788,-14.4363],[144.8902,-14.4421],[144.9001,-14.4421],[144.9279,-14.4616],[144.9435,-14.4808],[144.9435,-14.5],[144.9471,-14.5101],[144.9604,-14.5328],[144.9831,-14.55],[145.004,-14.55],[145.24,-14.6292],[145.24,-14.67],[145.33,-14.74],[145.33,-14.8],[145.4,-14.9769],[145.46,-14.9769],[145.46,-15.0473],[145.4,-15.0473],[145.4,-15.0875],[145.3665,-15.0875],[145.3665,-15.1041],[145.4,-15.1041],[145.4,-15.252],[145.46,-15.252],[145.46,-15.38],[145.388,-15.38],[145.388,-15.6299],[145.4201,-15.6299],[145.4202,-15.6353],[145.4243,-15.6501],[145.5,-15.7129],[145.5,-15.92],[145.3792,-15.92],[145.3792,-15.8524],[145.382,-15.848],[145.382,-15.837],[145.3762,-15.83],[145.377,-15.755],[145.372,-15.72],[145.363,-15.697],[145.345,-15.676],[145.343,-15.662],[145.328,-15.6481],[145.328,-15.61],[145.338,-15.61],[145.338,-15.594],[145.3294,-15.594],[145.3287,-15.5922],[145.3267,-15.5932],[145.3204,-15.5892],[145.3192,-15.584],[145.3222,-15.5808],[145.319,-15.5794],[145.3173,-15.5751],[145.3228,-15.5707],[145.3189,-15.5696],[145.3176,-15.5662],[145.3108,-15.5605],[145.3079,-15.5542],[145.3052,-15.5523],[145.2823,-15.4941],[145.2828,-15.4916],[145.2956,-15.4916],[145.2956,-15.4708],[145.2831,-15.4708],[145.287,-15.3786],[145.2882,-15.3759],[145.2879,-15.37],[145.2854,-15.3646],[145.2956,-15.3506],[145.2982,-15.3424],[145.2873,-15.3349],[145.2863,-15.3306],[145.2837,-15.3294],[145.2835,-15.3236],[145.2854,-15.3185],[145.2923,-15.3097],[145.3122,-15.2916],[145.3307,-15.279],[145.3405,-15.2751],[145.3433,-15.2755],[145.344,-15.2777],[145.3502,-15.2763],[145.3545,-15.278],[145.3571,-15.2772],[145.3575,-15.2748],[145.3541,-15.2716],[145.3528,-15.2584],[145.3439,-15.2479],[145.3448,-15.2329],[145.343,-15.2293],[145.3386,-15.2268],[145.3357,-15.2208],[145.3498,-15.2208],[145.3498,-15.2083],[145.3294,-15.2083],[145.2986,-15.1458],[145.3331,-15.1458],[145.3331,-15.1292],[145.2903,-15.1292],[145.2663,-15.0805],[145.2884,-15.0446],[145.3323,-14.9985],[145.3827,-14.9985],[145.3693,-14.9185],[145.3,-14.9185],[145.3,-14.944],[145.2246,-14.8483],[145.2297,-14.8359],[145.2317,-14.836],[145.2168,-14.7675],[145.2168,-14.6956],[145.2096,-14.6926],[145.1133,-14.7279],[144.9117,-14.5491],[144.8486,-14.5257],[144.8486,-14.5188],[144.8412,-14.5188],[144.8412,-14.523],[144.766,-14.4951],[144.7113,-14.4713],[144.6418,-14.4379],[144.6418,-14.4001],[144.662,-14.378],[144.662,-14.3473],[144.6542,-14.334],[144.647,-14.334],[144.6344,-14.3042],[144.6011,-14.2485],[144.5261,-14.1485],[144.4968,-14.1485],[144.4882,-14.1402],[144.4818,-14.1387],[144.288,-14.23],[144.288,-14.1673],[144.2734,-14.1456],[144.2382,-14.124],[144.228,-14.124],[144.196,-14.1744],[144.196,-14.2479],[144.1198,-14.359],[143.81,-14.2301],[143.7847,-14.2036],[143.64,-13.78],[143.65,-13.78],[143.65,-13.74],[143.64,-13.73],[143.6446,-13.5533],[143.66,-13.5533],[143.6616,-13.5517],[143.6625,-13.5431],[143.6619,-13.5352],[143.66,-13.5333],[143.6452,-13.5333],[143.6463,-13.4981],[143.6509,-13.458],[143.6559,-13.4565],[143.6553,-13.4487],[143.6522,-13.4466],[143.656,-13.402],[143.61,-13.33],[143.61,-13.32],[143.6,-13.32],[143.5748,-13.2792],[143.5748,-13.2016],[143.585,-13.2016],[143.585,-13.1665],[143.567,-13.1665],[143.56,-13.148],[143.56,-13.12],[143.57,-13.11],[143.56,-13.1],[143.56,-13.07],[143.57,-13.06],[143.5601,-13.0504],[143.5601,-12.812],[143.552,-12.8],[143.427,-12.8],[143.4076,-12.7583],[143.43,-12.68],[143.44,-12.67],[143.45,-12.67],[143.46,-12.66],[143.45,-12.65],[143.44,-12.65],[143.45,-12.63],[143.4645,-12.63],[143.4645,-12.6217],[143.4498,-12.6078],[143.42,-12.59],[143.36,-12.56],[143.2999,-12.4966],[143.2999,-12.4138],[143.2156,-12.3091],[143.1246,-12.2771],[143.1246,-12.2467],[143.1467,-12.2467],[143.1467,-12.2267],[143.1246,-12.2267],[143.1246,-12.1505],[143.21,-12.01],[143.25,-12],[143.2768,-12],[143.2957,-11.9713],[143.2677,-11.9423],[143.26,-11.95],[143.26,-11.96],[143.25,-11.96],[143.2299,-11.9491],[143.2218,-11.9491],[143.2218,-11.9411],[143.2022,-11.9411],[143.1495,-11.9167],[143.1361,-11.9],[143.1206,-11.9],[143.1206,-11.8916],[143.1123,-11.8833],[143.0973,-11.8833],[143.1,-11.84],[143.1,-11.7],[143.2175,-11.742],[143.25,-11.75],[143.25,-11.76],[143.27,-11.79],[143.26,-11.79]],[[144.06,-13.88],[143.9107,-14.0386],[144.0228,-14.0803],[144.1309,-14.0803],[144.2474,-13.9796],[144.2474,-13.9141],[144.231,-13.8717],[144.18,-13.8717],[144.1619,-13.84],[144.06,-13.84],[144.06,-13.88]],[[143.78,-13.63],[143.77,-13.64],[143.77,-13.67],[143.74,-13.73],[143.75,-13.75],[143.78,-13.74],[143.7978,-13.7133],[143.8267,-13.7133],[143.8267,-13.6733],[143.83,-13.67],[143.83,-13.64],[143.84,-13.63],[143.89,-13.63],[143.89,-13.65],[143.88,-13.66],[143.87,-13.71],[143.79,-13.79],[143.75,-13.79],[143.73,-13.8],[143.73,-13.81],[143.77,-13.84],[143.77,-13.85],[143.7802,-13.85],[143.79,-13.84],[143.84,-13.84],[143.87,-13.81],[143.91,-13.78],[143.96,-13.68],[143.96,-13.67],[143.94,-13.66],[143.94,-13.6],[143.93,-13.59],[143.91,-13.59],[143.78,-13.63]],[[143.94,-13.77],[143.88,-13.86],[143.88,-13.88],[143.92,-13.88],[143.9037,-13.8963],[143.8919,-13.8963],[143.8812,-13.9088],[143.8912,-13.9187],[143.87,-13.94],[143.87,-13.98],[143.91,-13.99],[143.93,-13.98],[143.98,-13.95],[144,-13.92],[144.02,-13.92],[144.05,-13.85],[144.05,-13.81],[144.01,-13.779],[144.01,-13.75],[144,-13.74],[143.99,-13.74],[143.99,-13.72],[143.95,-13.74],[143.94,-13.76],[143.94,-13.77]],[[143.63,-13.08],[143.63,-13.13],[143.69,-13.13],[143.69,-13.12],[143.71,-13.12],[143.75,-13.11],[143.75,-13.08],[143.73,-13.04],[143.6948,-13.0291],[143.622,-13.0291],[143.6124,-13.0383],[143.6124,-13.0558],[143.63,-13.08]],[[143.77,-13.15],[143.74,-13.16],[143.73,-13.16],[143.73,-13.17],[143.72,-13.17],[143.66,-13.2],[143.66,-13.23],[143.6901,-13.2472],[143.6748,-13.2625],[143.6748,-13.275],[143.6789,-13.2832],[143.679,-13.2933],[143.6622,-13.2933],[143.6672,-13.3132],[143.68,-13.3133],[143.6867,-13.3067],[143.6867,-13.2958],[143.7039,-13.2958],[143.7164,-13.2833],[143.7164,-13.2622],[143.73,-13.27],[143.75,-13.27],[143.79,-13.23],[143.79,-13.21],[143.76,-13.21],[143.73,-13.22],[143.71,-13.21],[143.7201,-13.1899],[143.73,-13.18],[143.78,-13.18],[143.79,-13.17],[143.79,-13.16],[143.78,-13.15],[143.77,-13.15]],[[143.78,-13.3],[143.77,-13.32],[143.74,-13.33],[143.74,-13.3133],[143.7267,-13.3133],[143.72,-13.32],[143.72,-13.3333],[143.74,-13.3333],[143.74,-13.35],[143.75,-13.36],[143.78,-13.36],[143.82,-13.34],[143.82,-13.32],[143.8,-13.29],[143.79,-13.29],[143.78,-13.3]],[[144.2041,-14.0661],[144.2041,-14.0874],[144.2763,-14.0874],[144.2763,-14.0432],[144.2507,-14.0432],[144.2041,-14.0661]],[[143.5873,-12.8874],[143.5998,-12.9],[143.629,-12.8916],[143.6456,-12.875],[143.6456,-12.8625],[143.6623,-12.8625],[143.6623,-12.8333],[143.6248,-12.8333],[143.6206,-12.8375],[143.6206,-12.8458],[143.6289,-12.8541],[143.6289,-12.8625],[143.6206,-12.8708],[143.5873,-12.8708],[143.5873,-12.8874]],[[145.427,-15.716],[145.427,-15.764],[145.4488,-15.764],[145.476,-15.742],[145.4668,-15.7159],[145.427,-15.716]],[[143.68,-12.98],[143.6667,-12.9867],[143.66,-12.9933],[143.66,-13.0066],[143.6734,-13.0133],[143.7067,-13.0066],[143.7333,-13.0066],[143.7333,-12.9867],[143.6881,-12.98],[143.68,-12.98]],[[143.5289,-12.6458],[143.5164,-12.6583],[143.5164,-12.6666],[143.5206,-12.6708],[143.5289,-12.6708],[143.5331,-12.6666],[143.5331,-12.6541],[143.5748,-12.6541],[143.5956,-12.6333],[143.5956,-12.6208],[143.5873,-12.6208],[143.5748,-12.6291],[143.5498,-12.6291],[143.5456,-12.6333],[143.5289,-12.6333],[143.5289,-12.6458]],[[143.1867,-12.2467],[143.2,-12.2533],[143.2133,-12.2533],[143.2333,-12.2667],[143.2534,-12.2667],[143.2534,-12.2533],[143.2333,-12.2333],[143.1867,-12.2333],[143.1867,-12.2467]],[[143.46,-12.78],[143.46,-12.79],[143.5,-12.79],[143.49,-12.74],[143.47,-12.75],[143.46,-12.78]],[[143.2467,-12.1],[143.2667,-12.12],[143.28,-12.12],[143.28,-12.0933],[143.2733,-12.0733],[143.2544,-12.0733],[143.2467,-12.0866],[143.2467,-12.1]],[[143.6844,-13.3733],[143.6934,-13.4],[143.7133,-13.4],[143.72,-13.3933],[143.72,-13.3667],[143.6934,-13.36],[143.6846,-13.36],[143.6844,-13.3733]],[[143.7107,-13.6494],[143.7132,-13.67],[143.75,-13.67],[143.75,-13.6323],[143.7106,-13.6483],[143.7107,-13.6494]],[[144.3289,-14.0791],[144.304,-14.1041],[144.304,-14.1125],[144.3248,-14.1125],[144.3414,-14.1041],[144.3456,-14.0958],[144.3456,-14.0791],[144.3289,-14.0791]],[[143.5963,-12.7763],[143.6,-12.78],[143.63,-12.78],[143.63,-12.76],[143.59,-12.75],[143.59,-12.77],[143.5963,-12.7763]],[[144.523,-14.1045],[144.5066,-14.118],[144.5068,-14.1278],[144.5123,-14.1333],[144.5373,-14.1333],[144.5414,-14.1291],[144.5415,-14.1047],[144.523,-14.1045]],[[143.8249,-13.917],[143.8331,-13.9375],[143.8414,-13.9375],[143.8498,-13.9291],[143.8498,-13.9],[143.8248,-13.9],[143.8249,-13.917]],[[143.29,-12.023],[143.29,-12.05],[143.31,-12.05],[143.31,-12.01],[143.2984,-12.01],[143.29,-12.023]],[[143.5081,-12.5541],[143.5081,-12.5667],[143.5415,-12.5667],[143.554,-12.5583],[143.554,-12.5458],[143.5081,-12.5541]],[[144.7987,-14.4195],[144.7987,-14.4433],[144.8241,-14.4433],[144.8241,-14.4195],[144.7987,-14.4195]],[[143.38,-12.5267],[143.3867,-12.5333],[143.4067,-12.5333],[143.3888,-12.5],[143.38,-12.5],[143.38,-12.5267]],[[144.9014,-14.4948],[144.9014,-14.5162],[144.9273,-14.5162],[144.9273,-14.4948],[144.9014,-14.4948]],[[144.0133,-14.1206],[143.9867,-14.12],[143.98,-14.1267],[143.9933,-14.14],[144.0133,-14.1333],[144.0133,-14.1206]],[[143.6267,-12.9867],[143.6267,-12.98],[143.6,-12.98],[143.6,-12.9933],[143.6066,-13],[143.62,-13],[143.6267,-12.9867]],[[143.2618,-12.1322],[143.2675,-12.1411],[143.277,-12.1495],[143.2834,-12.1503],[143.288,-12.1469],[143.2887,-12.1414],[143.287,-12.1378],[143.2742,-12.1257],[143.2688,-12.1236],[143.2623,-12.1253],[143.2618,-12.1322]],[[143.8498,-13.9708],[143.8498,-13.95],[143.8279,-13.95],[143.8355,-13.975],[143.8414,-13.975],[143.8498,-13.9708]],[[143.7284,-13.8594],[143.7233,-13.8533],[143.7133,-13.8533],[143.7067,-13.86],[143.7067,-13.8689],[143.7143,-13.877],[143.7232,-13.877],[143.7284,-13.8717],[143.7284,-13.8594]],[[145.2667,-14.7267],[145.2867,-14.7267],[145.2867,-14.7067],[145.2667,-14.7067],[145.2667,-14.7267]],[[143.6,-12.8],[143.6,-12.82],[143.62,-12.82],[143.62,-12.8],[143.6,-12.8]],[[143.74,-13.1267],[143.74,-13.1467],[143.76,-13.1467],[143.76,-13.1333],[143.7534,-13.1267],[143.74,-13.1267]],[[145.3887,-15.7113],[145.3955,-15.7208],[145.4081,-15.7208],[145.4081,-15.7],[145.3887,-15.7],[145.3887,-15.7113]],[[145.4321,-15.0276],[145.4421,-15.0324],[145.4497,-15.0324],[145.4536,-15.0282],[145.4536,-15.0222],[145.4499,-15.0165],[145.4394,-15.0129],[145.4308,-15.0162],[145.4292,-15.0217],[145.4321,-15.0276]],[[143.6467,-12.9267],[143.6467,-12.94],[143.66,-12.94],[143.6667,-12.9333],[143.6667,-12.92],[143.6533,-12.92],[143.6467,-12.9267]],[[143.7593,-13.9533],[143.7637,-13.9462],[143.7637,-13.9351],[143.7594,-13.9313],[143.7563,-13.9313],[143.7485,-13.9355],[143.7444,-13.9399],[143.7444,-13.948],[143.7487,-13.9533],[143.7593,-13.9533]],[[143.6961,-13.854],[143.6961,-13.844],[143.693,-13.8389],[143.6886,-13.8348],[143.6842,-13.8348],[143.6802,-13.8374],[143.6771,-13.8417],[143.6771,-13.8467],[143.6823,-13.8546],[143.6881,-13.8577],[143.6948,-13.8563],[143.6961,-13.854]],[[143.2192,-12.139],[143.2201,-12.1399],[143.23,-12.13],[143.23,-12.12],[143.21,-12.12],[143.21,-12.13],[143.2192,-12.139]],[[143.2,-11.926],[143.2063,-11.9361],[143.218,-11.9361],[143.218,-11.926],[143.2091,-11.916],[143.2,-11.916],[143.2,-11.926]],[[145.3081,-14.7942],[145.3081,-14.7958],[145.3248,-14.7958],[145.3248,-14.7791],[145.3081,-14.7791],[145.3081,-14.7942]],[[145.3172,-15.4959],[145.3172,-15.5125],[145.3337,-15.5125],[145.3337,-15.4959],[145.3172,-15.4959]],[[144.8845,-14.4645],[144.8868,-14.4703],[144.8933,-14.4746],[144.8986,-14.4736],[144.9013,-14.47],[144.9011,-14.4614],[144.8982,-14.4537],[144.891,-14.454],[144.8859,-14.459],[144.8845,-14.4645]],[[143.6867,-12.94],[143.6734,-12.9533],[143.68,-12.96],[143.6934,-12.96],[143.6934,-12.9467],[143.6867,-12.94]],[[144.762,-14.484],[144.762,-14.468],[144.746,-14.468],[144.746,-14.484],[144.762,-14.484]],[[143.9195,-14.0812],[143.9195,-14.0752],[143.917,-14.0695],[143.9109,-14.0695],[143.9028,-14.0741],[143.9028,-14.0813],[143.9063,-14.0856],[143.9162,-14.0856],[143.9195,-14.0812]],[[145.1914,-14.6625],[145.1914,-14.675],[145.2081,-14.675],[145.2081,-14.6625],[145.1914,-14.6625]],[[145.1706,-14.6541],[145.1706,-14.6666],[145.1873,-14.6666],[145.1873,-14.6541],[145.1706,-14.6541]],[[143.604,-13.275],[143.5956,-13.2666],[143.5873,-13.2666],[143.5873,-13.275],[143.5956,-13.2833],[143.604,-13.2833],[143.604,-13.275]],[[145.424,-15.702],[145.424,-15.712],[145.444,-15.712],[145.444,-15.702],[145.424,-15.702]],[[143.6665,-13.1625],[143.6623,-13.1583],[143.6539,-13.1583],[143.6498,-13.1625],[143.6498,-13.1667],[143.6539,-13.1708],[143.6623,-13.1708],[143.6665,-13.1666],[143.6665,-13.1625]],[[145.2664,-14.8458],[145.2664,-14.8583],[145.28,-14.8583],[145.28,-14.846],[145.2664,-14.8458]],[[145.2789,-14.8083],[145.2789,-14.8208],[145.2914,-14.8208],[145.2914,-14.8083],[145.2789,-14.8083]],[[143.8623,-14.0708],[143.8623,-14.0583],[143.8498,-14.0583],[143.8498,-14.0708],[143.8623,-14.0708]],[[145.3468,-15.5368],[145.3533,-15.5423],[145.3579,-15.5423],[145.3579,-15.5268],[145.3468,-15.5268],[145.3468,-15.5368]],[[145.3893,-15.9059],[145.3893,-15.9173],[145.4024,-15.9173],[145.4024,-15.9059],[145.3893,-15.9059]],[[143.646,-13.156],[143.646,-13.144],[143.634,-13.144],[143.6373,-13.156],[143.646,-13.156]],[[143.6239,-13.158],[143.6239,-13.148],[143.6122,-13.148],[143.6122,-13.158],[143.6239,-13.158]],[[144.9149,-14.5444],[144.9177,-14.5472],[144.9212,-14.5472],[144.9249,-14.5433],[144.9249,-14.5402],[144.922,-14.5376],[144.9197,-14.5375],[144.9149,-14.5423],[144.9149,-14.5444]],[[143.6936,-13.6722],[143.6955,-13.6679],[143.6945,-13.6659],[143.6904,-13.6682],[143.6939,-13.6682],[143.6897,-13.6687],[143.6884,-13.6706],[143.6898,-13.6741],[143.6936,-13.6722]]]},"properties":{"id":"gbrmpa-zone-525","type":"General Use Zone","zone":"Light Blue Zone","color":"#7fc3dd","name":"GU-11-6002","permit":null,"source":"GBRMPA"}},{"type":"Feature","geometry":{"type":"Polygon","coordinates":[[[142.79,-10.92],[142.7716,-10.92],[142.75,-10.8822],[142.75,-10.88],[142.77,-10.88],[142.79,-10.9],[142.79,-10.92]]]},"properties":{"id":"gbrmpa-zone-717","type":"Habitat Protection Zone","zone":"Dark Blue Zone","color":"#3f6fb0","name":"HP-10-5028","permit":"Shortland Reef (10-341)","source":"GBRMPA"}},{"type":"Feature","geometry":{"type":"Polygon","coordinates":[[[143.3902,-11.25],[143.3402,-11.25],[143.2502,-11.2],[143.2602,-11.18],[143.3002,-11.2],[143.3502,-11.21],[143.3902,-11.21],[143.3902,-11.25]]]},"properties":{"id":"gbrmpa-zone-608","type":"Habitat Protection Zone","zone":"Dark Blue Zone","color":"#3f6fb0","name":"HP-11-5042","permit":"Collette Reef (11-037)","source":"GBRMPA"}},{"type":"Feature","geometry":{"type":"Polygon","coordinates":[[[142.79,-10.71],[142.79,-10.74],[142.73,-10.74],[142.6882,-10.6878],[142.7679,-10.6879],[142.79,-10.71]],[[142.7285,-10.7269],[142.7292,-10.7268],[142.7285,-10.7251],[142.7285,-10.7269]]]},"properties":{"id":"gbrmpa-zone-651","type":"Habitat Protection Zone","zone":"Dark Blue Zone","color":"#3f6fb0","name":"HP-10-5007","permit":"South Ledge Reef (10-327)","source":"GBRMPA"}},{"type":"Feature","geometry":{"type":"Polygon","coordinates":[[[144,-10.84],[143.96,-10.84],[143.9172,-10.6868],[144.2003,-10.6859],[144.2003,-10.8003],[144.0399,-10.8003],[144,-10.84]]]},"properties":{"id":"gbrmpa-zone-731","type":"Marine National Park Zone","zone":"Green Zone","color":"#2fae5a","name":"MNP-10-1001","permit":"Triangle Reef area","source":"GBRMPA"}},{"type":"Feature","geometry":{"type":"Polygon","coordinates":[[[143.2434,-10.9543],[143.2308,-10.9513],[143.2308,-10.9444],[143.2343,-10.9391],[143.253,-10.9417],[143.253,-10.9543],[143.2434,-10.9543]]]},"properties":{"id":"gbrmpa-zone-620","type":"Habitat Protection Zone","zone":"Dark Blue Zone","color":"#3f6fb0","name":"HP-10-5032","permit":"Unnamed reef 10-371","source":"GBRMPA"}},{"type":"Feature","geometry":{"type":"Polygon","coordinates":[[[143.968,-11.412],[143.948,-11.408],[143.948,-11.4],[143.96,-11.396],[143.98,-11.396],[143.98,-11.408],[143.968,-11.412]]]},"properties":{"id":"gbrmpa-zone-603","type":"Preservation Zone","zone":"Pink Zone","color":"#e58fb0","name":"P-11-3","permit":"Unnamed reef 11-091","source":"GBRMPA"}},{"type":"Feature","geometry":{"type":"Polygon","coordinates":[[[145.0011,-10.6819],[145.0011,-11.23],[144.09,-11.23],[144.09,-11.2],[144.07,-11.2],[144.06,-11.23],[144,-11.23],[144,-11.04],[143.98,-11.02],[143.98,-11],[143.9993,-10.9807],[143.96,-10.84],[144,-10.84],[144.0399,-10.8003],[144.2003,-10.8003],[144.2003,-10.6859],[145.0011,-10.6819]]]},"properties":{"id":"gbrmpa-zone-732","type":"Habitat Protection Zone","zone":"Dark Blue Zone","color":"#3f6fb0","name":"HP-10-5001","permit":"Cape York Offshore (unnamed reefs 10-406 to 11-124)","source":"GBRMPA"}},{"type":"Feature","geometry":{"type":"Polygon","coordinates":[[[143.36,-10.82],[143.35,-10.82],[143.33,-10.8],[143.34,-10.79],[143.36,-10.79],[143.38,-10.8],[143.38,-10.81],[143.36,-10.82]]]},"properties":{"id":"gbrmpa-zone-640","type":"Habitat Protection Zone","zone":"Dark Blue Zone","color":"#3f6fb0","name":"HP-10-5018","permit":"Unnamed reef 10-357","source":"GBRMPA"}},{"type":"Feature","geometry":{"type":"Polygon","coordinates":[[[143.1259,-10.9823],[143.1334,-10.9857],[143.1343,-10.9876],[143.1302,-10.9916],[143.1252,-10.9908],[143.1153,-10.9837],[143.1154,-10.9823],[143.1259,-10.9823]],[[143.1188,-10.9846],[143.1202,-10.9846],[143.1196,-10.9835],[143.1173,-10.9833],[143.1188,-10.9846]]]},"properties":{"id":"gbrmpa-zone-617","type":"Habitat Protection Zone","zone":"Dark Blue Zone","color":"#3f6fb0","name":"HP-10-5035","permit":"Unnamed reef 10-376","source":"GBRMPA"}},{"type":"Feature","geometry":{"type":"Polygon","coordinates":[[[143.6144,-11.8852],[143.6144,-11.96],[143.53,-11.96],[143.45,-11.97],[143.36,-11.97],[143.36,-11.92],[143.4,-11.89],[143.46,-11.86],[143.503,-11.8512],[143.5411,-11.8535],[143.5928,-11.8685],[143.6144,-11.8852]],[[143.4792,-11.9212],[143.4857,-11.9212],[143.4832,-11.9134],[143.4783,-11.9136],[143.4767,-11.9154],[143.476,-11.9194],[143.4792,-11.9212]],[[143.4677,-11.9062],[143.4714,-11.9061],[143.4711,-11.9029],[143.4726,-11.9026],[143.4707,-11.8979],[143.4639,-11.9039],[143.4677,-11.9062]],[[143.4877,-11.9347],[143.489,-11.9349],[143.4896,-11.9332],[143.4877,-11.9347]],[[143.3689,-11.9324],[143.3719,-11.9308],[143.3704,-11.931],[143.3689,-11.9324]]]},"properties":{"id":"gbrmpa-zone-523","type":"Marine National Park Zone","zone":"Green Zone","color":"#2fae5a","name":"MNP-11-1005","permit":"Sir Charles Hardy Islands Reef (11-184c)","source":"GBRMPA"}},{"type":"Feature","geometry":{"type":"Polygon","coordinates":[[[143.26,-11.26],[143.24,-11.26],[143.24,-11.24],[143.25,-11.23],[143.25,-11.22],[143.27,-11.22],[143.28,-11.23],[143.28,-11.25],[143.26,-11.26]]]},"properties":{"id":"gbrmpa-zone-606","type":"Habitat Protection Zone","zone":"Dark Blue Zone","color":"#3f6fb0","name":"HP-11-5043","permit":"Unnamed reef 11-039","source":"GBRMPA"}},{"type":"Feature","geometry":{"type":"Polygon","coordinates":[[[144,-11.98],[143.952,-11.948],[143.952,-11.924],[143.976,-11.924],[144.024,-11.94],[144.024,-11.96],[144,-11.98]]]},"properties":{"id":"gbrmpa-zone-580","type":"Preservation Zone","zone":"Pink Zone","color":"#e58fb0","name":"P-11-6","permit":"Yule Detached Reef (11-240)","source":"GBRMPA"}},{"type":"Feature","geometry":{"type":"Polygon","coordinates":[[[143.136,-10.9563],[143.1306,-10.9563],[143.1251,-10.9527],[143.124,-10.9473],[143.1341,-10.9495],[143.136,-10.9563]]]},"properties":{"id":"gbrmpa-zone-618","type":"Habitat Protection Zone","zone":"Dark Blue Zone","color":"#3f6fb0","name":"HP-10-5034","permit":"Unnamed reef 10-373","source":"GBRMPA"}},{"type":"Feature","geometry":{"type":"Polygon","coordinates":[[[143.74,-11.576],[143.7,-11.576],[143.7,-11.548],[143.74,-11.548],[143.74,-11.576]]]},"properties":{"id":"gbrmpa-zone-526","type":"Preservation Zone","zone":"Pink Zone","color":"#e58fb0","name":"P-11-5","permit":"Pearson Reef (11-211)","source":"GBRMPA"}},{"type":"Feature","geometry":{"type":"Polygon","coordinates":[[[143.4206,-10.6878],[143.4456,-10.6877],[143.4456,-10.7083],[143.4206,-10.7083],[143.4206,-10.6878]]]},"properties":{"id":"gbrmpa-zone-652","type":"Habitat Protection Zone","zone":"Dark Blue Zone","color":"#3f6fb0","name":"HP-10-5006","permit":"Unnamed reef 10-349","source":"GBRMPA"}},{"type":"Feature","geometry":{"type":"Polygon","coordinates":[[[143.2146,-11.2027],[143.2016,-11.2027],[143.1877,-11.1914],[143.1877,-11.1841],[143.1961,-11.1799],[143.2061,-11.1799],[143.22,-11.189],[143.22,-11.2],[143.2146,-11.2027]]]},"properties":{"id":"gbrmpa-zone-609","type":"Habitat Protection Zone","zone":"Dark Blue Zone","color":"#3f6fb0","name":"HP-11-5041","permit":"Parsons Reef (11-036)","source":"GBRMPA"}},{"type":"Feature","geometry":{"type":"Polygon","coordinates":[[[143.2082,-10.9037],[143.2043,-10.8993],[143.2043,-10.8958],[143.2024,-10.8958],[143.2039,-10.891],[143.2095,-10.891],[143.2167,-10.8969],[143.2167,-10.9036],[143.2082,-10.9037]]]},"properties":{"id":"gbrmpa-zone-715","type":"Habitat Protection Zone","zone":"Dark Blue Zone","color":"#3f6fb0","name":"HP-10-5030","permit":"Unnamed reef 10-364","source":"GBRMPA"}},{"type":"Feature","geometry":{"type":"Polygon","coordinates":[[[142.6314,-10.72],[142.6294,-10.7192],[142.6299,-10.7181],[142.6314,-10.72]]]},"properties":{"id":"gbrmpa-zone-655","type":"Commonwealth Islands Zone (GBRMPA)","zone":"Commonwealth Island Zone","color":"#b0b8bd","name":"Albany Rock (10321100)","permit":null,"source":"GBRMPA"}},{"type":"Feature","geometry":{"type":"Polygon","coordinates":[[[143.3651,-10.8338],[143.3651,-10.8417],[143.3494,-10.8503],[143.3382,-10.8503],[143.3143,-10.8395],[143.3091,-10.8331],[143.3091,-10.8281],[143.3133,-10.824],[143.3215,-10.824],[143.3594,-10.8338],[143.3651,-10.8338]]]},"properties":{"id":"gbrmpa-zone-721","type":"Habitat Protection Zone","zone":"Dark Blue Zone","color":"#3f6fb0","name":"HP-10-5024","permit":"Unnamed reef 10-358","source":"GBRMPA"}},{"type":"Feature","geometry":{"type":"Polygon","coordinates":[[[142.7792,-10.8121],[142.79,-10.8294],[142.79,-10.85],[142.76,-10.85],[142.72,-10.83],[142.71,-10.81],[142.7392,-10.7906],[142.7543,-10.7944],[142.7792,-10.8121]],[[142.7749,-10.8198],[142.7752,-10.8189],[142.7746,-10.8186],[142.7749,-10.8198]]]},"properties":{"id":"gbrmpa-zone-727","type":"Habitat Protection Zone","zone":"Dark Blue Zone","color":"#3f6fb0","name":"HP-10-5019","permit":"Harrington Reef (10-335) and Wyborn Reef (10-336)","source":"GBRMPA"}},{"type":"Feature","geometry":{"type":"Polygon","coordinates":[[[142.933,-10.8115],[142.9258,-10.8098],[142.9242,-10.8065],[142.9252,-10.8036],[142.931,-10.8052],[142.9333,-10.808],[142.933,-10.8115]]]},"properties":{"id":"gbrmpa-zone-724","type":"Habitat Protection Zone","zone":"Dark Blue Zone","color":"#3f6fb0","name":"HP-10-5022","permit":"Unnamed reef 10-337","source":"GBRMPA"}},{"type":"Feature","geometry":{"type":"Polygon","coordinates":[[[143.81,-10.88],[143.78,-10.88],[143.78,-10.85],[143.81,-10.85],[143.81,-10.88]]]},"properties":{"id":"gbrmpa-zone-718","type":"Habitat Protection Zone","zone":"Dark Blue Zone","color":"#3f6fb0","name":"HP-10-5027","permit":"Unnamed reef 10-410","source":"GBRMPA"}},{"type":"Feature","geometry":{"type":"Polygon","coordinates":[[[143.8467,-10.84],[143.8066,-10.84],[143.8066,-10.8067],[143.8467,-10.8067],[143.8467,-10.84]]]},"properties":{"id":"gbrmpa-zone-723","type":"Habitat Protection Zone","zone":"Dark Blue Zone","color":"#3f6fb0","name":"HP-10-5023","permit":"Unnamed reef 10-404","source":"GBRMPA"}},{"type":"Feature","geometry":{"type":"Polygon","coordinates":[[[142.9752,-10.7909],[142.9944,-10.7998],[142.9945,-10.8061],[142.9907,-10.8077],[142.9853,-10.8071],[142.9786,-10.8036],[142.9709,-10.7948],[142.9706,-10.7919],[142.9752,-10.7909]],[[142.973,-10.7949],[142.9739,-10.794],[142.9728,-10.7921],[142.9716,-10.7936],[142.973,-10.7949]]]},"properties":{"id":"gbrmpa-zone-726","type":"Habitat Protection Zone","zone":"Dark Blue Zone","color":"#3f6fb0","name":"HP-10-5020","permit":"Womer Reef (10-338)","source":"GBRMPA"}},{"type":"Feature","geometry":{"type":"Polygon","coordinates":[[[143.3053,-10.8433],[143.2957,-10.8433],[143.2913,-10.837],[143.2945,-10.8345],[143.2986,-10.8345],[143.3023,-10.8362],[143.3053,-10.8433]]]},"properties":{"id":"gbrmpa-zone-720","type":"Habitat Protection Zone","zone":"Dark Blue Zone","color":"#3f6fb0","name":"HP-10-5025","permit":"Unnamed reef 10-360","source":"GBRMPA"}},{"type":"Feature","geometry":{"type":"Polygon","coordinates":[[[143.504,-10.8217],[143.4874,-10.8217],[143.43,-10.805],[143.43,-10.7918],[143.4603,-10.7918],[143.504,-10.8],[143.504,-10.8217]]]},"properties":{"id":"gbrmpa-zone-725","type":"Habitat Protection Zone","zone":"Dark Blue Zone","color":"#3f6fb0","name":"HP-10-5021","permit":"Unnamed reef 10-411","source":"GBRMPA"}},{"type":"Feature","geometry":{"type":"Polygon","coordinates":[[[143.28,-11.12],[143.28,-11.14],[143.25,-11.14],[143.25,-11.12],[143.28,-11.12]],[[143.2561,-11.1294],[143.2569,-11.1282],[143.2552,-11.1269],[143.2561,-11.1294]]]},"properties":{"id":"gbrmpa-zone-611","type":"Habitat Protection Zone","zone":"Dark Blue Zone","color":"#3f6fb0","name":"HP-11-5040","permit":"Monsoon Reef (11-029)","source":"GBRMPA"}},{"type":"Feature","geometry":{"type":"Polygon","coordinates":[[[143.2487,-10.8595],[143.2328,-10.8595],[143.2289,-10.853],[143.2289,-10.846],[143.2396,-10.846],[143.2487,-10.8531],[143.2487,-10.8595]]]},"properties":{"id":"gbrmpa-zone-719","type":"Habitat Protection Zone","zone":"Dark Blue Zone","color":"#3f6fb0","name":"HP-10-5026","permit":"Unnamed reef 10-362","source":"GBRMPA"}},{"type":"Feature","geometry":{"type":"Polygon","coordinates":[[[143.3651,-10.8417],[143.3651,-10.8217],[143.7017,-10.8217],[143.7017,-10.9282],[143.3651,-10.9282],[143.3651,-10.8417]]]},"properties":{"id":"gbrmpa-zone-722","type":"Marine National Park Zone","zone":"Green Zone","color":"#2fae5a","name":"MNP-10-1002","permit":"Torres Strait influenced reefs (mid-shelf)","source":"GBRMPA"}},{"type":"Feature","geometry":{"type":"Polygon","coordinates":[[[143.024,-11.16],[143.052,-11.184],[143.052,-11.2],[143.032,-11.2],[143.004,-11.176],[143.004,-11.16],[143.024,-11.16]],[[143.0112,-11.1683],[143.0142,-11.1699],[143.0152,-11.1732],[143.0188,-11.1738],[143.0198,-11.1726],[143.0196,-11.17],[143.0164,-11.1676],[143.0128,-11.1662],[143.0112,-11.1683]],[[143.04,-11.1971],[143.0417,-11.1964],[143.0386,-11.1944],[143.04,-11.1971]]]},"properties":{"id":"gbrmpa-zone-610","type":"Preservation Zone","zone":"Pink Zone","color":"#e58fb0","name":"P-11-2","permit":"Milman-Aplin Reef (11-035)","source":"GBRMPA"}},{"type":"Feature","geometry":{"type":"Polygon","coordinates":[[[143.2667,-11.0333],[143.2299,-11.0333],[143.2216,-11.016],[143.2216,-11.0095],[143.2323,-11.0095],[143.2667,-11.0267],[143.2667,-11.0333]]]},"properties":{"id":"gbrmpa-zone-615","type":"Habitat Protection Zone","zone":"Dark Blue Zone","color":"#3f6fb0","name":"HP-11-5037","permit":"McSweeney Reef (11-016)","source":"GBRMPA"}},{"type":"Feature","geometry":{"type":"Polygon","coordinates":[[[143.3414,-10.7666],[143.3206,-10.7666],[143.3081,-10.7583],[143.3081,-10.7458],[143.3164,-10.7458],[143.3414,-10.7583],[143.3414,-10.7666]]]},"properties":{"id":"gbrmpa-zone-644","type":"Habitat Protection Zone","zone":"Dark Blue Zone","color":"#3f6fb0","name":"HP-10-5014","permit":"Unnamed reef 10-355","source":"GBRMPA"}},{"type":"Feature","geometry":{"type":"Polygon","coordinates":[[[143.0494,-11.0734],[143.1634,-11.1577],[143.1634,-11.2041],[143.0618,-11.2739],[142.9608,-11.2738],[142.9607,-11.0734],[143.0494,-11.0734]],[[143.052,-11.184],[143.024,-11.16],[143.004,-11.16],[143.004,-11.176],[143.032,-11.2],[143.052,-11.2],[143.052,-11.184]],[[143.0753,-11.16],[143.0762,-11.162],[143.078,-11.1604],[143.0763,-11.1571],[143.0753,-11.16]],[[142.9928,-11.2355],[142.9903,-11.2375],[142.9932,-11.2391],[142.9928,-11.2355]],[[143.0187,-11.1106],[143.0229,-11.1093],[143.0186,-11.1088],[143.0187,-11.1106]],[[143.1013,-11.1654],[143.1037,-11.1642],[143.1012,-11.1633],[143.1013,-11.1654]]]},"properties":{"id":"gbrmpa-zone-612","type":"Marine National Park Zone","zone":"Green Zone","color":"#2fae5a","name":"MNP-11-1003","permit":"Douglas Islet Reef (11-038), Sinclair Reef (11-026) and Unnamed (11-034) complex","source":"GBRMPA"}},{"type":"Feature","geometry":{"type":"Polygon","coordinates":[[[143.3998,-10.7875],[143.3998,-10.7625],[143.4248,-10.7625],[143.4248,-10.7875],[143.3998,-10.7875]]]},"properties":{"id":"gbrmpa-zone-641","type":"Habitat Protection Zone","zone":"Dark Blue Zone","color":"#3f6fb0","name":"HP-10-5017","permit":"Unnamed reef 10-356","source":"GBRMPA"}},{"type":"Feature","geometry":{"type":"Polygon","coordinates":[[[143.11,-10.79],[143.09,-10.79],[143.07,-10.77],[143.07,-10.76],[143.09,-10.76],[143.11,-10.78],[143.11,-10.79]]]},"properties":{"id":"gbrmpa-zone-643","type":"Habitat Protection Zone","zone":"Dark Blue Zone","color":"#3f6fb0","name":"HP-10-5015","permit":"Unnamed reef 10-299","source":"GBRMPA"}},{"type":"Feature","geometry":{"type":"Polygon","coordinates":[[[143.81,-10.73],[143.79,-10.73],[143.76,-10.7],[143.76,-10.6872],[143.8024,-10.6871],[143.81,-10.71],[143.81,-10.73]]]},"properties":{"id":"gbrmpa-zone-729","type":"Habitat Protection Zone","zone":"Dark Blue Zone","color":"#3f6fb0","name":"HP-10-5002","permit":"Unnamed reef 10-382","source":"GBRMPA"}},{"type":"Feature","geometry":{"type":"Polygon","coordinates":[[[143.64,-10.82],[143.54,-10.74],[143.54,-10.72],[143.58,-10.7],[143.66,-10.7],[143.66,-10.8],[143.64,-10.82]]]},"properties":{"id":"gbrmpa-zone-649","type":"Habitat Protection Zone","zone":"Dark Blue Zone","color":"#3f6fb0","name":"HP-10-5009","permit":"Unnamed reef 10-392","source":"GBRMPA"}},{"type":"Feature","geometry":{"type":"Polygon","coordinates":[[[143.354,-10.75],[143.3414,-10.75],[143.3123,-10.7375],[143.3123,-10.7208],[143.354,-10.7208],[143.354,-10.75]]]},"properties":{"id":"gbrmpa-zone-646","type":"Habitat Protection Zone","zone":"Dark Blue Zone","color":"#3f6fb0","name":"HP-10-5012","permit":"Unnamed reef 10-352","source":"GBRMPA"}},{"type":"Feature","geometry":{"type":"Polygon","coordinates":[[[143.2022,-11.9411],[143.2192,-11.9488],[143.218,-11.9584],[143.215,-11.9588],[143.2124,-11.9534],[143.2082,-11.9633],[143.2052,-11.9628],[143.1963,-11.9655],[143.1974,-11.9665],[143.1808,-11.9703],[143.177,-11.9736],[143.1694,-11.9732],[143.1638,-11.9644],[143.1618,-11.954],[143.1593,-11.9505],[143.1556,-11.9501],[143.1524,-11.9457],[143.1509,-11.9471],[143.1478,-11.9373],[143.1475,-11.9195],[143.1444,-11.9167],[143.1495,-11.9167],[143.2022,-11.9411]],[[143.1759,-11.9721],[143.1753,-11.9717],[143.1754,-11.9729],[143.1759,-11.9721]]]},"properties":{"id":"gbrmpa-zone-520","type":"Conservation Park Zone","zone":"Yellow Zone","color":"#e8c23f","name":"CP-11-4002","permit":"Margaret Bay","source":"GBRMPA"}},{"type":"Feature","geometry":{"type":"Polygon","coordinates":[[[143.4871,-11.0348],[143.4637,-11.0347],[143.4637,-11.0214],[143.477,-11.0214],[143.4871,-11.0326],[143.4871,-11.0348]]]},"properties":{"id":"gbrmpa-zone-614","type":"Habitat Protection Zone","zone":"Dark Blue Zone","color":"#3f6fb0","name":"HP-11-5038","permit":"Unnamed reef 11-019","source":"GBRMPA"}},{"type":"Feature","geometry":{"type":"Polygon","coordinates":[[[143.09,-10.7448],[143.0987,-10.7491],[143.1019,-10.7522],[143.1027,-10.7569],[143.0957,-10.7569],[143.0838,-10.75],[143.0827,-10.7458],[143.09,-10.7448]],[[143.0857,-10.7473],[143.0866,-10.746],[143.0859,-10.7454],[143.0857,-10.7473]]]},"properties":{"id":"gbrmpa-zone-645","type":"Habitat Protection Zone","zone":"Dark Blue Zone","color":"#3f6fb0","name":"HP-10-5013","permit":"Unnamed reef 10-353","source":"GBRMPA"}},{"type":"Feature","geometry":{"type":"Polygon","coordinates":[[[143.514,-10.778],[143.496,-10.778],[143.496,-10.762],[143.514,-10.762],[143.514,-10.778]]]},"properties":{"id":"gbrmpa-zone-642","type":"Habitat Protection Zone","zone":"Dark Blue Zone","color":"#3f6fb0","name":"HP-10-5016","permit":"Unnamed reef 10-394","source":"GBRMPA"}},{"type":"Feature","geometry":{"type":"Polygon","coordinates":[[[142.6876,-10.7052],[142.6964,-10.7158],[142.6964,-10.7263],[142.6914,-10.7263],[142.6761,-10.7136],[142.6761,-10.7095],[142.682,-10.7052],[142.6876,-10.7052]],[[142.6811,-10.7111],[142.6827,-10.7104],[142.6817,-10.7098],[142.6811,-10.7111]]]},"properties":{"id":"gbrmpa-zone-648","type":"Habitat Protection Zone","zone":"Dark Blue Zone","color":"#3f6fb0","name":"HP-10-5010","permit":"Middle Brother Reef (10-323)","source":"GBRMPA"}},{"type":"Feature","geometry":{"type":"Polygon","coordinates":[[[142.5416,-10.6876],[142.57,-10.71],[142.59,-10.71],[142.59,-10.7],[142.6,-10.7],[142.61,-10.71],[142.6269,-10.71],[142.6385,-10.723],[142.63,-10.74],[142.63,-10.76],[142.77,-10.99],[142.8805,-11.25],[142.8805,-11.2985],[142.8213,-11.2985],[142.8193,-11.2919],[142.8153,-11.2915],[142.8106,-11.2947],[142.7999,-11.29],[142.7958,-11.2808],[142.7933,-11.2797],[142.7917,-11.2766],[142.7942,-11.27],[142.793,-11.2518],[142.7905,-11.247],[142.7877,-11.2468],[142.789,-11.2423],[142.7873,-11.2406],[142.7869,-11.229],[142.7852,-11.224],[142.7826,-11.2234],[142.7875,-11.2169],[142.7896,-11.2051],[142.7942,-11.1945],[142.7989,-11.1564],[142.7979,-11.1533],[142.7947,-11.1508],[142.7951,-11.1456],[142.7917,-11.1437],[142.7921,-11.1321],[142.7906,-11.132],[142.7901,-11.1286],[142.7881,-11.1292],[142.787,-11.1268],[142.7895,-11.1142],[142.7881,-11.1076],[142.7898,-11.104],[142.7864,-11.0909],[142.7881,-11.0821],[142.7851,-11.0781],[142.7857,-11.0749],[142.7824,-11.073],[142.7824,-11.0705],[142.78,-11.07],[142.7792,-11.063],[142.7762,-11.0662],[142.7739,-11.0659],[142.7674,-11.0594],[142.7649,-11.0559],[142.7683,-11.0536],[142.767,-11.0479],[142.7658,-11.0464],[142.7631,-11.0466],[142.7612,-11.0435],[142.7591,-11.0452],[142.7565,-11.0433],[142.7547,-11.034],[142.7487,-11.027],[142.7508,-11.0188],[142.7497,-11.0158],[142.7521,-11.0098],[142.7515,-11.0069],[142.7493,-11.0067],[142.7461,-11.0031],[142.747,-10.9936],[142.7439,-10.9925],[142.7416,-10.9891],[142.7378,-10.989],[142.7346,-10.9847],[142.7308,-10.9843],[142.7275,-10.9734],[142.7249,-10.9717],[142.7224,-10.9723],[142.7193,-10.9684],[142.7188,-10.962],[142.7064,-10.9573],[142.7059,-10.9545],[142.7074,-10.9536],[142.7023,-10.9468],[142.7024,-10.9413],[142.7042,-10.9375],[142.7033,-10.9343],[142.6973,-10.9269],[142.6952,-10.9262],[142.6938,-10.9224],[142.691,-10.9203],[142.6897,-10.9226],[142.6877,-10.9222],[142.6795,-10.9139],[142.6774,-10.9158],[142.6743,-10.9157],[142.6701,-10.9127],[142.6661,-10.9147],[142.6615,-10.9148],[142.6571,-10.9126],[142.6387,-10.9158],[142.6169,-10.9118],[142.6199,-10.909],[142.6198,-10.9048],[142.6188,-10.8967],[142.6153,-10.889],[142.609,-10.8826],[142.6067,-10.8827],[142.604,-10.8775],[142.5907,-10.8681],[142.5497,-10.8331],[142.5558,-10.8223],[142.5595,-10.8223],[142.5591,-10.8169],[142.5614,-10.8148],[142.5647,-10.8012],[142.568,-10.7959],[142.5731,-10.7935],[142.5802,-10.7962],[142.5804,-10.7895],[142.5833,-10.7844],[142.5857,-10.785],[142.5896,-10.7824],[142.5896,-10.7801],[142.5868,-10.7783],[142.5914,-10.7725],[142.5911,-10.7708],[142.5984,-10.768],[142.6012,-10.7651],[142.5979,-10.7626],[142.5987,-10.7587],[142.6012,-10.7571],[142.6004,-10.7558],[142.6027,-10.7549],[142.6033,-10.7525],[142.607,-10.7526],[142.6107,-10.7499],[142.6061,-10.7465],[142.6033,-10.7463],[142.6007,-10.7432],[142.5946,-10.7425],[142.5924,-10.7341],[142.5845,-10.7344],[142.5833,-10.7254],[142.5811,-10.726],[142.5752,-10.7337],[142.5745,-10.7318],[142.5711,-10.731],[142.5716,-10.7249],[142.5682,-10.7221],[142.5628,-10.7278],[142.5591,-10.7278],[142.5567,-10.7241],[142.5575,-10.7217],[142.5538,-10.7182],[142.5517,-10.7123],[142.5537,-10.7084],[142.5496,-10.7134],[142.5425,-10.71],[142.5382,-10.7013],[142.5386,-10.6985],[142.5419,-10.6967],[142.5408,-10.6953],[142.5393,-10.6962],[142.5315,-10.6876],[142.5416,-10.6876]],[[142.5943,-10.7131],[142.5872,-10.7141],[142.5856,-10.7161],[142.5944,-10.7295],[142.5984,-10.7304],[142.601,-10.7332],[142.6004,-10.7368],[142.6065,-10.7369],[142.6073,-10.7415],[142.6121,-10.7412],[142.6127,-10.7453],[142.6164,-10.7453],[142.6189,-10.7482],[142.6217,-10.7485],[142.624,-10.7466],[142.6239,-10.7435],[142.6174,-10.7396],[142.6172,-10.7356],[142.6214,-10.7318],[142.6183,-10.7322],[142.6162,-10.7304],[142.6173,-10.7222],[142.6146,-10.7217],[142.6132,-10.7268],[142.6081,-10.7265],[142.6029,-10.7234],[142.5978,-10.714],[142.5943,-10.7131]],[[142.6272,-10.7198],[142.6226,-10.7183],[142.6242,-10.7243],[142.6266,-10.724],[142.6272,-10.7198]],[[142.5555,-10.708],[142.5546,-10.7088],[142.5559,-10.7101],[142.5612,-10.7107],[142.5555,-10.708]],[[142.5974,-10.7106],[142.5991,-10.7093],[142.5975,-10.7068],[142.5974,-10.7106]],[[142.8733,-11.2467],[142.873,-11.248],[142.8758,-11.2507],[142.8733,-11.2467]],[[142.6374,-10.914],[142.6411,-10.9124],[142.6382,-10.9125],[142.6374,-10.914]],[[142.7583,-10.9993],[142.7599,-10.9993],[142.7599,-10.9968],[142.7583,-10.9993]],[[142.6959,-10.8877],[142.6949,-10.8881],[142.6952,-10.8901],[142.6959,-10.8877]],[[142.6299,-10.7181],[142.6294,-10.7192],[142.6314,-10.72],[142.6299,-10.7181]],[[142.5976,-10.7033],[142.5967,-10.7038],[142.5969,-10.7057],[142.5976,-10.7033]],[[142.6929,-10.888],[142.6951,-10.8876],[142.6955,-10.8868],[142.6929,-10.888]],[[142.7547,-11.0249],[142.7555,-11.0254],[142.7563,-11.0251],[142.7547,-11.0249]],[[142.6245,-10.7689],[142.6248,-10.7679],[142.624,-10.7682],[142.6245,-10.7689]],[[142.5603,-10.7185],[142.5594,-10.7185],[142.5598,-10.719],[142.5603,-10.7185]]]},"properties":{"id":"gbrmpa-zone-728","type":"Habitat Protection Zone","zone":"Dark Blue Zone","color":"#3f6fb0","name":"HP-10-5004","permit":"Cape York to Orford Ness coastal area","source":"GBRMPA"}},{"type":"Feature","geometry":{"type":"Polygon","coordinates":[[[143.1123,-11.8833],[143.1206,-11.8916],[143.1206,-11.9],[143.1361,-11.9],[143.1495,-11.9167],[143.1404,-11.9177],[143.1368,-11.9103],[143.1338,-11.9097],[143.1317,-11.9116],[143.1217,-11.9047],[143.1178,-11.9066],[143.1125,-11.9031],[143.1103,-11.9063],[143.1089,-11.9059],[143.1059,-11.9014],[143.1057,-11.8967],[143.0968,-11.892],[143.0973,-11.8833],[143.1123,-11.8833]],[[143.1069,-11.8907],[143.1085,-11.8897],[143.1079,-11.8878],[143.1069,-11.8907]],[[143.1293,-11.9041],[143.1295,-11.9058],[143.1309,-11.9064],[143.1293,-11.9041]]]},"properties":{"id":"gbrmpa-zone-522","type":"Habitat Protection Zone","zone":"Dark Blue Zone","color":"#3f6fb0","name":"HP-11-5047","permit":"Round Point coastal area","source":"GBRMPA"}},{"type":"Feature","geometry":{"type":"Polygon","coordinates":[[[143.21,-10.74],[143.16,-10.74],[143.17,-10.72],[143.21,-10.72],[143.22,-10.73],[143.21,-10.74]]]},"properties":{"id":"gbrmpa-zone-647","type":"Habitat Protection Zone","zone":"Dark Blue Zone","color":"#3f6fb0","name":"HP-10-5011","permit":"Unnamed reef 10-351","source":"GBRMPA"}},{"type":"Feature","geometry":{"type":"Polygon","coordinates":[[[143.1066,-11.0948],[143.0858,-11.0947],[143.0638,-11.063],[143.0637,-11.0564],[143.0681,-11.0493],[143.1082,-11.0494],[143.1142,-11.0591],[143.1142,-11.0745],[143.1066,-11.0948]]]},"properties":{"id":"gbrmpa-zone-613","type":"Habitat Protection Zone","zone":"Dark Blue Zone","color":"#3f6fb0","name":"HP-11-5039","permit":"Unnamed reef 11-025","source":"GBRMPA"}},{"type":"Feature","geometry":{"type":"Polygon","coordinates":[[[143.218,-11.926],[143.218,-11.9361],[143.2063,-11.9361],[143.2,-11.926],[143.2,-11.916],[143.2091,-11.916],[143.218,-11.926]],[[143.2089,-11.9283],[143.2078,-11.9299],[143.2118,-11.9306],[143.2117,-11.9272],[143.2089,-11.9283]]]},"properties":{"id":"gbrmpa-zone-521","type":"Habitat Protection Zone","zone":"Dark Blue Zone","color":"#3f6fb0","name":"HP-11-5048","permit":"Sunday Island Reef (11-181)","source":"GBRMPA"}},{"type":"Feature","geometry":{"type":"Polygon","coordinates":[[[143.9172,-10.6868],[143.9993,-10.9807],[143.98,-11],[143.98,-11.02],[144,-11.04],[144,-11.23],[143.67,-11.23],[143.67,-11.28],[143.6403,-11.28],[143.6403,-11.2983],[143.2306,-11.2983],[143.2306,-11.28],[143.1888,-11.28],[143.1888,-11.2985],[142.8805,-11.2985],[142.8805,-11.25],[142.77,-10.99],[142.63,-10.76],[142.63,-10.74],[142.6385,-10.723],[142.6269,-10.71],[142.61,-10.71],[142.6,-10.7],[142.59,-10.7],[142.59,-10.71],[142.57,-10.71],[142.5419,-10.6876],[142.6882,-10.6878],[142.73,-10.74],[142.79,-10.74],[142.79,-10.71],[142.7679,-10.6879],[142.7724,-10.6879],[142.7844,-10.6969],[142.7918,-10.6979],[142.8012,-10.6959],[142.8033,-10.6933],[142.8038,-10.6879],[143.4206,-10.6878],[143.4206,-10.7083],[143.4456,-10.7083],[143.4456,-10.6877],[143.456,-10.6877],[143.456,-10.704],[143.476,-10.704],[143.476,-10.6877],[143.4956,-10.6877],[143.4956,-10.7083],[143.5248,-10.7083],[143.5456,-10.7],[143.5456,-10.6876],[143.76,-10.6872],[143.76,-10.7],[143.79,-10.73],[143.81,-10.73],[143.81,-10.71],[143.8024,-10.6871],[143.9172,-10.6868]],[[143.7017,-10.9282],[143.7017,-10.8217],[143.504,-10.8217],[143.504,-10.8],[143.4603,-10.7918],[143.43,-10.7918],[143.43,-10.805],[143.4874,-10.8217],[143.3651,-10.8217],[143.3651,-10.8338],[143.3594,-10.8338],[143.3215,-10.824],[143.3133,-10.824],[143.3091,-10.8281],[143.3091,-10.8331],[143.3143,-10.8395],[143.3382,-10.8503],[143.3494,-10.8503],[143.3651,-10.8417],[143.3651,-10.9282],[143.7017,-10.9282]],[[143.1634,-11.1577],[143.0494,-11.0734],[142.9607,-11.0734],[142.9608,-11.2738],[143.0618,-11.2739],[143.1634,-11.2041],[143.1634,-11.1577]],[[143.66,-10.8],[143.66,-10.7],[143.58,-10.7],[143.54,-10.72],[143.54,-10.74],[143.64,-10.82],[143.66,-10.8]],[[143.2502,-11.2],[143.3402,-11.25],[143.3902,-11.25],[143.3902,-11.21],[143.3502,-11.21],[143.3002,-11.2],[143.2602,-11.18],[143.2502,-11.2]],[[142.79,-10.85],[142.79,-10.8294],[142.7792,-10.8121],[142.7543,-10.7944],[142.7392,-10.7906],[142.71,-10.81],[142.72,-10.83],[142.76,-10.85],[142.79,-10.85]],[[143.0638,-11.063],[143.0858,-11.0947],[143.1066,-11.0948],[143.1142,-11.0745],[143.1142,-11.0591],[143.1082,-11.0494],[143.0681,-11.0493],[143.0637,-11.0564],[143.0638,-11.063]],[[143.8066,-10.8067],[143.8066,-10.84],[143.8467,-10.84],[143.8467,-10.8067],[143.8066,-10.8067]],[[143.28,-11.23],[143.27,-11.22],[143.25,-11.22],[143.25,-11.23],[143.24,-11.24],[143.24,-11.26],[143.26,-11.26],[143.28,-11.25],[143.28,-11.23]],[[143.34,-10.79],[143.33,-10.8],[143.35,-10.82],[143.36,-10.82],[143.38,-10.81],[143.38,-10.8],[143.36,-10.79],[143.34,-10.79]],[[143.3123,-10.7375],[143.3414,-10.75],[143.354,-10.75],[143.354,-10.7208],[143.3123,-10.7208],[143.3123,-10.7375]],[[143.22,-10.73],[143.21,-10.72],[143.17,-10.72],[143.16,-10.74],[143.21,-10.74],[143.22,-10.73]],[[142.79,-10.92],[142.79,-10.9],[142.77,-10.88],[142.75,-10.88],[142.75,-10.8822],[142.7716,-10.92],[142.79,-10.92]],[[143.78,-10.85],[143.78,-10.88],[143.81,-10.88],[143.81,-10.85],[143.78,-10.85]],[[143.11,-10.79],[143.11,-10.78],[143.09,-10.76],[143.07,-10.76],[143.07,-10.77],[143.09,-10.79],[143.11,-10.79]],[[143.1601,-10.91],[143.1701,-10.92],[143.1901,-10.92],[143.1901,-10.89],[143.1701,-10.89],[143.1601,-10.9],[143.1601,-10.91]],[[143.2216,-11.0095],[143.2216,-11.016],[143.2299,-11.0333],[143.2667,-11.0333],[143.2667,-11.0267],[143.2323,-11.0095],[143.2216,-11.0095]],[[143.1324,-11.2509],[143.1273,-11.2511],[143.1255,-11.2541],[143.1269,-11.2613],[143.1361,-11.2763],[143.1428,-11.2816],[143.1521,-11.2842],[143.1556,-11.2825],[143.1605,-11.2764],[143.1593,-11.2688],[143.1516,-11.2609],[143.1324,-11.2509]],[[143.4248,-10.7875],[143.4248,-10.7625],[143.3998,-10.7625],[143.3998,-10.7875],[143.4248,-10.7875]],[[143.25,-11.12],[143.25,-11.14],[143.28,-11.14],[143.28,-11.12],[143.25,-11.12]],[[143.1877,-11.1914],[143.2016,-11.2027],[143.2146,-11.2027],[143.22,-11.2],[143.22,-11.189],[143.2061,-11.1799],[143.1961,-11.1799],[143.1877,-11.1841],[143.1877,-11.1914]],[[143.3081,-10.7583],[143.3206,-10.7666],[143.3414,-10.7666],[143.3414,-10.7583],[143.3164,-10.7458],[143.3081,-10.7458],[143.3081,-10.7583]],[[143.3127,-10.9073],[143.2954,-10.9072],[143.2954,-10.9178],[143.3157,-10.9231],[143.3306,-10.9231],[143.3306,-10.9142],[143.3217,-10.9073],[143.3127,-10.9073]],[[142.9388,-11.2488],[142.9276,-11.2375],[142.9159,-11.2375],[142.9159,-11.2456],[142.9312,-11.2611],[142.9388,-11.2611],[142.9388,-11.2488]],[[143.496,-10.762],[143.496,-10.778],[143.514,-10.778],[143.514,-10.762],[143.496,-10.762]],[[143.2308,-10.9444],[143.2308,-10.9513],[143.2434,-10.9543],[143.253,-10.9543],[143.253,-10.9417],[143.2343,-10.9391],[143.2308,-10.9444]],[[142.6964,-10.7158],[142.6876,-10.7052],[142.682,-10.7052],[142.6761,-10.7095],[142.6761,-10.7136],[142.6914,-10.7263],[142.6964,-10.7263],[142.6964,-10.7158]],[[143.4637,-11.0214],[143.4637,-11.0347],[143.4871,-11.0348],[143.4871,-11.0326],[143.477,-11.0214],[143.4637,-11.0214]],[[142.9853,-10.8071],[142.9907,-10.8077],[142.9945,-10.8061],[142.9944,-10.7998],[142.9752,-10.7909],[142.9706,-10.7919],[142.9748,-10.8006],[142.9853,-10.8071]],[[143.2487,-10.8531],[143.2396,-10.846],[143.2289,-10.846],[143.2289,-10.853],[143.2328,-10.8595],[143.2487,-10.8595],[143.2487,-10.8531]],[[143.0953,-10.7464],[143.0842,-10.7447],[143.0827,-10.7458],[143.0838,-10.75],[143.0957,-10.7569],[143.1027,-10.7569],[143.1019,-10.7522],[143.0953,-10.7464]],[[143.2024,-10.8927],[143.2024,-10.8958],[143.2043,-10.8958],[143.2043,-10.8993],[143.2082,-10.9037],[143.2167,-10.9036],[143.2167,-10.8969],[143.2095,-10.891],[143.2039,-10.891],[143.2024,-10.8927]],[[143.1252,-10.9908],[143.1302,-10.9916],[143.1343,-10.9876],[143.1334,-10.9857],[143.1259,-10.9823],[143.1154,-10.9823],[143.1153,-10.9837],[143.1252,-10.9908]],[[143.1584,-10.9459],[143.149,-10.9459],[143.149,-10.9479],[143.1525,-10.9523],[143.162,-10.9552],[143.1643,-10.9528],[143.1643,-10.9501],[143.1584,-10.9459]],[[143.2913,-10.838],[143.2957,-10.8433],[143.3053,-10.8433],[143.3023,-10.8362],[143.2986,-10.8345],[143.2945,-10.8345],[143.2913,-10.838]],[[142.9871,-11.0079],[142.992,-11.0114],[142.9977,-11.0114],[142.9976,-11.0049],[142.9952,-11.0018],[142.9871,-11.0018],[142.9871,-11.0079]],[[143.1341,-10.9495],[143.124,-10.9473],[143.1251,-10.9527],[143.1306,-10.9563],[143.136,-10.9563],[143.1341,-10.9495]],[[142.9333,-10.808],[142.931,-10.8052],[142.9252,-10.8036],[142.9242,-10.8065],[142.9276,-10.811],[142.933,-10.8115],[142.9333,-10.808]]]},"properties":{"id":"gbrmpa-zone-730","type":"General Use Zone","zone":"Light Blue Zone","color":"#7fc3dd","name":"GU-10-6001","permit":null,"source":"GBRMPA"}},{"type":"Feature","geometry":{"type":"Polygon","coordinates":[[[142.8038,-10.6879],[142.8033,-10.6933],[142.8012,-10.6959],[142.7918,-10.6979],[142.7811,-10.6955],[142.7724,-10.6879],[142.8038,-10.6879]]]},"properties":{"id":"gbrmpa-zone-650","type":"Habitat Protection Zone","zone":"Dark Blue Zone","color":"#3f6fb0","name":"HP-10-5008","permit":"Meggi-Damun Reef (10-326)","source":"GBRMPA"}}]}