{"type":"FeatureCollection","meta":{"region":"QLD","tile":"t-12e142","built":"2026-08-25","sources":["OpenStreetMap (ODbL)","GBRMPA (CC BY)"]},"features":[{"type":"Feature","geometry":{"type":"Point","coordinates":[142.64169,-10.63774]},"properties":{"id":"osm-node3020491112","name":"Blackwood Bay","kind":"anchorage","source":"OpenStreetMap","sourceRef":"node/3020491112","likelyAnchorage":true,"noAnchoring":false,"noAnchoringName":null,"notes":null,"fetchLandNM":[0.3,0.3,0.3,0.5,0.5,0.5,0.5,0.5,0.5,0.5,0.5,0.5,0.5,0.5,0.5,0.5,0.6,0.7,0.7,0.7,5.7,5.3,6.7,6.5,6.9,12.6,15,15,15,15,15,2.4,0.8,0.6,0.6,0.4],"fetchReefNM":[0.3,0.3,0.3,0.5,0.5,0.5,0.5,0.5,0.5,0.5,0.5,0.5,0.5,0.5,0.5,0.5,0.6,0.7,0.7,0.7,5.7,5.3,6.7,6.5,6.9,12.6,15,15,15,15,15,2.4,0.8,0.6,0.6,0.4]}},{"type":"Feature","geometry":{"type":"Point","coordinates":[143.01585,-11.47711]},"properties":{"id":"gbrmpa-80001","name":"Boydong Cays South-Easterly Wind","kind":"designated_anchorage","source":"GBRMPA","sourceRef":"80001","likelyAnchorage":true,"noAnchoring":false,"noAnchoringName":null,"notes":"  · Management area: Far Northern Management Area · Great Barrier Reef Marine Park Regulations 2019","fetchLandNM":[15,15,6.7,1.9,15,15,15,15,15,15,0.9,15,15,15,0.7,0.5,0.6,15,15,15,15,15,14.3,12.5,11.6,11.3,10.5,11.1,11,10.7,10.3,12.3,15,15,14.9,15],"fetchReefNM":[15,5.6,6.7,1.8,1.7,1.7,1.8,2,6.1,3,0.8,0.8,1.4,0.6,0.5,0.4,0.5,0.6,2.9,2.9,4,8.1,14.3,12.5,11.6,11.3,10.5,11.1,11,10.7,10.3,12.3,15,6,13.9,15]}},{"type":"Feature","geometry":{"type":"Point","coordinates":[142.54153,-10.70445]},"properties":{"id":"osm-node3020491831","name":"Evans Bay","kind":"anchorage","source":"OpenStreetMap","sourceRef":"node/3020491831","likelyAnchorage":true,"noAnchoring":false,"noAnchoringName":null,"notes":null,"fetchLandNM":[0.4,15,15,15,15,7.1,6.6,15,15,3.2,3.1,0.7,0.7,0.7,0.7,0.6,0.5,0.4,0.3,0.3,0.2,0.2,0.2,0.2,0.2,0.2,0.2,0.2,0.2,0.2,0.3,0.3,0.3,0.4,0.5,0.4],"fetchReefNM":[0.4,15,15,15,15,7.1,6.6,15,10.6,3.2,3.1,0.7,0.7,0.7,0.7,0.6,0.5,0.4,0.3,0.3,0.2,0.2,0.2,0.2,0.2,0.2,0.2,0.2,0.2,0.2,0.3,0.3,0.3,0.4,0.5,0.4]}},{"type":"Feature","geometry":{"type":"Point","coordinates":[142.59943,-10.76141]},"properties":{"id":"osm-node3020492168","name":"Freshwater Bay","kind":"anchorage","source":"OpenStreetMap","sourceRef":"node/3020492168","likelyAnchorage":true,"noAnchoring":false,"noAnchoringName":null,"notes":null,"fetchLandNM":[0.2,0.2,0.4,0.6,0.7,1.3,15,15,0.8,15,15,15,15,15,15,11.4,0.2,0.1,0.1,0.1,0.1,0.1,0.1,0.1,0.1,0.1,0.1,0.1,0.1,0.1,0.1,0.1,0.1,0.1,0.1,0.2],"fetchReefNM":[0.2,0.2,0.4,0.6,0.7,1.3,5.7,7.3,0.8,15,15,8.4,15,12.5,15,11.4,0.2,0.1,0.1,0.1,0.1,0.1,0.1,0.1,0.1,0.1,0.1,0.1,0.1,0.1,0.1,0.1,0.1,0.1,0.1,0.2]}},{"type":"Feature","geometry":{"type":"Point","coordinates":[143.20502,-11.99327]},"properties":{"id":"osm-node3020492471","name":"Indian Bay","kind":"anchorage","source":"OpenStreetMap","sourceRef":"node/3020492471","likelyAnchorage":true,"noAnchoring":false,"noAnchoringName":null,"notes":null,"fetchLandNM":[0.9,1,1.1,1.3,1.2,0.9,1.1,1.2,1.3,2.6,15,15,15,15,15,15,15,15,15,15,15,13.2,4.1,2.4,1.7,1.5,1.3,1.2,1.1,1,0.9,0.8,0.8,0.8,0.8,0.8],"fetchReefNM":[0.9,1,1.1,1.3,1.2,0.9,1.1,1.2,1.3,2.6,8.5,5.7,8.3,8.5,9.1,6.1,14.8,15,14.8,15,15,13.2,4.1,2.4,1.7,1.5,1.3,1.2,1.1,1,0.9,0.8,0.8,0.8,0.8,0.8]}},{"type":"Feature","geometry":{"type":"Point","coordinates":[142.54157,-10.85746]},"properties":{"id":"osm-node3020492499","name":"Kennedy Inlet","kind":"anchorage","source":"OpenStreetMap","sourceRef":"node/3020492499","likelyAnchorage":true,"noAnchoring":false,"noAnchoringName":null,"notes":null,"fetchLandNM":[8.9,0.8,0.6,0.6,0.5,0.5,0.5,0.5,0.5,0.5,0.6,0.7,0.8,1.2,4.7,5.3,6.5,15,15,15,15,15,15,15,15,15,12.6,10.4,9.2,9,8.9,9.6,10.4,9.5,9,9.6],"fetchReefNM":[8.9,0.8,0.6,0.6,0.5,0.5,0.5,0.5,0.5,0.5,0.6,0.7,0.8,1.2,4.7,5.3,6.5,15,15,15,15,15,15,15,15,15,12.6,10.4,9.2,9,8.9,9.6,10.4,9.5,9,9.6]}},{"type":"Feature","geometry":{"type":"Point","coordinates":[143.17765,-11.9549]},"properties":{"id":"osm-node3020492979","name":"Margaret Bay","kind":"anchorage","source":"OpenStreetMap","sourceRef":"node/3020492979","likelyAnchorage":true,"noAnchoring":false,"noAnchoringName":null,"notes":null,"fetchLandNM":[15,15,15,15,15,2.3,15,15,15,2,1.9,1.6,1.4,1.2,1.1,1.1,1,1,1.1,1,1.5,1.2,1.1,1,1,1,1,1,1.1,1.7,2.1,2.4,15,15,15,15],"fetchReefNM":[15,15,15,10.2,9.7,2.3,8.5,9.6,12.2,2,1.9,1.6,1.4,1.2,1.1,1.1,1,1,1.1,1,1.5,1.2,1.1,1,1,1,1,1,1.1,1.7,2.1,2.4,15,15,15,15]}},{"type":"Feature","geometry":{"type":"Point","coordinates":[142.62299,-10.81851]},"properties":{"id":"osm-node3020493245","name":"Newcastle Bay","kind":"anchorage","source":"OpenStreetMap","sourceRef":"node/3020493245","likelyAnchorage":true,"noAnchoring":false,"noAnchoringName":null,"notes":null,"fetchLandNM":[4.3,10.1,15,15,15,15,15,15,15,15,15,15,15,15,15,6.6,6.1,5.7,5.9,4,3.7,3.5,4.3,5,4.9,4.9,4.2,3.6,3.5,3.5,2.9,3.1,3.2,3.4,3.9,4.7],"fetchReefNM":[4.3,10.1,15,7.2,8.2,8.3,15,15,7.1,5.5,15,15,9.6,15,15,6.6,6.1,5.7,5.9,4,3.7,3.5,4.3,5,4.9,4.9,4.2,3.6,3.5,3.5,2.9,3.1,3.2,3.4,3.9,4.7]}},{"type":"Feature","geometry":{"type":"Point","coordinates":[142.80926,-11.27521]},"properties":{"id":"osm-node3020493269","name":"Orford Bay","kind":"anchorage","source":"OpenStreetMap","sourceRef":"node/3020493269","likelyAnchorage":true,"noAnchoring":false,"noAnchoringName":null,"notes":null,"fetchLandNM":[15,15,15,15,15,15,15,15,15,15,15,15,15,15,15,1.2,1,1.2,1,1,0.9,0.9,0.9,0.9,0.8,0.8,0.8,0.8,0.8,0.9,1,1.1,1.3,1.6,3.7,4.9],"fetchReefNM":[15,15,15,15,15,15,15,3.6,3.6,15,15,15,15,15,15,1.2,1,1.2,1,1,0.9,0.9,0.9,0.9,0.8,0.8,0.8,0.8,0.8,0.9,1,1.1,1.3,1.6,3.7,4.9]}},{"type":"Feature","geometry":{"type":"Point","coordinates":[142.60452,-10.72234]},"properties":{"id":"osm-node3020493300","name":"Pioneer Bay","kind":"anchorage","source":"OpenStreetMap","sourceRef":"node/3020493300","likelyAnchorage":true,"noAnchoring":false,"noAnchoringName":null,"notes":null,"fetchLandNM":[15,7.4,5.9,4.6,15,15,15,15,1,0.6,0.6,0.6,0.5,0.4,0.3,0.3,0.2,0.2,0.2,0.2,0.1,0.1,0.1,0.1,0.1,0.1,0.1,0.2,0.2,0.3,0.4,0.5,15,0.8,15,15],"fetchReefNM":[15,7.4,5.9,4.6,15,15,15,6,1,0.6,0.6,0.6,0.5,0.4,0.3,0.3,0.2,0.2,0.2,0.2,0.1,0.1,0.1,0.1,0.1,0.1,0.1,0.2,0.2,0.3,0.4,0.5,15,0.8,15,15]}},{"type":"Feature","geometry":{"type":"Point","coordinates":[142.47474,-10.71025]},"properties":{"id":"osm-node3020493575","name":"Punsand Bay","kind":"anchorage","source":"OpenStreetMap","sourceRef":"node/3020493575","likelyAnchorage":true,"noAnchoring":false,"noAnchoringName":null,"notes":null,"fetchLandNM":[15,15,15,15,15,10.5,15,3.6,2.1,2.1,1.5,1,0.8,0.7,0.7,0.6,0.6,0.6,0.6,0.6,0.6,0.7,0.8,1,1.1,1.5,1.8,2,13.1,12.3,10.7,12.8,14,15,15,15],"fetchReefNM":[15,15,15,15,15,10.5,15,3.6,2.1,2.1,1.5,1,0.8,0.7,0.7,0.6,0.6,0.6,0.6,0.6,0.6,0.7,0.8,1,1.1,1.5,1.8,2,13.1,12.3,10.6,7.9,12.2,15,15,15]}},{"type":"Feature","geometry":{"type":"Point","coordinates":[142.97323,-11.83825]},"properties":{"id":"osm-node3020493860","name":"Shelburne Bay","kind":"anchorage","source":"OpenStreetMap","sourceRef":"node/3020493860","likelyAnchorage":true,"noAnchoring":false,"noAnchoringName":null,"notes":null,"fetchLandNM":[15,15,15,15,15,15,8.1,15,15,15,15,15,8,7.4,7.1,6.7,6.3,5.8,5.6,4.7,4.1,4,4.2,4.9,4.7,5.7,6.1,7,7.1,7.5,7.8,8.5,10.3,13.5,15,15],"fetchReefNM":[3.8,4.1,15,15,15,15,7.7,15,15,15,15,15,8,7.4,7.1,6.7,6.3,5.8,5.6,4.7,4.1,4,4.2,4.9,4.7,5.7,6.1,7,7.1,4.2,7.8,2.8,4.8,3.8,4.1,15]}},{"type":"Feature","geometry":{"type":"Point","coordinates":[142.39746,-10.75311]},"properties":{"id":"osm-node3020493875","name":"Simpson Bay","kind":"anchorage","source":"OpenStreetMap","sourceRef":"node/3020493875","likelyAnchorage":true,"noAnchoring":false,"noAnchoringName":null,"notes":null,"fetchLandNM":[0.9,1.4,15,1.7,11,1.6,2,1.7,1.4,1.2,1.1,1.1,1.1,1.2,1.3,1.7,2.2,2.6,3.1,4.9,5.7,10.2,1,15,15,1.3,1.2,12.5,9.4,0.7,0.7,0.7,0.7,0.7,0.7,0.8],"fetchReefNM":[0.9,1.4,15,1.7,11,1.6,2,1.7,1.4,1.2,1.1,1.1,1.1,1.2,1.3,1.7,2.2,2.6,3.1,4.9,5.7,10.2,1,15,15,1.3,1.2,12.5,9.4,0.7,0.7,0.7,0.7,0.7,0.7,0.8]}},{"type":"Feature","geometry":{"type":"Point","coordinates":[142.61862,-10.7375]},"properties":{"id":"osm-node3020494217","name":"Vicary Bay","kind":"anchorage","source":"OpenStreetMap","sourceRef":"node/3020494217","likelyAnchorage":true,"noAnchoring":false,"noAnchoringName":null,"notes":null,"fetchLandNM":[0.2,0.2,0.3,0.5,15,15,15,15,15,15,15,15,15,15,15,0.4,0.3,0.3,0.2,0.2,0.2,0.2,0.2,0.1,0.1,0.1,0.1,0.1,0.1,0.1,0.1,0.1,0.2,0.2,0.2,0.2],"fetchReefNM":[0.2,0.2,0.3,0.5,15,15,5.5,4,5.9,15,15,15,8.8,7.5,15,0.4,0.3,0.3,0.2,0.2,0.2,0.2,0.2,0.1,0.1,0.1,0.1,0.1,0.1,0.1,0.1,0.1,0.2,0.2,0.2,0.2]}}]}