{"type":"FeatureCollection","meta":{"region":"QLD","tile":"t-12e154","built":"2026-08-25","sources":["OpenStreetMap (ODbL)","GBRMPA (CC BY)"]},"features":[{"type":"Feature","geometry":{"type":"Point","coordinates":[154.30263,-11.42947]},"properties":{"id":"osm-node13920379147","name":"Bele Lagoon","kind":"anchorage","source":"OpenStreetMap","sourceRef":"node/13920379147","likelyAnchorage":true,"noAnchoring":false,"noAnchoringName":null,"notes":null,"fetchLandNM":[15,15,15,15,15,15,15,15,15,15,15,15,15,15,15,15,15,15,15,15,15,15,15,15,15,15,15,15,9.1,2.8,2.6,2.4,2.2,2.4,3.1,15],"fetchReefNM":[1.1,1.1,1.2,1.4,1.7,1.9,1.9,1.7,1.7,1.9,2.2,2.7,3.4,3.1,2.8,2.6,2.4,2.3,2.2,2,1.9,1.9,1.9,2,2,2,2.4,2.6,2.7,2.8,2.6,2.4,2.2,2.1,2.1,1.5]}},{"type":"Feature","geometry":{"type":"Point","coordinates":[154.03865,-11.35557]},"properties":{"id":"osm-node13920340670","name":"Dixon Bay","kind":"anchorage","source":"OpenStreetMap","sourceRef":"node/13920340670","likelyAnchorage":true,"noAnchoring":false,"noAnchoringName":null,"notes":null,"fetchLandNM":[15,15,3.3,3.1,2.4,2.6,3,3.9,0.4,0.4,0.5,0.5,0.6,0.6,0.6,0.6,0.6,0.5,0.5,0.4,0.4,0.4,0.4,0.4,0.4,0.4,0.6,0.8,0.9,1.1,1.5,15,15,15,3.1,3.1],"fetchReefNM":[4.4,4.2,3.3,3.1,2.4,2.6,3,3.9,0.4,0.4,0.5,0.5,0.6,0.6,0.6,0.6,0.6,0.5,0.5,0.4,0.4,0.4,0.4,0.4,0.4,0.4,0.6,0.8,0.9,1.1,1.5,6.3,5.9,3.5,3,3.1]}},{"type":"Feature","geometry":{"type":"Point","coordinates":[154.12492,-11.29975]},"properties":{"id":"osm-node13920509381","name":"Dua Bay","kind":"anchorage","source":"OpenStreetMap","sourceRef":"node/13920509381","likelyAnchorage":true,"noAnchoring":false,"noAnchoringName":null,"notes":null,"fetchLandNM":[15,15,15,15,15,15,15,15,0.3,0.3,0.2,0.2,0.2,0.2,0.2,0.3,0.3,0.3,0.3,0.4,0.3,0.3,0.2,0.2,0.3,0.3,0.2,0.2,0.2,0.3,0.3,0.3,15,15,15,15],"fetchReefNM":[0.8,0.9,0.9,0.9,1,1.4,1.5,3.9,0.3,0.3,0.2,0.2,0.2,0.2,0.2,0.3,0.3,0.3,0.3,0.4,0.3,0.3,0.2,0.2,0.3,0.3,0.2,0.2,0.2,0.3,0.3,0.3,0.9,0.9,0.9,0.9]}},{"type":"Feature","geometry":{"type":"Point","coordinates":[154.08907,-11.30013]},"properties":{"id":"osm-node13920509370","name":"Gagwele Bay","kind":"anchorage","source":"OpenStreetMap","sourceRef":"node/13920509370","likelyAnchorage":true,"noAnchoring":false,"noAnchoringName":null,"notes":null,"fetchLandNM":[15,15,15,15,15,15,15,15,0.5,0.5,0.5,0.5,0.5,0.4,0.3,0.3,0.3,0.3,0.3,0.4,0.4,0.4,0.4,0.4,0.5,0.4,0.4,0.5,0.5,15,15,15,15,15,15,15],"fetchReefNM":[0.8,0.9,0.8,0.9,1,1.1,1.7,2.6,0.5,0.5,0.5,0.5,0.5,0.4,0.3,0.3,0.3,0.3,0.3,0.4,0.4,0.4,0.4,0.4,0.5,0.4,0.4,0.5,0.5,2.4,1.9,1,0.9,0.9,0.9,0.8]}},{"type":"Feature","geometry":{"type":"Point","coordinates":[154.11637,-11.40097]},"properties":{"id":"osm-node13920379019","name":"Govia Bay","kind":"anchorage","source":"OpenStreetMap","sourceRef":"node/13920379019","likelyAnchorage":true,"noAnchoring":false,"noAnchoringName":null,"notes":null,"fetchLandNM":[0.6,0.5,0.4,0.4,0.4,0.4,0.4,0.4,0.4,0.4,0.4,0.4,0.6,0.9,15,15,15,15,15,15,0.4,0.3,0.3,0.3,0.3,0.3,0.3,0.4,0.4,0.5,0.6,0.7,0.7,0.8,0.9,0.8],"fetchReefNM":[0,0,0,0,0,0,0,0.1,0.2,0.3,0.4,0.4,0.5,0.1,0.1,0.1,0.1,0.1,0.1,0.1,0.1,0.1,0.1,0.1,0.1,0.1,0.2,0.3,0.3,0.1,0.1,0,0,0,0,0]}},{"type":"Feature","geometry":{"type":"Point","coordinates":[154.09891,-11.3446]},"properties":{"id":"osm-node13920509361","name":"Ionga Bay","kind":"anchorage","source":"OpenStreetMap","sourceRef":"node/13920509361","likelyAnchorage":true,"noAnchoring":false,"noAnchoringName":null,"notes":null,"fetchLandNM":[0.8,0.7,0.5,0.5,0.6,0.7,0.7,0.7,0.8,1,1.4,1.1,0.9,0.8,0.7,0.6,0.6,0.6,0.6,0.7,0.9,0.9,0.9,0.9,1,1.9,3,4.8,15,15,2.3,1.4,0.8,0.7,0.7,0.7],"fetchReefNM":[0.8,0.7,0.5,0.5,0.6,0.7,0.7,0.7,0.8,1,1.4,1.1,0.9,0.8,0.7,0.6,0.6,0.6,0.6,0.7,0.9,0.9,0.9,0.9,1,1.9,3,4.8,15,8.8,2.3,1.4,0.8,0.7,0.7,0.7]}},{"type":"Feature","geometry":{"type":"Point","coordinates":[154.07173,-11.31798]},"properties":{"id":"osm-node13920509365","name":"Mbeawe Bay","kind":"anchorage","source":"OpenStreetMap","sourceRef":"node/13920509365","likelyAnchorage":true,"noAnchoring":false,"noAnchoringName":null,"notes":null,"fetchLandNM":[0.3,0.4,0.4,0.4,0.4,0.4,0.4,0.4,0.5,0.7,0.8,0.8,0.6,0.5,0.5,0.4,0.3,0.4,0.4,0.4,0.4,0.4,0.4,0.5,3.6,4.1,15,15,15,2.6,15,0.9,0.5,0.4,0.3,0.3],"fetchReefNM":[0.3,0.4,0.4,0.4,0.4,0.4,0.4,0.4,0.5,0.7,0.8,0.8,0.6,0.5,0.5,0.4,0.3,0.4,0.4,0.4,0.4,0.4,0.4,0.5,3.6,3.8,7.4,15,7.5,2.4,4.1,0.9,0.5,0.4,0.3,0.3]}},{"type":"Feature","geometry":{"type":"Point","coordinates":[154.09325,-11.35542]},"properties":{"id":"osm-node13920509360","name":"Muyu Bay","kind":"anchorage","source":"OpenStreetMap","sourceRef":"node/13920509360","likelyAnchorage":true,"noAnchoring":false,"noAnchoringName":null,"notes":null,"fetchLandNM":[1.3,1.4,1.4,1.3,1.3,1.3,1.5,1.6,0.4,0.3,0.2,0.2,0.2,0.2,0.2,0.2,0.2,0.2,0.2,0.2,0.2,0.2,0.2,0.2,0.2,0.2,0.3,0.3,0.4,15,15,4.8,2.2,1.8,1.5,1.3],"fetchReefNM":[1.3,1.4,1.4,1.3,1.3,1.3,1.5,1.6,0.4,0.3,0.2,0.2,0.2,0.2,0.2,0.2,0.2,0.2,0.2,0.2,0.2,0.2,0.2,0.2,0.2,0.2,0.3,0.3,0.4,15,9,4.8,2.2,1.8,1.5,1.3]}},{"type":"Feature","geometry":{"type":"Point","coordinates":[154.15336,-11.39742]},"properties":{"id":"osm-node13920379024","name":"Nyebe Bay","kind":"anchorage","source":"OpenStreetMap","sourceRef":"node/13920379024","likelyAnchorage":true,"noAnchoring":false,"noAnchoringName":null,"notes":null,"fetchLandNM":[0.4,0.3,0.3,0.2,0.2,0.2,0.2,0.2,0.2,0.2,0.2,0.2,15,15,15,15,15,15,15,15,15,0.3,0.2,0.2,0.2,0.3,0.3,0.3,0.3,0.3,0.4,0.4,0.5,0.5,0.5,0.4],"fetchReefNM":[0.2,0.2,0.1,0.1,0.1,0.1,0.1,0.1,0.1,0.1,0.1,0.1,0.1,0.2,0.6,0.6,0.6,0.3,0.2,0.2,0.1,0.1,0.1,0.1,0.1,0.1,0.1,0.1,0.1,0.1,0.1,0,0,0.1,0.2,0.2]}},{"type":"Feature","geometry":{"type":"Point","coordinates":[154.0602,-11.35454]},"properties":{"id":"osm-node13920509358","name":"Pabhgwi Bay","kind":"anchorage","source":"OpenStreetMap","sourceRef":"node/13920509358","likelyAnchorage":true,"noAnchoring":false,"noAnchoringName":null,"notes":null,"fetchLandNM":[2.8,1.8,1.7,1.8,1.9,2.1,2.7,3,3.4,0.4,0.4,0.4,0.4,0.4,0.4,0.4,0.4,0.3,0.3,0.3,0.3,0.3,0.3,0.4,0.4,0.4,0.5,0.6,2.5,15,15,15,3.7,3.5,15,15],"fetchReefNM":[2.8,1.8,1.7,1.8,1.9,2.1,2.7,3,3.4,0.4,0.4,0.4,0.4,0.4,0.4,0.4,0.4,0.3,0.3,0.3,0.3,0.3,0.3,0.4,0.4,0.4,0.5,0.6,2.5,15,7.1,7,3.6,3.5,4.7,4.3]}},{"type":"Feature","geometry":{"type":"Point","coordinates":[154.07644,-11.35597]},"properties":{"id":"osm-node13920509359","name":"Puwa Bay","kind":"anchorage","source":"OpenStreetMap","sourceRef":"node/13920509359","likelyAnchorage":true,"noAnchoring":false,"noAnchoringName":null,"notes":null,"fetchLandNM":[1.6,1.6,1.6,1.5,1.8,2,0.3,0.3,0.3,0.4,0.3,0.4,0.3,0.3,0.3,0.3,0.3,0.3,0.3,0.3,0.4,0.4,0.4,0.4,0.3,0.3,0.4,0.4,3.5,15,15,4.8,4.1,15,1.9,1.7],"fetchReefNM":[1.6,1.6,1.6,1.5,1.8,2,0.3,0.3,0.3,0.4,0.3,0.4,0.3,0.3,0.3,0.3,0.3,0.3,0.3,0.3,0.4,0.4,0.4,0.4,0.3,0.3,0.4,0.4,3.5,15,8.2,4.8,4,5.1,1.9,1.7]}},{"type":"Feature","geometry":{"type":"Point","coordinates":[154.00086,-11.35448]},"properties":{"id":"osm-node13919642379","name":"Tryon Bay","kind":"anchorage","source":"OpenStreetMap","sourceRef":"node/13919642379","likelyAnchorage":true,"noAnchoring":false,"noAnchoringName":null,"notes":null,"fetchLandNM":[15,3.1,0.5,0.5,0.5,0.4,0.5,0.5,0.6,0.6,0.6,0.6,0.6,0.6,0.6,0.5,0.5,0.5,0.5,0.5,0.4,0.4,0.5,0.8,1.1,1.3,15,15,15,15,15,15,15,15,15,15],"fetchReefNM":[0.3,0.3,0.3,0.4,0.4,0.4,0.4,0.4,0.4,0.4,0.4,0.4,0.4,0.4,0.4,0.3,0.3,0.3,0.3,0.3,0.4,0.4,0.4,0.5,1,1.2,4.7,5.9,2.5,14.8,0.7,0.5,0.4,0.3,0.3,0.3]}},{"type":"Feature","geometry":{"type":"Point","coordinates":[154.1857,-11.401]},"properties":{"id":"osm-node13920379049","name":"Wela Bay","kind":"anchorage","source":"OpenStreetMap","sourceRef":"node/13920379049","likelyAnchorage":true,"noAnchoring":false,"noAnchoringName":null,"notes":null,"fetchLandNM":[0.2,0.2,0.2,0.2,0.3,0.8,0.9,0.8,0.9,1,3,15,15,15,15,15,15,15,15,15,15,15,15,15,15,15,0.4,0.3,0.3,0.3,0.3,0.3,0.3,0.3,0.2,0.2],"fetchReefNM":[0.2,0.2,0.2,0.2,0.3,0.8,0.9,0.3,0.3,0.3,0.2,0.3,0.3,0.3,0.4,0.3,0.3,0.3,0.3,0.4,0.5,1.2,1.3,1.5,1.9,1.9,0.4,0.3,0.3,0.3,0.3,0.3,0.3,0.3,0.2,0.2]}},{"type":"Feature","geometry":{"type":"Point","coordinates":[154.13903,-11.30911]},"properties":{"id":"osm-node13920509382","name":"Wulanga Bay","kind":"anchorage","source":"OpenStreetMap","sourceRef":"node/13920509382","likelyAnchorage":true,"noAnchoring":false,"noAnchoringName":null,"notes":null,"fetchLandNM":[0.3,15,15,15,0.4,0.3,0.2,0.3,0.3,0.3,0.3,0.3,0.3,0.4,0.4,0.4,0.4,0.5,0.4,0.5,0.5,0.6,0.2,0.2,0.2,0.2,0.3,0.5,0.5,0.4,0.4,0.3,0.3,0.3,0.3,0.3],"fetchReefNM":[0.3,1.4,1.3,1.9,0.4,0.3,0.2,0.3,0.3,0.3,0.3,0.3,0.3,0.4,0.4,0.4,0.4,0.5,0.4,0.5,0.5,0.6,0.2,0.2,0.2,0.2,0.3,0.5,0.5,0.4,0.4,0.3,0.3,0.3,0.3,0.3]}}]}