{"type":"FeatureCollection","meta":{"region":"QLD","tile":"t-12e150","built":"2026-08-25","sources":["OpenStreetMap (ODbL)","GBRMPA (CC BY)"]},"features":[{"type":"Feature","geometry":{"type":"Point","coordinates":[150.99732,-10.2807]},"properties":{"id":"osm-node13850102130","name":"Auweam Bay","kind":"anchorage","source":"OpenStreetMap","sourceRef":"node/13850102130","likelyAnchorage":true,"noAnchoring":false,"noAnchoringName":null,"notes":null,"fetchLandNM":[10.2,0.3,0.3,0.3,0.3,0.2,0.2,0.2,0.2,0.2,0.2,0.2,0.2,0.3,0.3,0.3,0.3,0.3,0.4,0.4,15,15,3.2,15,15,15,15,3.8,9.3,8.3,15,15,15,15,15,10.6],"fetchReefNM":[10.2,0.3,0.3,0.3,0.3,0.2,0.2,0.2,0.2,0.2,0.2,0.2,0.2,0.3,0.3,0.3,0.3,0.3,0.4,0.4,3.6,4.3,3.1,3,5.4,4.6,2.9,2.1,4.3,4.4,3.5,3.5,1.9,15,15,10.6]}},{"type":"Feature","geometry":{"type":"Point","coordinates":[150.33929,-10.19139]},"properties":{"id":"osm-node13931118627","name":"Avuvura Bay","kind":"anchorage","source":"OpenStreetMap","sourceRef":"node/13931118627","likelyAnchorage":true,"noAnchoring":false,"noAnchoringName":null,"notes":null,"fetchLandNM":[15,15,15,15,15,15,15,15,15,15,6.1,1.8,0.4,0.3,0.2,0.2,0.2,0.2,0.1,0.1,0.1,0.1,0.1,0.1,0.1,0.2,0.2,0.2,0.5,3.3,6.2,15,15,15,15,15],"fetchReefNM":[15,15,15,15,15,15,15,15,15,15,6.1,1.8,0.4,0.3,0.2,0.2,0.2,0.2,0.1,0.1,0.1,0.1,0.1,0.1,0.1,0.2,0.2,0.2,0.5,3.3,6.2,15,15,15,15,15]}},{"type":"Feature","geometry":{"type":"Point","coordinates":[150.51915,-10.22624]},"properties":{"id":"osm-node13924050523","name":"Awaiama Bay","kind":"anchorage","source":"OpenStreetMap","sourceRef":"node/13924050523","likelyAnchorage":true,"noAnchoring":false,"noAnchoringName":null,"notes":null,"fetchLandNM":[15,15,15,15,15,1,0.5,0.4,0.4,0.5,0.4,0.4,0.4,0.4,0.3,0.3,0.3,0.3,0.3,0.3,0.3,0.3,0.3,0.3,0.4,0.4,0.5,0.7,1.3,3.3,15,15,15,15,15,15],"fetchReefNM":[15,15,15,15,15,1,0.5,0.4,0.4,0.5,0.4,0.4,0.4,0.4,0.3,0.3,0.3,0.3,0.3,0.3,0.3,0.3,0.3,0.3,0.4,0.4,0.5,0.7,1.3,3.3,15,15,15,15,15,15]}},{"type":"Feature","geometry":{"type":"Point","coordinates":[150.42851,-10.20402]},"properties":{"id":"osm-node13947007619","name":"Awapa Bay","kind":"anchorage","source":"OpenStreetMap","sourceRef":"node/13947007619","likelyAnchorage":true,"noAnchoring":false,"noAnchoringName":null,"notes":null,"fetchLandNM":[15,15,15,15,15,15,15,15,15,1.2,1,0.8,0.7,0.7,0.6,0.5,0.5,0.5,0.5,0.6,0.6,0.6,0.6,0.6,0.6,1,1.4,2.3,8.3,11.3,15,15,15,15,15,15],"fetchReefNM":[15,15,15,15,15,15,15,15,15,1.2,1,0.8,0.7,0.7,0.6,0.5,0.5,0.5,0.5,0.6,0.6,0.6,0.6,0.6,0.6,1,1.4,2.3,8.3,11.3,15,15,15,15,15,15]}},{"type":"Feature","geometry":{"type":"Point","coordinates":[150.95545,-10.07529]},"properties":{"id":"osm-node13845631740","name":"Awawiwi Bay","kind":"anchorage","source":"OpenStreetMap","sourceRef":"node/13845631740","likelyAnchorage":true,"noAnchoring":false,"noAnchoringName":null,"notes":null,"fetchLandNM":[1.9,0.3,0.3,0.3,0.2,0.2,0.2,0.2,0.2,0.2,0.2,0.2,0.2,0.2,0.2,0.3,0.3,0.6,1.2,15,8.5,10.4,14,15,15,15,15,15,15,15,15,15,15,4.8,4.8,2.3],"fetchReefNM":[1.9,0.3,0.3,0.3,0.2,0.2,0.2,0.2,0.2,0.2,0.2,0.2,0.2,0.2,0.2,0.3,0.3,0.6,1.2,9.9,8.3,10.4,14,15,15,15,15,15,15,15,15,15,15,4.8,4.8,2.3]}},{"type":"Feature","geometry":{"type":"Point","coordinates":[151.03121,-10.59684]},"properties":{"id":"osm-node13852852608","name":"Babana Bay","kind":"anchorage","source":"OpenStreetMap","sourceRef":"node/13852852608","likelyAnchorage":true,"noAnchoring":false,"noAnchoringName":null,"notes":null,"fetchLandNM":[15,15,15,15,15,15,15,15,0.3,0.3,0.3,0.3,0.4,0.4,0.3,0.3,0.4,0.5,0.5,0.5,0.5,0.5,0.4,0.3,0.3,0.3,0.3,0.3,0.3,0.3,0.3,0.3,0.3,0.4,0.6,1],"fetchReefNM":[15,2.9,15,4.1,0.7,0.6,0.6,9.4,0.3,0.3,0.3,0.3,0.4,0.4,0.3,0.3,0.4,0.5,0.5,0.5,0.5,0.5,0.4,0.3,0.3,0.3,0.3,0.3,0.3,0.3,0.3,0.3,0.3,0.4,0.6,1]}},{"type":"Feature","geometry":{"type":"Point","coordinates":[150.81608,-10.54314]},"properties":{"id":"osm-node13871262684","name":"Balaga Bay","kind":"anchorage","source":"OpenStreetMap","sourceRef":"node/13871262684","likelyAnchorage":true,"noAnchoring":false,"noAnchoringName":null,"notes":null,"fetchLandNM":[0.1,0.1,0.1,0.2,15,15,15,15,2.7,2.8,0.6,0.2,0.1,0.1,0.1,0.1,0.1,0.1,0.1,0.1,0.1,0.1,0.2,0.2,0.3,0.2,0.2,0.2,0.1,0.1,0.1,0.1,0.1,0.1,0.1,0.1],"fetchReefNM":[0.1,0.1,0.1,0.2,14.6,15,15,2.2,1.8,1.6,0.6,0.2,0.1,0.1,0.1,0.1,0.1,0.1,0.1,0.1,0.1,0.1,0.2,0.2,0.3,0.2,0.2,0.2,0.1,0.1,0.1,0.1,0.1,0.1,0.1,0.1]}},{"type":"Feature","geometry":{"type":"Point","coordinates":[150.12528,-10.10767]},"properties":{"id":"osm-node13931447563","name":"Bartle Bay","kind":"anchorage","source":"OpenStreetMap","sourceRef":"node/13931447563","likelyAnchorage":true,"noAnchoring":false,"noAnchoringName":null,"notes":null,"fetchLandNM":[15,15,15,15,15,15,15,2.1,1.8,1.3,1.1,1,0.9,0.8,0.8,0.8,0.7,0.7,0.8,0.8,0.8,0.8,0.8,0.8,0.8,0.7,0.7,0.8,1,1.2,1.5,15,15,15,15,15],"fetchReefNM":[15,15,15,15,15,15,15,2.1,1.8,1.3,1.1,1,0.9,0.8,0.8,0.8,0.7,0.7,0.8,0.8,0.8,0.8,0.8,0.8,0.8,0.7,0.7,0.8,1,1.2,1.5,15,15,15,15,15]}},{"type":"Feature","geometry":{"type":"Point","coordinates":[150.18367,-10.65689]},"properties":{"id":"osm-node10290787591","name":"Baxter Harbour","kind":"anchorage","source":"OpenStreetMap","sourceRef":"node/10290787591","likelyAnchorage":true,"noAnchoring":false,"noAnchoringName":null,"notes":null,"fetchLandNM":[0.5,0.5,0.6,0.5,0.6,0.6,0.7,0.7,0.9,0.9,0.9,0.9,0.8,0.5,0.4,0.4,0.4,0.4,0.4,0.4,0.4,0.5,15,15,15,15,3.7,3.1,1.8,0.8,0.6,0.4,0.5,0.5,0.4,0.4],"fetchReefNM":[0.5,0.5,0.6,0.5,0.6,0.6,0.7,0.7,0.9,0.9,0.9,0.9,0.8,0.5,0.4,0.4,0.4,0.4,0.4,0.4,0.4,0.5,15,15,15,15,3.7,3.1,1.8,0.8,0.6,0.4,0.5,0.5,0.4,0.4]}},{"type":"Feature","geometry":{"type":"Point","coordinates":[150.99143,-10.58986]},"properties":{"id":"osm-node13867560588","name":"Belo Belo Bay","kind":"anchorage","source":"OpenStreetMap","sourceRef":"node/13867560588","likelyAnchorage":true,"noAnchoring":false,"noAnchoringName":null,"notes":null,"fetchLandNM":[15,15,15,15,15,15,0.3,0.2,0.1,0.1,0.1,0.1,0.1,0.1,0.1,0.1,0.1,0.1,0.1,0.1,0.1,0.1,0.1,0.1,0.1,0.1,0.1,0.1,0.1,0.1,0.1,15,15,15,15,15],"fetchReefNM":[15,15,15,15,15,3.7,0.3,0.2,0.1,0.1,0.1,0.1,0.1,0.1,0.1,0.1,0.1,0.1,0.1,0.1,0.1,0.1,0.1,0.1,0.1,0.1,0.1,0.1,0.1,0.1,0.1,5.5,4.1,4.4,15,15]}},{"type":"Feature","geometry":{"type":"Point","coordinates":[150.63935,-10.25192]},"properties":{"id":"osm-node13924050468","name":"Bentley Bay","kind":"anchorage","source":"OpenStreetMap","sourceRef":"node/13924050468","likelyAnchorage":true,"noAnchoring":false,"noAnchoringName":null,"notes":null,"fetchLandNM":[15,15,15,15,15,15,15,15,15,9.1,3.4,2.8,2.4,2.2,2.1,2.1,2.1,1.9,1.9,1.9,1.9,2,2.6,2.6,2.4,2.4,2.5,2.6,4.2,2.2,2.1,2,15,15,15,15],"fetchReefNM":[15,15,15,15,15,15,15,15,15,9.1,3.4,2.8,2.4,2.2,2.1,2.1,2.1,1.9,1.9,1.9,1.9,2,2.6,2.6,2.4,2.4,2.5,2.6,4.2,2.2,2.1,2,15,15,15,15]}},{"type":"Feature","geometry":{"type":"Point","coordinates":[151.26949,-10.04118]},"properties":{"id":"osm-node13850011103","name":"Bihawa Bay","kind":"anchorage","source":"OpenStreetMap","sourceRef":"node/13850011103","likelyAnchorage":true,"noAnchoring":false,"noAnchoringName":null,"notes":null,"fetchLandNM":[0.2,0.8,1.1,15,15,15,15,15,15,15,15,15,15,15,15,15,15,15,0.1,0.1,0.1,0.1,0.1,0.1,0.1,0.1,0.1,0.1,0.1,0.1,0.1,0.1,0.1,0.1,0.1,0.1],"fetchReefNM":[0.2,0.8,1.1,15,15,15,15,15,15,15,15,15,15,15,15,15,15,15,0.1,0.1,0.1,0.1,0.1,0.1,0.1,0.1,0.1,0.1,0.1,0.1,0.1,0.1,0.1,0.1,0.1,0.1]}},{"type":"Feature","geometry":{"type":"Point","coordinates":[150.43116,-10.67041]},"properties":{"id":"osm-node10290787577","name":"Bilabila Bay","kind":"anchorage","source":"OpenStreetMap","sourceRef":"node/10290787577","likelyAnchorage":true,"noAnchoring":false,"noAnchoringName":null,"notes":null,"fetchLandNM":[0.7,0.6,0.6,0.6,1.2,1.3,1.9,7.3,12,15,15,15,15,15,15,15,1.4,1.1,6.5,1.1,0.8,0.7,0.5,0.5,0.6,0.7,0.7,0.7,0.8,0.8,0.8,0.7,0.7,0.8,0.8,0.7],"fetchReefNM":[0.7,0.6,0.6,0.6,1.2,1.3,1.9,7.3,3.1,15,15,15,15,15,15,15,1.4,1.1,6.5,1.1,0.8,0.7,0.5,0.5,0.6,0.7,0.7,0.7,0.8,0.8,0.8,0.7,0.7,0.8,0.8,0.7]}},{"type":"Feature","geometry":{"type":"Point","coordinates":[150.85835,-10.5539]},"properties":{"id":"osm-node13871257268","name":"Bohikalakalawa Bay","kind":"anchorage","source":"OpenStreetMap","sourceRef":"node/13871257268","likelyAnchorage":true,"noAnchoring":false,"noAnchoringName":null,"notes":null,"fetchLandNM":[0.2,0.2,0.1,0.1,0.1,0.1,0.1,0.1,0.1,0.2,0.2,0.2,0.3,0.5,0.5,0.7,0.6,0.3,0.2,0.2,0.1,0.2,0.2,0.2,0.2,0.2,0.3,0.3,0.2,0.3,0.3,0.4,15,15,15,15],"fetchReefNM":[0.2,0.2,0.1,0.1,0.1,0.1,0.1,0.1,0.1,0.2,0.2,0.2,0.3,0.5,0.5,0.7,0.6,0.3,0.2,0.2,0.1,0.2,0.2,0.2,0.2,0.2,0.3,0.3,0.2,0.3,0.3,0.3,0.4,0.4,0.6,0.7]}},{"type":"Feature","geometry":{"type":"Point","coordinates":[150.65092,-10.6506]},"properties":{"id":"osm-node13871470000","name":"Bonalia Bay","kind":"anchorage","source":"OpenStreetMap","sourceRef":"node/13871470000","likelyAnchorage":true,"noAnchoring":false,"noAnchoringName":null,"notes":null,"fetchLandNM":[0.4,0.4,0.3,0.3,0.3,0.4,0.3,0.4,0.4,0.5,0.5,0.5,0.5,0.6,0.8,15,15,15,15,3.9,15,15,15,3.8,15,15,12.9,11,9.9,5.3,0.6,0.5,0.4,0.3,0.4,0.3],"fetchReefNM":[0.4,0.4,0.3,0.3,0.3,0.4,0.3,0.4,0.4,0.5,0.5,0.5,0.5,0.6,0.8,15,15,15,15,3.9,15,15,15,3.8,15,15,12.9,11,9.9,5.3,0.6,0.5,0.4,0.3,0.4,0.3]}},{"type":"Feature","geometry":{"type":"Point","coordinates":[151.1495,-10.14426]},"properties":{"id":"osm-node13850011084","name":"Bunama Bay","kind":"anchorage","source":"OpenStreetMap","sourceRef":"node/13850011084","likelyAnchorage":true,"noAnchoring":false,"noAnchoringName":null,"notes":null,"fetchLandNM":[0.3,0.3,0.2,0.2,0.2,0.3,0.3,0.3,0.3,0.3,0.3,0.3,0.3,0.3,0.3,0.3,15,15,15,15,15,15,10.2,15,15,15,15,15,2,1.5,1.2,0.9,0.5,0.4,0.3,0.3],"fetchReefNM":[0.3,0.3,0.2,0.2,0.2,0.3,0.3,0.3,0.3,0.3,0.3,0.3,0.3,0.3,0.3,0.3,8.2,6.9,6.5,9,11.4,10.1,10.2,15,15,13.3,15,15,2,1.5,1.2,0.9,0.5,0.4,0.3,0.3]}},{"type":"Feature","geometry":{"type":"Point","coordinates":[150.9682,-10.02312]},"properties":{"id":"osm-node13845631696","name":"Bwaguda Bay","kind":"anchorage","source":"OpenStreetMap","sourceRef":"node/13845631696","likelyAnchorage":true,"noAnchoring":false,"noAnchoringName":null,"notes":null,"fetchLandNM":[0.5,0.6,2,1.8,1.6,0.7,0.6,0.4,0.4,0.3,0.3,0.3,0.3,0.4,0.4,0.6,0.6,0.4,0.4,0.4,0.4,0.4,0.4,0.5,0.5,0.5,0.5,0.5,0.4,0.3,0.3,0.3,0.3,0.2,0.2,0.3],"fetchReefNM":[0.5,0.6,2,1.8,1.6,0.7,0.6,0.4,0.4,0.3,0.3,0.3,0.3,0.4,0.4,0.6,0.6,0.4,0.4,0.4,0.4,0.4,0.4,0.5,0.5,0.5,0.5,0.5,0.4,0.3,0.3,0.3,0.3,0.2,0.2,0.3]}},{"type":"Feature","geometry":{"type":"Point","coordinates":[150.94796,-10.02677]},"properties":{"id":"osm-node13845631717","name":"Davia Bayw","kind":"anchorage","source":"OpenStreetMap","sourceRef":"node/13845631717","likelyAnchorage":true,"noAnchoring":false,"noAnchoringName":null,"notes":null,"fetchLandNM":[0.1,0.1,0.1,0.1,0.1,0.1,0.1,0.1,0.1,0.1,0.1,0.1,0.1,0.1,0.1,0.1,0.1,0.1,0.6,15,12.7,15,15,0.2,15,15,15,15,15,2,2.4,0.8,0.5,0.5,0.1,0.1],"fetchReefNM":[0.1,0.1,0.1,0.1,0.1,0.1,0.1,0.1,0.1,0.1,0.1,0.1,0.1,0.1,0.1,0.1,0.1,0.1,0.6,11.3,12.7,15,15,0.2,15,15,15,15,6.3,2,2.4,0.8,0.5,0.5,0.1,0.1]}},{"type":"Feature","geometry":{"type":"Point","coordinates":[150.08727,-10.64554]},"properties":{"id":"osm-node10290787593","name":"Dirogani Bay","kind":"anchorage","source":"OpenStreetMap","sourceRef":"node/10290787593","likelyAnchorage":true,"noAnchoring":false,"noAnchoringName":null,"notes":null,"fetchLandNM":[0.4,0.4,0.4,0.4,0.4,0.4,0.5,0.5,0.5,0.8,0.8,0.8,0.4,1.2,15,15,15,15,15,15,15,0.6,0.6,0.5,0.5,0.5,0.4,0.5,0.5,0.5,0.5,0.5,0.5,0.4,0.4,0.4],"fetchReefNM":[0.4,0.4,0.4,0.4,0.4,0.4,0.5,0.5,0.5,0.8,0.8,0.8,0.4,1.2,15,15,15,15,15,15,15,0.6,0.6,0.5,0.5,0.5,0.4,0.5,0.5,0.5,0.5,0.5,0.5,0.4,0.4,0.4]}},{"type":"Feature","geometry":{"type":"Point","coordinates":[150.40812,-10.40699]},"properties":{"id":"osm-node13473104674","name":"Discovery Bay","kind":"anchorage","source":"OpenStreetMap","sourceRef":"node/13473104674","likelyAnchorage":true,"noAnchoring":false,"noAnchoringName":null,"notes":null,"fetchLandNM":[6.6,5.8,6.3,6,6.5,7.6,8.5,0.2,0.2,0.2,0.2,0.2,0.2,0.2,0.2,0.2,0.2,0.2,0.2,0.2,0.2,0.2,0.2,0.2,0.2,0.2,0.3,0.3,0.5,4.2,4.5,4.7,4.2,5.7,5.7,5.7],"fetchReefNM":[6.6,5.8,6.3,6,6.5,7.6,8.5,0.2,0.2,0.2,0.2,0.2,0.2,0.2,0.2,0.2,0.2,0.2,0.2,0.2,0.2,0.2,0.2,0.2,0.2,0.2,0.3,0.3,0.5,4.2,4.5,4.7,4.2,5.7,5.7,5.7]}},{"type":"Feature","geometry":{"type":"Point","coordinates":[151.26757,-10.06281]},"properties":{"id":"osm-node13850011101","name":"Dotanoa Bay","kind":"anchorage","source":"OpenStreetMap","sourceRef":"node/13850011101","likelyAnchorage":true,"noAnchoring":false,"noAnchoringName":null,"notes":null,"fetchLandNM":[0.2,0.2,0.3,15,15,15,15,15,15,15,15,15,15,15,15,15,15,15,0.3,0.2,0.2,0.2,0.2,0.2,0.2,0.1,0.1,0.1,0.1,0.1,0.2,0.2,0.2,0.2,0.2,0.2],"fetchReefNM":[0.2,0.2,0.3,15,15,15,15,15,15,15,15,15,15,15,15,15,15,15,0.3,0.2,0.2,0.2,0.2,0.2,0.2,0.1,0.1,0.1,0.1,0.1,0.2,0.2,0.2,0.2,0.2,0.2]}},{"type":"Feature","geometry":{"type":"Point","coordinates":[150.46536,-10.64251]},"properties":{"id":"osm-node13871456270","name":"Duabwai Bay","kind":"anchorage","source":"OpenStreetMap","sourceRef":"node/13871456270","likelyAnchorage":true,"noAnchoring":false,"noAnchoringName":null,"notes":null,"fetchLandNM":[0.6,0.8,1.5,1.5,1.7,2.4,2.7,3.2,4.7,10.1,15,8.5,15,15,15,15,15,0.3,0.2,0.2,0.3,0.3,0.2,0.3,0.3,0.3,0.3,0.3,0.3,0.3,0.2,0.2,0.2,0.2,0.2,0.3],"fetchReefNM":[0.6,0.8,1.5,1.5,1.7,2.4,2.7,3.2,4.7,10.1,15,8.5,15,1.6,15,15,15,0.3,0.2,0.2,0.3,0.3,0.2,0.3,0.3,0.3,0.3,0.3,0.3,0.3,0.2,0.2,0.2,0.2,0.2,0.3]}},{"type":"Feature","geometry":{"type":"Point","coordinates":[150.2475,-10.676]},"properties":{"id":"osm-node10290787586","name":"Dubaguri Bay","kind":"anchorage","source":"OpenStreetMap","sourceRef":"node/10290787586","likelyAnchorage":true,"noAnchoring":false,"noAnchoringName":null,"notes":null,"fetchLandNM":[0.3,0.2,0.2,0.3,0.4,0.4,0.4,0.4,0.4,0.4,0.4,0.4,0.3,0.3,0.4,0.5,0.9,1.3,1.8,0.3,0.3,0.3,0.3,0.3,0.3,0.3,0.3,0.4,0.5,0.5,0.4,0.3,0.6,0.5,0.4,0.3],"fetchReefNM":[0.3,0.2,0.2,0.3,0.4,0.4,0.4,0.4,0.4,0.4,0.4,0.4,0.3,0.3,0.4,0.5,0.9,1.3,1.8,0.3,0.3,0.3,0.3,0.3,0.3,0.3,0.3,0.4,0.5,0.5,0.4,0.3,0.6,0.5,0.4,0.3]}},{"type":"Feature","geometry":{"type":"Point","coordinates":[151.00603,-10.29247]},"properties":{"id":"osm-node13850102123","name":"Dudawali Bay","kind":"anchorage","source":"OpenStreetMap","sourceRef":"node/13850102123","likelyAnchorage":true,"noAnchoring":false,"noAnchoringName":null,"notes":null,"fetchLandNM":[0.4,0.4,0.4,0.4,0.3,0.3,0.3,0.3,0.3,0.3,0.3,0.3,0.3,0.3,0.3,0.3,0.3,0.3,15,15,15,15,15,15,15,15,15,14.1,4.4,9.4,0.3,0.3,0.3,0.3,0.3,0.4],"fetchReefNM":[0.4,0.4,0.4,0.4,0.3,0.3,0.3,0.3,0.3,0.3,0.3,0.3,0.3,0.3,0.3,0.3,0.3,0.3,3,15,4.2,3.5,15,3,3,3.1,3.1,4.7,2.4,5.6,0.3,0.3,0.3,0.3,0.3,0.4]}},{"type":"Feature","geometry":{"type":"Point","coordinates":[150.94853,-10.03512]},"properties":{"id":"osm-node13845631735","name":"Dumaduma Bay","kind":"anchorage","source":"OpenStreetMap","sourceRef":"node/13845631735","likelyAnchorage":true,"noAnchoring":false,"noAnchoringName":null,"notes":null,"fetchLandNM":[0.2,0.1,0.1,0.1,0.1,0.2,0.2,0.2,0.1,0.1,0.1,0.1,0.1,0.1,0.1,0.1,0.1,0.1,0.1,0.1,0.1,0.1,0.1,15,15,15,15,15,15,15,2.4,2.7,2.5,0.4,1,1.9],"fetchReefNM":[0.2,0.1,0.1,0.1,0.1,0.2,0.2,0.2,0.1,0.1,0.1,0.1,0.1,0.1,0.1,0.1,0.1,0.1,0.1,0.1,0.1,0.1,0.1,15,15,15,15,15,15,15,2.4,2.7,2.5,0.4,1,1.9]}},{"type":"Feature","geometry":{"type":"Point","coordinates":[150.02061,-10.60178]},"properties":{"id":"osm-node10290257415","name":"Fife Bay","kind":"anchorage","source":"OpenStreetMap","sourceRef":"node/10290257415","likelyAnchorage":true,"noAnchoring":false,"noAnchoringName":null,"notes":null,"fetchLandNM":[0.5,0.7,0.8,0.8,1,1,1,0.8,0.6,0.8,0.7,0.6,0.7,0.9,0.9,0.9,0.9,0.9,0.5,0.5,0.5,15,15,15,0.6,15,0.6,1.1,1.2,1.3,1.3,1.3,1.4,1.3,1.5,1.7],"fetchReefNM":[0.5,0.7,0.8,0.8,1,1,1,0.8,0.6,0.8,0.7,0.6,0.7,0.9,0.9,0.9,0.9,0.9,0.5,0.5,0.5,15,15,15,0.6,15,0.6,1.1,1.2,1.3,1.3,1.3,1.4,1.3,1.5,1.7]}},{"type":"Feature","geometry":{"type":"Point","coordinates":[150.93029,-10.00354]},"properties":{"id":"osm-node13845631694","name":"Foul Bay","kind":"anchorage","source":"OpenStreetMap","sourceRef":"node/13845631694","likelyAnchorage":true,"noAnchoring":false,"noAnchoringName":null,"notes":null,"fetchLandNM":[0.1,0.1,0.1,0.2,0.2,0.3,0.3,0.2,0.2,0.2,0.3,0.7,0.6,0.7,0.8,0.9,0.8,15,15,15,14.5,15,15,15,1,15,1,0.4,0.2,0.2,0.2,0.2,0.3,0.2,0.2,0.2],"fetchReefNM":[0.1,0.1,0.1,0.2,0.2,0.3,0.3,0.2,0.2,0.2,0.3,0.7,0.6,0.7,0.8,0.9,0.8,15,11.5,13,14.5,15,15,15,1,15,1,0.4,0.2,0.2,0.2,0.2,0.3,0.2,0.2,0.2]}},{"type":"Feature","geometry":{"type":"Point","coordinates":[150.34762,-10.33818]},"properties":{"id":"osm-node13947895955","name":"Gabugabuna Bay","kind":"anchorage","source":"OpenStreetMap","sourceRef":"node/13947895955","likelyAnchorage":true,"noAnchoring":false,"noAnchoringName":null,"notes":null,"fetchLandNM":[0.2,0.2,0.2,0.3,0.4,0.4,2,4.7,6.5,11.5,15,1.2,14.1,7,1.2,1.3,4.2,0.5,0.4,0.3,0.3,0.3,0.3,0.3,0.3,0.4,0.4,0.3,0.3,0.4,0.4,0.4,0.4,0.3,0.3,0.3],"fetchReefNM":[0.2,0.2,0.2,0.3,0.4,0.4,2,4.7,6.5,11.5,15,1.2,14.1,7,1.2,1.3,4,0.5,0.4,0.3,0.3,0.3,0.3,0.3,0.3,0.4,0.4,0.3,0.3,0.4,0.4,0.4,0.4,0.3,0.3,0.3]}},{"type":"Feature","geometry":{"type":"Point","coordinates":[150.74164,-10.63012]},"properties":{"id":"osm-node13871263065","name":"Gadoakopu Bay","kind":"anchorage","source":"OpenStreetMap","sourceRef":"node/13871263065","likelyAnchorage":true,"noAnchoring":false,"noAnchoringName":null,"notes":null,"fetchLandNM":[0.3,0.3,0.3,0.4,0.3,0.3,0.3,0.3,0.3,0.3,0.3,0.4,15,15,15,15,15,15,0.6,4.1,3.6,4.7,5,7.9,4.6,0.7,0.4,0.3,0.3,0.3,0.2,0.2,0.2,0.3,0.3,0.3],"fetchReefNM":[0.3,0.3,0.3,0.4,0.3,0.3,0.3,0.3,0.3,0.3,0.3,0.4,15,15,15,15,15,0.6,0.5,0.4,3.6,0.4,0.4,7.9,4.6,0.7,0.4,0.3,0.3,0.3,0.2,0.2,0.2,0.3,0.3,0.3]}},{"type":"Feature","geometry":{"type":"Point","coordinates":[150.73699,-10.26315]},"properties":{"id":"osm-node13924041938","name":"Gigitupa Bay","kind":"anchorage","source":"OpenStreetMap","sourceRef":"node/13924041938","likelyAnchorage":true,"noAnchoring":false,"noAnchoringName":null,"notes":null,"fetchLandNM":[15,15,15,15,15,15,15,15,2.8,2.6,0.6,0.3,0.3,0.3,0.3,0.3,0.3,0.3,0.3,0.2,0.2,0.2,0.2,0.2,0.2,0.2,0.2,0.2,0.2,0.2,0.3,0.3,15,15,15,15],"fetchReefNM":[15,15,15,15,15,15,15,12,2.8,2.6,0.6,0.3,0.3,0.3,0.3,0.3,0.3,0.3,0.3,0.2,0.2,0.2,0.2,0.2,0.2,0.2,0.2,0.2,0.2,0.2,0.3,0.3,15,15,15,15]}},{"type":"Feature","geometry":{"type":"Point","coordinates":[150.34679,-10.3338]},"properties":{"id":"osm-node13947895956","name":"Gili Gili Anchorage","kind":"anchorage","source":"OpenStreetMap","sourceRef":"node/13947895956","likelyAnchorage":true,"noAnchoring":false,"noAnchoringName":null,"notes":null,"fetchLandNM":[0,0,0,0,0,0,0,0,0,0,0,0,0,7.5,5.9,1.4,4.5,0.7,0.6,0.5,0.5,0.5,0.5,0.4,0.3,0.3,0,0,0,0,0,0,0,0,0,0],"fetchReefNM":[0,0,0,0,0,0,0,0,0,0,0,0,0,7.5,5.9,1.4,4.2,0.7,0.6,0.5,0.5,0.5,0.5,0.4,0.3,0.3,0,0,0,0,0,0,0,0,0,0]}},{"type":"Feature","geometry":{"type":"Point","coordinates":[150.59765,-10.46837]},"properties":{"id":"osm-node13930539983","name":"Gobura Bay","kind":"anchorage","source":"OpenStreetMap","sourceRef":"node/13930539983","likelyAnchorage":true,"noAnchoring":false,"noAnchoringName":null,"notes":null,"fetchLandNM":[7.2,7.3,8.2,8.7,13.4,15,15,15,15,15,2.4,0.9,0.5,0.3,0.2,0.2,0.2,0.2,0.2,0.2,0.2,0.2,0.2,0.2,0.2,0.3,0.3,0.4,0.8,6.2,15,15,11.3,9.3,7.9,7.5],"fetchReefNM":[7.2,7.3,8.2,8.7,13.4,15,15,15,15,15,2.4,0.9,0.5,0.3,0.2,0.2,0.2,0.2,0.2,0.2,0.2,0.2,0.2,0.2,0.2,0.3,0.3,0.4,0.8,6.2,15,15,11.3,9.3,7.9,7.2]}},{"type":"Feature","geometry":{"type":"Point","coordinates":[150.81095,-10.53464]},"properties":{"id":"osm-node13871262888","name":"Gogowale Bay","kind":"anchorage","source":"OpenStreetMap","sourceRef":"node/13871262888","likelyAnchorage":true,"noAnchoring":false,"noAnchoringName":null,"notes":null,"fetchLandNM":[15,15,15,15,15,15,15,15,15,2.9,3.2,2.6,0.4,0.3,0.2,0.2,0.1,0.1,0.1,0.1,0.1,0.1,0.1,0.1,0.1,0.2,0.2,0.2,0.2,0.2,15,15,15,14.6,14.6,14.7],"fetchReefNM":[15,15,13.7,14,15,15,15,15,15,2.1,2,2,0.4,0.3,0.2,0.2,0.1,0.1,0.1,0.1,0.1,0.1,0.1,0.1,0.1,0.2,0.2,0.2,0.2,0.2,15,15,15,14.6,14.6,14.7]}},{"type":"Feature","geometry":{"type":"Point","coordinates":[150.52627,-10.33314]},"properties":{"id":"osm-node13929240585","name":"Gogowali Bay","kind":"anchorage","source":"OpenStreetMap","sourceRef":"node/13929240585","likelyAnchorage":true,"noAnchoring":false,"noAnchoringName":null,"notes":null,"fetchLandNM":[0.1,0.1,0.1,0.1,0.1,0.1,0.1,0.1,0.1,0.1,0.1,0.2,15,15,11.3,9.7,8.3,7.4,6.7,6.3,6,6.2,6.5,7.3,8.7,11.4,11.1,0.2,0.1,0.1,0.1,0.1,0.1,0.1,0.1,0.1],"fetchReefNM":[0.1,0.1,0.1,0.1,0.1,0.1,0.1,0.1,0.1,0.1,0.1,0.2,15,15,11.3,9.7,8.3,7.4,6.7,6.3,6,6.2,6.5,7.3,8.7,11.4,11.1,0.2,0.1,0.1,0.1,0.1,0.1,0.1,0.1,0.1]}},{"type":"Feature","geometry":{"type":"Point","coordinates":[150.35176,-10.3335]},"properties":{"id":"osm-node13947895954","name":"Gohora Bay","kind":"anchorage","source":"OpenStreetMap","sourceRef":"node/13947895954","likelyAnchorage":true,"noAnchoring":false,"noAnchoringName":null,"notes":null,"fetchLandNM":[0.1,0.1,0.1,0.1,0.1,0.1,0.1,0.1,0,0,0.1,15,15,1.2,5.6,5,1.3,4.3,4,0.8,0.7,0.6,0.7,0.7,0.7,0.1,0,0,0,0.1,0.1,0.1,0.1,0.1,0.1,0.1],"fetchReefNM":[0.1,0.1,0.1,0.1,0.1,0.1,0.1,0.1,0,0,0.1,15,15,1.2,5.6,5,1.3,4.3,4,0.8,0.7,0.6,0.7,0.7,0.7,0.1,0,0,0,0.1,0.1,0.1,0.1,0.1,0.1,0.1]}},{"type":"Feature","geometry":{"type":"Point","coordinates":[151.19168,-10.15669]},"properties":{"id":"osm-node13850011087","name":"Gudumuli Bay","kind":"anchorage","source":"OpenStreetMap","sourceRef":"node/13850011087","likelyAnchorage":true,"noAnchoring":false,"noAnchoringName":null,"notes":null,"fetchLandNM":[0.2,0.2,0.2,0.2,0.3,0.3,0.3,0.3,0.4,0.4,0.4,0.4,0.5,1,1.1,15,15,15,15,15,15,15,15,11.9,15,15,15,0.4,0.4,0.4,0.4,0.4,0.3,0.3,0.3,0.3],"fetchReefNM":[0.2,0.2,0.2,0.2,0.3,0.3,0.3,0.3,0.4,0.4,0.4,0.4,0.5,1,1.1,3.6,2.7,2.6,3.8,6.1,6.2,9.6,11.5,11.2,15,15,15,0.4,0.4,0.4,0.4,0.4,0.3,0.3,0.3,0.3]}},{"type":"Feature","geometry":{"type":"Point","coordinates":[150.58661,-10.34881]},"properties":{"id":"osm-node13929240401","name":"Guguni Bay","kind":"anchorage","source":"OpenStreetMap","sourceRef":"node/13929240401","likelyAnchorage":true,"noAnchoring":false,"noAnchoringName":null,"notes":null,"fetchLandNM":[0.1,0.1,0.1,0.2,0.2,0.2,0.2,0.1,0.1,0.1,0.1,0.1,0.1,0.1,0.1,0.1,0.1,0.1,0.1,0.2,6.7,6.8,7,7.2,8.5,10.1,14.7,12.3,0.1,0.1,0.1,0.1,0.1,0.1,0.1,0.1],"fetchReefNM":[0.1,0.1,0.1,0.2,0.2,0.2,0.2,0.1,0.1,0.1,0.1,0.1,0.1,0.1,0.1,0.1,0.1,0.1,0.1,0.2,6.7,6.8,7,7.2,8.5,10.1,14.7,0.6,0.1,0.1,0.1,0.1,0.1,0.1,0.1,0.1]}},{"type":"Feature","geometry":{"type":"Point","coordinates":[150.48494,-10.63458]},"properties":{"id":"osm-node10290787579","name":"Gwagulina Bay","kind":"anchorage","source":"OpenStreetMap","sourceRef":"node/10290787579","likelyAnchorage":true,"noAnchoring":false,"noAnchoringName":null,"notes":null,"fetchLandNM":[0.7,1,1.2,1.2,1.3,1.5,1.8,2,3.5,8.6,11.1,15,15,15,15,15,15,15,15,15,9.2,8.4,1.8,1.7,1.5,1.6,1.2,1.2,1.1,1.1,1.2,1.2,1.2,1.2,0.8,0.8],"fetchReefNM":[0.7,1,1.2,1.2,1.3,1.5,1.8,2,3.5,8.6,11.1,15,15,15,15,15,15,1.5,1.5,15,9.2,8.4,1.8,1.7,1.5,1.6,1.2,1.2,1.1,1.1,1.2,1.2,1.2,1.2,0.8,0.8]}},{"type":"Feature","geometry":{"type":"Point","coordinates":[150.9875,-10.63762]},"properties":{"id":"osm-node13867339904","name":"Habani Bay","kind":"anchorage","source":"OpenStreetMap","sourceRef":"node/13867339904","likelyAnchorage":true,"noAnchoring":false,"noAnchoringName":null,"notes":null,"fetchLandNM":[0.2,0.2,0.2,0.2,0.2,0.2,0.2,0.2,0.2,0.2,0.2,0.3,0.3,0.4,1.9,15,15,15,15,15,15,15,15,15,3.7,0.9,0.5,0.3,0.3,0.3,0.2,0.2,0.2,0.2,0.2,0.2],"fetchReefNM":[0.2,0.2,0.2,0.2,0.2,0.2,0.2,0.2,0.2,0.2,0.2,0.3,0.3,0.4,1.9,15,15,15,15,15,15,15,15,15,3.7,0.9,0.5,0.3,0.3,0.3,0.2,0.2,0.2,0.2,0.2,0.2]}},{"type":"Feature","geometry":{"type":"Point","coordinates":[150.54674,-10.33981]},"properties":{"id":"osm-node13929240415","name":"Hagabai Bay","kind":"anchorage","source":"OpenStreetMap","sourceRef":"node/13929240415","likelyAnchorage":true,"noAnchoring":false,"noAnchoringName":null,"notes":null,"fetchLandNM":[0.1,0.1,0.1,0.1,0.1,0.1,0.1,0.1,0.1,0.1,0.1,0.1,0.2,0.2,0.2,9.3,8.3,7.4,6.9,6.5,6.3,6,6.6,7.1,8.1,10.8,12.2,12.1,9.3,0.6,0.1,0.1,0.1,0.1,0.1,0.1],"fetchReefNM":[0.1,0.1,0.1,0.1,0.1,0.1,0.1,0.1,0.1,0.1,0.1,0.1,0.2,0.2,0.2,9.3,8.3,7.4,6.9,6.5,6.3,6,6.6,7.1,8.1,10.7,12.2,12.1,9.3,0.6,0.1,0.1,0.1,0.1,0.1,0.1]}},{"type":"Feature","geometry":{"type":"Point","coordinates":[151.015,-10.26982]},"properties":{"id":"osm-node13850102124","name":"Haliwa Una Bay","kind":"anchorage","source":"OpenStreetMap","sourceRef":"node/13850102124","likelyAnchorage":true,"noAnchoring":false,"noAnchoringName":null,"notes":null,"fetchLandNM":[9.5,9.5,9.8,9.9,10.5,10.8,0.6,0.5,0.5,0.5,0.5,0.5,0.4,0.4,0.4,0.3,0.3,0.3,0.3,0.4,0.4,0.5,0.5,0.5,0.5,0.6,0.5,0.4,0.4,8.1,7.3,15,15,15,15,9.7],"fetchReefNM":[9.5,9.5,9.8,9.9,10.5,10.8,0.6,0.5,0.5,0.5,0.5,0.5,0.4,0.4,0.4,0.3,0.3,0.3,0.3,0.4,0.4,0.5,0.5,0.5,0.5,0.6,0.5,0.4,0.4,2.4,4.2,5.6,1.8,15,15,9.7]}},{"type":"Feature","geometry":{"type":"Point","coordinates":[150.85773,-10.24423]},"properties":{"id":"osm-node13923822679","name":"Haperopero Bay","kind":"anchorage","source":"OpenStreetMap","sourceRef":"node/13923822679","likelyAnchorage":true,"noAnchoring":false,"noAnchoringName":null,"notes":null,"fetchLandNM":[0.4,0.4,0.5,0.7,0.9,1.1,15,15,15,15,8.6,9.4,4.8,15,15,15,15,15,15,15,15,15,15,15,1.1,0.8,0.6,0.5,0.4,0.3,0.3,0.3,0.3,0.3,0.3,0.3],"fetchReefNM":[0.4,0.4,0.5,0.7,0.9,1.1,2,3.2,3.8,4.9,4.1,3.3,3.2,3.1,2.9,3.1,3.1,3.5,15,15,15,15,15,15,1.1,0.8,0.6,0.5,0.4,0.3,0.3,0.3,0.3,0.3,0.3,0.3]}},{"type":"Feature","geometry":{"type":"Point","coordinates":[150.99885,-10.59111]},"properties":{"id":"osm-node13853924429","name":"Hemoe Bay","kind":"anchorage","source":"OpenStreetMap","sourceRef":"node/13853924429","likelyAnchorage":true,"noAnchoring":false,"noAnchoringName":null,"notes":null,"fetchLandNM":[15,15,15,15,15,0.5,0.5,0.5,0.3,0.3,0.3,0.3,0.2,0.2,0.2,0.2,0.2,0.3,0.3,0.4,0.4,0.4,0.4,0.3,0.2,0.2,0.2,0.3,0.3,0.2,0.2,0.2,0.1,0.1,0.2,15],"fetchReefNM":[13.9,15,15,15,15,0.5,0.5,0.5,0.3,0.3,0.3,0.3,0.2,0.2,0.2,0.2,0.2,0.3,0.3,0.4,0.4,0.4,0.4,0.3,0.2,0.2,0.2,0.3,0.3,0.2,0.2,0.2,0.1,0.1,0.2,15]}},{"type":"Feature","geometry":{"type":"Point","coordinates":[150.55726,-10.34528]},"properties":{"id":"osm-node13929240411","name":"Hiliganai Bay","kind":"anchorage","source":"OpenStreetMap","sourceRef":"node/13929240411","likelyAnchorage":true,"noAnchoring":false,"noAnchoringName":null,"notes":null,"fetchLandNM":[0.1,0.1,0.1,0.1,0.1,0.1,0.2,0.2,0.2,0.2,1.8,15,15,15,15,9,8.1,7.2,6.7,6.4,6.3,6.3,6.4,7.1,8.2,10.5,12.9,11.1,0.2,0.2,0.2,0.1,0.1,0.1,0.1,0.1],"fetchReefNM":[0.1,0.1,0.1,0.1,0.1,0.1,0.2,0.2,0.2,0.2,1.1,15,15,15,12.4,9,8.1,7.2,6.7,6.4,6.3,6.3,6.4,7.1,8.2,10.5,12.9,11.1,0.2,0.2,0.2,0.1,0.1,0.1,0.1,0.1]}},{"type":"Feature","geometry":{"type":"Point","coordinates":[151.02163,-10.66906]},"properties":{"id":"osm-node13853967773","name":"Hiliki Bay","kind":"anchorage","source":"OpenStreetMap","sourceRef":"node/13853967773","likelyAnchorage":true,"noAnchoring":false,"noAnchoringName":null,"notes":null,"fetchLandNM":[0.1,0.1,0.1,0.1,0.1,0.2,0.2,0.2,0.2,0.3,0.3,0.5,0.6,0.8,15,15,15,15,15,12.6,15,15,15,15,15,0.4,0.3,0.2,0.1,0.1,0.1,0.1,0.1,0.1,0.1,0.1],"fetchReefNM":[0.1,0.1,0.1,0.1,0.1,0.2,0.2,0.2,0.2,0.3,0.3,0.5,0.6,0.8,15,15,15,15,15,12.6,15,15,15,15,15,0.4,0.3,0.2,0.1,0.1,0.1,0.1,0.1,0.1,0.1,0.1]}},{"type":"Feature","geometry":{"type":"Point","coordinates":[150.68376,-10.26637]},"properties":{"id":"osm-node13924050472","name":"Hilimoi Bay","kind":"anchorage","source":"OpenStreetMap","sourceRef":"node/13924050472","likelyAnchorage":true,"noAnchoring":false,"noAnchoringName":null,"notes":null,"fetchLandNM":[15,15,15,15,15,15,1,0.2,0.2,0.1,0.1,0.1,0.1,0.1,0.1,0.1,0.1,0.1,0.1,0.1,0.1,0.2,0.2,0.3,1.4,3,4.6,4.9,5.4,4.9,4.7,15,15,15,15,15],"fetchReefNM":[15,15,15,15,15,15,1,0.2,0.2,0.1,0.1,0.1,0.1,0.1,0.1,0.1,0.1,0.1,0.1,0.1,0.1,0.2,0.2,0.3,1.4,3,4.6,4.9,5.4,4.9,4.7,15,15,15,15,15]}},{"type":"Feature","geometry":{"type":"Point","coordinates":[150.71894,-10.26084]},"properties":{"id":"osm-node13924041949","name":"Hiliwau Bay","kind":"anchorage","source":"OpenStreetMap","sourceRef":"node/13924041949","likelyAnchorage":true,"noAnchoring":false,"noAnchoringName":null,"notes":null,"fetchLandNM":[15,15,15,15,15,15,15,15,0.3,0.2,0.2,0.2,0.2,0.2,0.2,0.2,0.2,0.2,0.2,0.2,0.2,0.2,0.2,0.2,0.2,0.2,0.2,0.2,0.8,0.9,15,15,15,15,15,15],"fetchReefNM":[15,15,15,15,15,15,15,15,0.3,0.2,0.2,0.2,0.2,0.2,0.2,0.2,0.2,0.2,0.2,0.2,0.2,0.2,0.2,0.2,0.2,0.2,0.2,0.2,0.8,0.9,15,15,15,15,15,15]}},{"type":"Feature","geometry":{"type":"Point","coordinates":[150.77819,-10.26724]},"properties":{"id":"osm-node13923822700","name":"Hoia Bay","kind":"anchorage","source":"OpenStreetMap","sourceRef":"node/13923822700","likelyAnchorage":true,"noAnchoring":false,"noAnchoringName":null,"notes":null,"fetchLandNM":[15,15,15,0.5,0.2,0.1,0.1,0.1,0.1,0.1,0.1,0.1,0.1,0.2,0.2,0.2,0.2,0.1,0.1,0.1,0.1,0.1,0.1,0.1,0.1,0.1,0.1,0.1,0.1,0.1,15,15,15,15,15,15],"fetchReefNM":[15,15,15,0.5,0.2,0.1,0.1,0.1,0.1,0.1,0.1,0.1,0.1,0.2,0.2,0.2,0.2,0.1,0.1,0.1,0.1,0.1,0.1,0.1,0.1,0.1,0.1,0.1,0.1,0.1,15,15,15,15,15,15]}},{"type":"Feature","geometry":{"type":"Point","coordinates":[150.93427,-10.63845]},"properties":{"id":"osm-node13867339915","name":"Hoop Iron Bay","kind":"anchorage","source":"OpenStreetMap","sourceRef":"node/13867339915","likelyAnchorage":true,"noAnchoring":false,"noAnchoringName":null,"notes":null,"fetchLandNM":[0.4,0.4,0.4,0.4,0.4,0.3,0.3,0.3,0.3,0.5,2.2,4.7,15,15,15,15,15,14.4,1.9,1.8,1.4,1.4,1,1,0.9,0.9,0.6,0.5,0.3,0.3,0.3,0.3,0.2,0.3,0.3,0.3],"fetchReefNM":[0.4,0.4,0.4,0.4,0.4,0.3,0.3,0.3,0.3,0.5,2.2,4.7,15,15,15,15,15,14.3,1.9,1.8,1.4,1.4,1,1,0.9,0.9,0.6,0.5,0.3,0.3,0.3,0.3,0.2,0.3,0.3,0.3]}},{"type":"Feature","geometry":{"type":"Point","coordinates":[150.49356,-10.32309]},"properties":{"id":"osm-node13473104679","name":"Jock McMillan Bay","kind":"anchorage","source":"OpenStreetMap","sourceRef":"node/13473104679","likelyAnchorage":true,"noAnchoring":false,"noAnchoringName":null,"notes":null,"fetchLandNM":[0.1,0.1,0.1,0.1,0.1,0.1,0.1,0.1,0.1,0.1,0.1,0.1,0.1,0.2,11.9,9.8,8.1,7.2,6.2,6.2,6,6.3,6.5,7.7,9.2,9.5,7.5,0.2,0.2,0.1,0.1,0.1,0.1,0.1,0.1,0.1],"fetchReefNM":[0.1,0.1,0.1,0.1,0.1,0.1,0.1,0.1,0.1,0.1,0.1,0.1,0.1,0.2,11.9,9.8,8.1,7.2,6.2,6.2,6,6.3,6.5,7.7,9.2,9.5,7.5,0.2,0.2,0.1,0.1,0.1,0.1,0.1,0.1,0.1]}},{"type":"Feature","geometry":{"type":"Point","coordinates":[150.79535,-10.53836]},"properties":{"id":"osm-node13871262890","name":"Kabakaluwai Bay","kind":"anchorage","source":"OpenStreetMap","sourceRef":"node/13871262890","likelyAnchorage":true,"noAnchoring":false,"noAnchoringName":null,"notes":null,"fetchLandNM":[15,15,15,15,15,0.2,0.2,0.2,0.2,0.2,0.2,0.2,0.2,0.2,0.2,0.2,0.2,0.2,0.2,0.2,0.2,0.2,0.2,0.3,2.3,4.2,5.1,6.4,7.5,8.6,15,15,14.8,14.8,14.2,14.7],"fetchReefNM":[15,15,14.8,14.5,15,0.2,0.2,0.2,0.2,0.2,0.2,0.2,0.2,0.2,0.2,0.2,0.2,0.2,0.2,0.2,0.2,0.2,0.2,0.3,2,4.2,4.8,0.6,0.6,8.6,15,15,14.8,14.8,14.2,14.7]}},{"type":"Feature","geometry":{"type":"Point","coordinates":[150.57915,-10.24049]},"properties":{"id":"osm-node13924050496","name":"Kalo Bay","kind":"anchorage","source":"OpenStreetMap","sourceRef":"node/13924050496","likelyAnchorage":true,"noAnchoring":false,"noAnchoringName":null,"notes":null,"fetchLandNM":[0.8,1,1,1,1.2,15,1.2,1.1,0.6,14.9,7.1,5.9,5.1,1,0.8,0.8,0.7,0.7,0.7,0.7,0.8,0.8,0.9,0.9,0.8,0.7,0.6,0.6,0.6,0.6,0.6,0.6,0.6,0.6,0.7,0.7],"fetchReefNM":[0.8,1,1,1,1.2,15,1.2,1.1,0.6,14.9,7.1,5.9,5.1,1,0.8,0.8,0.7,0.7,0.7,0.7,0.8,0.8,0.9,0.9,0.8,0.7,0.6,0.6,0.6,0.6,0.6,0.6,0.6,0.6,0.7,0.7]}},{"type":"Feature","geometry":{"type":"Point","coordinates":[150.50421,-10.32714]},"properties":{"id":"osm-node13473104680","name":"Kaloi Bay","kind":"anchorage","source":"OpenStreetMap","sourceRef":"node/13473104680","likelyAnchorage":true,"noAnchoring":false,"noAnchoringName":null,"notes":null,"fetchLandNM":[0.1,0.1,0.1,0.1,0.1,0.1,0.1,0.1,0.1,0.1,0.1,0.1,0.1,0.2,11.5,9.7,8.2,7.2,6.6,6,6,6.2,6.7,7.6,9.3,10.2,7.6,8.7,0.1,0.1,0.1,0.1,0.1,0.1,0.1,0.1],"fetchReefNM":[0.1,0.1,0.1,0.1,0.1,0.1,0.1,0.1,0.1,0.1,0.1,0.1,0.1,0.2,11.5,9.7,8.2,7.2,6.6,6,6,6.2,6.7,7.6,8.8,10.2,7.6,8.7,0.1,0.1,0.1,0.1,0.1,0.1,0.1,0.1]}},{"type":"Feature","geometry":{"type":"Point","coordinates":[151.22853,-10.60765]},"properties":{"id":"osm-node13852852602","name":"Kalolopo Bay","kind":"anchorage","source":"OpenStreetMap","sourceRef":"node/13852852602","likelyAnchorage":true,"noAnchoring":false,"noAnchoringName":null,"notes":null,"fetchLandNM":[0.2,0.2,0.2,0.2,0.3,0.3,0.3,0.3,0.3,0.3,0.3,0.3,0.3,0.2,0.2,0.2,0.3,6.3,15,15,15,15,15,15,7.3,7.2,11.5,9.6,15,15,1.2,0.7,0.4,0.3,0.3,0.2],"fetchReefNM":[0.2,0.2,0.2,0.2,0.3,0.3,0.3,0.3,0.3,0.3,0.3,0.3,0.3,0.2,0.2,0.2,0.3,5.8,6,15,15,15,15,15,7.2,7.1,11.5,9.6,15,1.2,1,0.7,0.4,0.3,0.3,0.2]}},{"type":"Feature","geometry":{"type":"Point","coordinates":[151.20315,-10.58807]},"properties":{"id":"osm-node2574645058","name":"Kalotau","kind":"anchorage","source":"OpenStreetMap","sourceRef":"node/2574645058","likelyAnchorage":true,"noAnchoring":false,"noAnchoringName":null,"notes":null,"fetchLandNM":[15,3.2,15,15,3.8,15,15,15,15,9.5,0.1,0.1,0.1,0.1,0,0,0,0,0,0,0,0,0,0,0,0,0,0,0,0,0,0,0.1,0.1,0.2,15],"fetchReefNM":[0.3,0.1,0,0,0,0,0,0,0,0,0,0.1,0.1,0.1,0,0,0,0,0,0,0,0,0,0,0,0,0,0,0,0,0,0,0.1,0.1,0.2,0.4]}},{"type":"Feature","geometry":{"type":"Point","coordinates":[151.24972,-10.09001]},"properties":{"id":"osm-node13850011094","name":"Kalotau Bay","kind":"anchorage","source":"OpenStreetMap","sourceRef":"node/13850011094","likelyAnchorage":true,"noAnchoring":false,"noAnchoringName":null,"notes":null,"fetchLandNM":[0.2,0.3,0.3,1,1.5,15,15,15,15,15,15,15,15,15,15,15,15,15,0.3,0.3,0.2,0.2,0.2,0.2,0.2,0.2,0.2,0.2,0.2,0.2,0.2,0.2,0.2,0.2,0.2,0.2],"fetchReefNM":[0.2,0.3,0.3,1,1.5,15,15,15,15,15,15,15,15,15,15,15,15,15,0.3,0.3,0.2,0.2,0.2,0.2,0.2,0.2,0.2,0.2,0.2,0.2,0.2,0.2,0.2,0.2,0.2,0.2]}},{"type":"Feature","geometry":{"type":"Point","coordinates":[151.06518,-10.63001]},"properties":{"id":"osm-node13853924439","name":"Kalotau Bay","kind":"anchorage","source":"OpenStreetMap","sourceRef":"node/13853924439","likelyAnchorage":true,"noAnchoring":false,"noAnchoringName":null,"notes":null,"fetchLandNM":[0.7,0.7,0.8,0.9,15,15,15,7.6,9.5,15,15,2.6,15,3.6,2.2,2,2,1.1,1.1,1.2,1.2,1.1,1.3,1.5,1.5,1.1,0.9,0.9,0.8,0.8,1.2,1.1,0.8,0.7,0.7,0.7],"fetchReefNM":[0.7,0.7,0.8,0.9,13.9,8.9,11.7,7.5,9.5,15,15,2.6,10.5,2.2,2.1,1.9,2,1.1,1.1,1.2,1.2,1.1,1.3,1.5,1.5,1.1,0.9,0.9,0.8,0.8,1.2,1.1,0.8,0.7,0.7,0.7]}},{"type":"Feature","geometry":{"type":"Point","coordinates":[150.65337,-10.48095]},"properties":{"id":"osm-node13930495954","name":"Kana Kopi Bay","kind":"anchorage","source":"OpenStreetMap","sourceRef":"node/13930495954","likelyAnchorage":true,"noAnchoring":false,"noAnchoringName":null,"notes":null,"fetchLandNM":[8.3,8.1,10.5,0.2,0.2,0.1,0.1,0.1,0.1,0.2,0.1,0.1,0.1,0.1,0.1,0.1,0.1,0.1,0.1,0.1,0.1,0.1,0.1,0.1,0.1,0.1,0.1,0.1,0.1,0.1,0.1,0.1,0.1,0.1,8.4,8],"fetchReefNM":[8.3,8.1,10.5,0.2,0.2,0.1,0.1,0.1,0.1,0.2,0.1,0.1,0.1,0.1,0.1,0.1,0.1,0.1,0.1,0.1,0.1,0.1,0.1,0.1,0.1,0.1,0.1,0.1,0.1,0.1,0.1,0.1,0.1,0.1,8.4,8]}},{"type":"Feature","geometry":{"type":"Point","coordinates":[151.04961,-10.66567]},"properties":{"id":"osm-node13853924442","name":"Kawalolo Bay","kind":"anchorage","source":"OpenStreetMap","sourceRef":"node/13853924442","likelyAnchorage":true,"noAnchoring":false,"noAnchoringName":null,"notes":null,"fetchLandNM":[0.2,0.2,0.1,0.2,0.2,0.2,0.3,0.4,1.7,1.5,3.5,0.5,0.5,0.4,0.6,15,0.2,0.2,0.2,0.2,0.1,0.1,0.1,0.2,0.3,0.3,0.3,0.5,0.5,0.5,0.2,0.2,0.2,0.2,0.2,0.2],"fetchReefNM":[0.2,0.2,0.1,0.2,0.2,0.2,0.3,0.4,1.6,1.5,3.5,0.5,0.5,0.4,0.6,15,0.2,0.2,0.2,0.2,0.1,0.1,0.1,0.2,0.3,0.3,0.3,0.5,0.5,0.5,0.2,0.2,0.2,0.2,0.2,0.2]}},{"type":"Feature","geometry":{"type":"Point","coordinates":[150.62073,-10.47388]},"properties":{"id":"osm-node13930495959","name":"Kilamaiehela Bay","kind":"anchorage","source":"OpenStreetMap","sourceRef":"node/13930495959","likelyAnchorage":true,"noAnchoring":false,"noAnchoringName":null,"notes":null,"fetchLandNM":[7.6,7.2,9.6,10.9,15,15,15,15,15,0.2,0.1,0.1,0.1,0.1,0.1,0.1,0.1,0.1,0.1,0.1,0.1,0.1,0.1,0.1,0.1,0.2,0.2,0.4,1.7,7.7,15,15,11.9,9.5,8.2,7.6],"fetchReefNM":[7.6,7.2,9.6,10.9,15,15,15,15,15,0.2,0.1,0.1,0.1,0.1,0.1,0.1,0.1,0.1,0.1,0.1,0.1,0.1,0.1,0.1,0.1,0.2,0.2,0.4,1.7,7.7,15,15,11.9,9.5,8.2,7.6]}},{"type":"Feature","geometry":{"type":"Point","coordinates":[150.87363,-10.53575]},"properties":{"id":"osm-node13867665648","name":"Kobuwawa Bay","kind":"anchorage","source":"OpenStreetMap","sourceRef":"node/13867665648","likelyAnchorage":true,"noAnchoring":false,"noAnchoringName":null,"notes":null,"fetchLandNM":[15,15,15,15,15,15,15,15,15,15,15,0.5,0.4,0.4,0.4,0.4,0.2,0.3,0.2,0.2,0.2,0.2,0.3,0.3,0.4,0.3,0.2,0.2,0.3,0.3,0.3,15,15,15,15,15],"fetchReefNM":[13.4,12.8,13.8,12.3,15,15,15,0.8,0.9,1.4,15,0.5,0.4,0.4,0.4,0.4,0.2,0.3,0.2,0.2,0.2,0.2,0.3,0.3,0.4,0.3,0.2,0.2,0.3,0.3,0.3,15,15,15,15,15]}},{"type":"Feature","geometry":{"type":"Point","coordinates":[150.64851,-10.58077]},"properties":{"id":"osm-node13871469991","name":"Kuiaro Bay","kind":"anchorage","source":"OpenStreetMap","sourceRef":"node/13871469991","likelyAnchorage":true,"noAnchoring":false,"noAnchoringName":null,"notes":null,"fetchLandNM":[0.1,0.1,0.2,0.2,0.1,0.1,0.1,0.2,0.1,0.1,0.1,0.1,0.1,0.1,15,7.6,4.2,1.4,2.8,0.5,0.5,0.4,0.4,0.4,0.4,2.9,2.3,0.2,0.1,0.1,0.1,0.1,0.1,0.1,0.1,0.1],"fetchReefNM":[0.1,0.1,0.2,0.2,0.1,0.1,0.1,0.2,0.1,0.1,0.1,0.1,0.1,0.1,15,2,1.9,1.3,0.5,0.5,0.4,0.4,0.4,0.4,0.4,0.4,2.3,0.2,0.1,0.1,0.1,0.1,0.1,0.1,0.1,0.1]}},{"type":"Feature","geometry":{"type":"Point","coordinates":[151.24122,-10.11022]},"properties":{"id":"osm-node13850011092","name":"Kumwarau Bay","kind":"anchorage","source":"OpenStreetMap","sourceRef":"node/13850011092","likelyAnchorage":true,"noAnchoring":false,"noAnchoringName":null,"notes":null,"fetchLandNM":[0.4,0.4,0.4,0.5,15,15,15,15,15,15,15,15,15,15,15,15,15,15,15,2.2,0.4,0.4,0.4,0.4,0.3,0.3,0.2,0.2,0.2,0.2,0.2,0.2,0.2,0.2,0.3,0.3],"fetchReefNM":[0.4,0.4,0.4,0.5,15,15,15,15,15,15,15,15,15,15,15,15,15,15,4.3,2.2,0.4,0.4,0.4,0.4,0.3,0.3,0.2,0.2,0.2,0.2,0.2,0.2,0.2,0.2,0.3,0.3]}},{"type":"Feature","geometry":{"type":"Point","coordinates":[150.29893,-10.17706]},"properties":{"id":"osm-node13931118629","name":"Kuvira Bay","kind":"anchorage","source":"OpenStreetMap","sourceRef":"node/13931118629","likelyAnchorage":true,"noAnchoring":false,"noAnchoringName":null,"notes":null,"fetchLandNM":[15,15,15,15,15,15,15,15,15,15,9.1,1.9,1.6,1.2,0.8,0.8,0.7,0.6,0.7,0.6,0.6,0.6,0.6,0.6,0.5,0.5,0.5,0.5,0.6,0.7,1,15,15,15,15,15],"fetchReefNM":[15,15,15,15,15,15,15,15,15,15,9.1,1.9,1.6,1.2,0.8,0.8,0.7,0.6,0.7,0.6,0.6,0.6,0.6,0.6,0.5,0.5,0.5,0.5,0.6,0.7,1,15,15,15,15,15]}},{"type":"Feature","geometry":{"type":"Point","coordinates":[150.84527,-10.55536]},"properties":{"id":"osm-node13871257269","name":"Kwabunamoa Bay","kind":"anchorage","source":"OpenStreetMap","sourceRef":"node/13871257269","likelyAnchorage":true,"noAnchoring":false,"noAnchoringName":null,"notes":null,"fetchLandNM":[15,15,0.3,0.3,0.2,0.2,0.3,0.4,0.4,0.3,0.4,0.4,0.3,0.4,0.6,0.5,0.6,0.2,0.2,0.3,0.2,0.2,0.2,0.2,0.2,0.2,0.2,0.2,0.4,0.4,0.6,0.6,0.6,15,15,15],"fetchReefNM":[0.5,0.3,0.3,0.3,0.2,0.2,0.3,0.4,0.4,0.3,0.4,0.4,0.3,0.4,0.6,0.5,0.6,0.2,0.2,0.3,0.2,0.2,0.2,0.2,0.2,0.2,0.2,0.2,0.4,0.4,0.6,0.6,0.6,15,15,0.6]}},{"type":"Feature","geometry":{"type":"Point","coordinates":[150.72443,-10.60252]},"properties":{"id":"osm-node13871263067","name":"Labu Labu Bay","kind":"anchorage","source":"OpenStreetMap","sourceRef":"node/13871263067","likelyAnchorage":true,"noAnchoring":false,"noAnchoringName":null,"notes":null,"fetchLandNM":[0.5,15,0.5,0.5,0.9,2.8,4.9,1,0.7,0.6,0.6,0.4,0.3,0.2,0.2,0.3,0.3,0.4,0.5,0.5,0.5,0.4,0.4,0.7,0.6,0.5,0.4,0.4,0.4,0.4,0.3,0.3,0.3,0.3,0.5,0.5],"fetchReefNM":[0.5,15,0.4,0.5,0.7,2.8,2.8,1,0.7,0.6,0.6,0.4,0.3,0.2,0.2,0.3,0.3,0.4,0.5,0.5,0.5,0.4,0.4,0.7,0.6,0.5,0.4,0.4,0.4,0.4,0.3,0.3,0.3,0.3,0.5,0.5]}},{"type":"Feature","geometry":{"type":"Point","coordinates":[150.62077,-10.34976]},"properties":{"id":"osm-node13929190198","name":"Lapia Bay","kind":"anchorage","source":"OpenStreetMap","sourceRef":"node/13929190198","likelyAnchorage":true,"noAnchoring":false,"noAnchoringName":null,"notes":null,"fetchLandNM":[0.2,0.2,0.2,0.2,0.1,0.1,0.3,0.3,0.2,0.2,0.2,0.1,0.1,0.1,0.1,0.1,0.1,7.7,7.6,7.4,7.3,7.5,0.3,0.2,0.2,0.2,0.1,0.1,0.1,0.1,0.1,0.1,0.1,0.1,0.2,0.2],"fetchReefNM":[0.2,0.2,0.2,0.2,0.1,0.1,0.3,0.3,0.2,0.2,0.2,0.1,0.1,0.1,0.1,0.1,0.1,7.7,7.6,7.4,7.3,7.5,0.3,0.2,0.2,0.2,0.1,0.1,0.1,0.1,0.1,0.1,0.1,0.1,0.2,0.2]}},{"type":"Feature","geometry":{"type":"Point","coordinates":[150.21104,-10.1252]},"properties":{"id":"osm-node13931119051","name":"Lavora Bay","kind":"anchorage","source":"OpenStreetMap","sourceRef":"node/13931119051","likelyAnchorage":true,"noAnchoring":false,"noAnchoringName":null,"notes":null,"fetchLandNM":[15,15,15,15,15,15,15,15,15,15,15,1.1,0.6,0.6,0.5,0.5,0.5,0.5,0.5,0.4,0.4,0.5,0.5,0.6,0.5,0.5,0.5,0.5,0.8,0.8,1,1.2,15,15,15,15],"fetchReefNM":[15,15,15,15,15,15,15,15,15,15,15,1.1,0.6,0.6,0.5,0.5,0.5,0.5,0.5,0.4,0.4,0.5,0.5,0.6,0.5,0.5,0.5,0.5,0.8,0.8,1,1.2,15,15,15,15]}},{"type":"Feature","geometry":{"type":"Point","coordinates":[150.05485,-10.63034]},"properties":{"id":"osm-node10290787595","name":"Lawes Bay","kind":"anchorage","source":"OpenStreetMap","sourceRef":"node/10290787595","likelyAnchorage":true,"noAnchoring":false,"noAnchoringName":null,"notes":null,"fetchLandNM":[0.5,0.5,0.5,0.5,0.4,0.4,0.5,0.5,0.6,0.7,0.9,0.9,1,1,15,15,15,15,15,15,15,15,15,15,15,0.8,0.7,0.6,0.6,0.7,0.7,0.7,0.6,0.6,0.6,0.5],"fetchReefNM":[0.5,0.5,0.5,0.5,0.4,0.4,0.5,0.5,0.6,0.7,0.9,0.9,1,1,15,15,15,15,15,15,15,15,15,15,15,0.8,0.7,0.6,0.6,0.7,0.7,0.7,0.6,0.6,0.6,0.5]}},{"type":"Feature","geometry":{"type":"Point","coordinates":[150.95022,-10.04135]},"properties":{"id":"osm-node13845631737","name":"Lebudowa Bay","kind":"anchorage","source":"OpenStreetMap","sourceRef":"node/13845631737","likelyAnchorage":true,"noAnchoring":false,"noAnchoringName":null,"notes":null,"fetchLandNM":[0.2,0.2,0.2,0.2,0.3,0.3,0.3,0.3,0.3,0.3,0.3,0.3,0.4,0.5,0.5,0.7,1.5,2.4,15,15,11.5,12.9,15,15,15,15,15,15,15,15,2.7,2.6,2.9,0.2,0.2,0.2],"fetchReefNM":[0.2,0.2,0.2,0.2,0.3,0.3,0.3,0.3,0.3,0.3,0.3,0.3,0.4,0.5,0.5,0.7,1.5,2.4,11.6,11.4,11.2,12.9,15,15,15,15,15,15,15,15,2.7,2.6,2.9,0.2,0.2,0.2]}},{"type":"Feature","geometry":{"type":"Point","coordinates":[150.74513,-10.3018]},"properties":{"id":"osm-node13923832518","name":"Lelehudi Bay","kind":"anchorage","source":"OpenStreetMap","sourceRef":"node/13923832518","likelyAnchorage":true,"noAnchoring":false,"noAnchoringName":null,"notes":null,"fetchLandNM":[0.3,0.3,0.3,0.3,0.4,0.4,0.6,0.8,0.9,10.4,15,15,15,15,15,15,15,15,15,15,13.6,12.1,13.3,14.5,4.9,1.5,0.8,0.8,0.8,0.8,0.6,0.4,0.4,0.4,0.3,0.3],"fetchReefNM":[0.3,0.3,0.3,0.3,0.4,0.4,0.6,0.8,0.9,7.3,13.9,15,15,15,15,15,15,15,13.5,15,13.6,12.1,13.3,14.5,4.9,1.5,0.8,0.8,0.8,0.8,0.6,0.4,0.4,0.4,0.3,0.3]}},{"type":"Feature","geometry":{"type":"Point","coordinates":[150.81996,-10.61442]},"properties":{"id":"osm-node13871262895","name":"Liliki Bay","kind":"anchorage","source":"OpenStreetMap","sourceRef":"node/13871262895","likelyAnchorage":true,"noAnchoring":false,"noAnchoringName":null,"notes":null,"fetchLandNM":[1.7,1.6,1.2,1.3,1.3,0.7,0.8,0.8,1.1,2.4,2.7,3.3,3.3,2.8,1.4,1.2,1.1,1.1,1,0.8,1,1,0.8,1.3,1.3,1.1,1.5,2,2.8,5.4,6.3,4.1,15,15,3.1,1.9],"fetchReefNM":[1.7,1.6,1.2,1.3,1.3,0.7,0.8,0.8,1.1,2.4,2.7,3.3,3.3,2.8,1.4,1.2,1.1,1.1,1,0.8,1,1,0.8,1.3,1.3,1.1,1.5,2,2.8,3.3,0.6,3.9,6.8,3,3.1,1.9]}},{"type":"Feature","geometry":{"type":"Point","coordinates":[150.81354,-10.57965]},"properties":{"id":"osm-node13871262893","name":"Lipelipeyai Bay","kind":"anchorage","source":"OpenStreetMap","sourceRef":"node/13871262893","likelyAnchorage":true,"noAnchoring":false,"noAnchoringName":null,"notes":null,"fetchLandNM":[0.1,0.1,0.1,0.1,0.1,0.1,0.1,0.2,0.2,0.2,0.2,0.2,0.1,0.1,0.1,0.1,0.1,0.1,0.1,3,2.9,2.7,2.6,2.8,3,4,5,5.5,2.9,2.5,1.1,15,0.7,0.6,0.5,0.2],"fetchReefNM":[0.1,0.1,0.1,0.1,0.1,0.1,0.1,0.2,0.2,0.2,0.2,0.2,0.1,0.1,0.1,0.1,0.1,0.1,0.1,1.7,2.9,2.7,2.6,2.8,3,3,5,2.8,2.1,2.4,1,4.1,0.7,0.6,0.5,0.2]}},{"type":"Feature","geometry":{"type":"Point","coordinates":[150.65922,-10.64204]},"properties":{"id":"osm-node13867353670","name":"Logea Pota Bay","kind":"anchorage","source":"OpenStreetMap","sourceRef":"node/13867353670","likelyAnchorage":true,"noAnchoring":false,"noAnchoringName":null,"notes":null,"fetchLandNM":[3.4,1.7,4.8,2.7,2.4,3,3.4,2.9,4,7.7,15,15,15,4.4,0.5,0.3,0.2,0.2,0.2,0.2,0.2,0.2,0.2,0.2,0.2,0.2,0.2,0.2,0.2,0.2,0.2,0.2,0.2,0.2,0.3,2.3],"fetchReefNM":[1.7,1.6,4.8,2.7,2.4,3,3.4,2.9,4,7.7,15,0.8,15,4.4,0.5,0.3,0.2,0.2,0.2,0.2,0.2,0.2,0.2,0.2,0.2,0.2,0.2,0.2,0.2,0.2,0.2,0.2,0.2,0.2,0.3,2.2]}},{"type":"Feature","geometry":{"type":"Point","coordinates":[150.70135,-10.61413]},"properties":{"id":"osm-node13871263068","name":"Magalkalona Bay","kind":"anchorage","source":"OpenStreetMap","sourceRef":"node/13871263068","likelyAnchorage":true,"noAnchoring":false,"noAnchoringName":null,"notes":null,"fetchLandNM":[0.2,0.3,0.3,0.4,0.4,0.4,0.3,0.3,0.3,0.4,0.5,0.5,0.4,0.3,0.3,0.5,0.7,0.2,5,4.9,4.7,3.2,2.6,3,3,2.9,3.4,2,0.6,0.5,0.5,0.5,0.2,0.2,0.2,0.2],"fetchReefNM":[0.2,0.3,0.3,0.4,0.4,0.4,0.3,0.3,0.3,0.4,0.5,0.5,0.4,0.3,0.3,0.5,0.7,0.2,5,4.9,4.7,3.2,2.5,3,3,2.9,3.4,2,0.6,0.5,0.5,0.5,0.2,0.2,0.2,0.2]}},{"type":"Feature","geometry":{"type":"Point","coordinates":[150.00383,-10.08336]},"properties":{"id":"osm-node13931447545","name":"Makuri Bay","kind":"anchorage","source":"OpenStreetMap","sourceRef":"node/13931447545","likelyAnchorage":true,"noAnchoring":false,"noAnchoringName":null,"notes":null,"fetchLandNM":[15,15,15,15,15,15,0.2,0.2,0.2,0.2,0.2,0.2,0.2,0.2,0.2,0.2,0.2,0.1,0.1,0.1,0.1,0.2,0.2,0.2,0.2,0.3,0.3,0.7,0.9,5.2,7,14.8,15,15,15,15],"fetchReefNM":[15,15,15,15,15,15,0.2,0.2,0.2,0.2,0.2,0.2,0.2,0.2,0.2,0.2,0.2,0.1,0.1,0.1,0.1,0.2,0.2,0.2,0.2,0.3,0.3,0.7,0.9,5.2,7,14.8,15,15,15,15]}},{"type":"Feature","geometry":{"type":"Point","coordinates":[150.40841,-10.35499]},"properties":{"id":"osm-node2609539358","name":"Milne Bay","kind":"anchorage","source":"OpenStreetMap","sourceRef":"node/2609539358","likelyAnchorage":true,"noAnchoring":false,"noAnchoringName":null,"notes":null,"fetchLandNM":[3.5,2.9,2.8,3.2,3.6,3.6,3.9,5.5,7.2,10.7,15,15,14.5,6.6,5.2,4.1,3.4,3.1,3.3,3.1,3.2,3.4,3.8,4.2,4.6,4.1,4,2.7,1.9,3.7,3.5,3.2,2.9,2.6,2.7,3.2],"fetchReefNM":[3.5,2.9,2.8,3.2,3.6,3.6,3.9,5.5,7.2,10.7,15,15,14.5,6.6,5.2,4.1,3.4,3.1,3.3,3.1,3.2,3.4,3.7,4.2,4.6,4.1,4,2.7,1.9,3.7,3.5,3.2,2.9,2.6,2.7,3.2]}},{"type":"Feature","geometry":{"type":"Point","coordinates":[150.4531,-10.36943]},"properties":{"id":"osm-node13473104677","name":"Milne Bay","kind":"anchorage","source":"OpenStreetMap","sourceRef":"node/13473104677","likelyAnchorage":true,"noAnchoring":false,"noAnchoringName":null,"notes":null,"fetchLandNM":[3.6,3,3,3.1,3.8,4.1,4.3,5.6,7.6,15,15,15,12.7,8.4,5.7,3.9,3.4,3,2.8,2.7,2.8,2.8,2.8,3.7,4.3,5.8,6.7,6.6,5.4,6.3,5.8,5,5.1,4.2,3.8,3.7],"fetchReefNM":[3.6,3,3,3.1,3.8,4.1,4.3,5.6,7.3,15,15,15,12.7,8.4,5.7,3.9,3.4,3,2.8,2.7,2.8,2.8,2.8,3.7,4.3,5.8,6.7,6.6,5.4,6.3,5.8,5,5.1,4.2,3.8,3.7]}},{"type":"Feature","geometry":{"type":"Point","coordinates":[150.33429,-10.66943]},"properties":{"id":"osm-node10290787583","name":"Modewa Bay","kind":"anchorage","source":"OpenStreetMap","sourceRef":"node/10290787583","likelyAnchorage":true,"noAnchoring":false,"noAnchoringName":null,"notes":null,"fetchLandNM":[1,1,1,1.1,1.1,1.1,1.3,1.4,1.4,1.1,1.4,1.5,1.5,15,2.1,5.8,6,15,15,15,15,4,4,15,4.4,1.7,1.6,1.3,1.2,1,1,1,1.1,1.1,1,1],"fetchReefNM":[1,1,1,1.1,1.1,1.1,1.3,1.4,1.4,1.1,1.4,1.5,1.5,2.2,1.9,1.6,1.9,15,15,15,15,4,4,15,4.4,1.7,1.6,1.3,1.2,1,1,1,1.1,1.1,1,1]}},{"type":"Feature","geometry":{"type":"Point","coordinates":[150.37165,-10.68449]},"properties":{"id":"osm-node13871526919","name":"Moilawa Bay","kind":"anchorage","source":"OpenStreetMap","sourceRef":"node/13871526919","likelyAnchorage":true,"noAnchoring":false,"noAnchoringName":null,"notes":null,"fetchLandNM":[0.3,0.3,0.3,0.3,0.3,0.3,0.3,0.3,0.3,0.3,0.3,0.3,0.3,15,15,4.9,4.1,4.1,4.7,15,15,15,15,15,0.2,0.2,0.3,0.3,0.3,0.3,0.3,0.3,0.3,0.3,0.3,0.3],"fetchReefNM":[0.3,0.3,0.3,0.3,0.3,0.3,0.3,0.3,0.3,0.3,0.3,0.3,0.3,15,15,4.9,4.1,0.6,0.5,0.5,0.5,0.6,0.7,0.9,0.2,0.2,0.3,0.3,0.3,0.3,0.3,0.3,0.3,0.3,0.3,0.3]}},{"type":"Feature","geometry":{"type":"Point","coordinates":[151.27118,-10.03227]},"properties":{"id":"osm-node13850011104","name":"Mwagalowa Bay","kind":"anchorage","source":"OpenStreetMap","sourceRef":"node/13850011104","likelyAnchorage":true,"noAnchoring":false,"noAnchoringName":null,"notes":null,"fetchLandNM":[0.2,0.3,0.4,0.6,15,15,15,15,15,15,15,15,15,15,15,15,15,15,15,0.7,0.2,0.1,0.1,0.1,0.1,0.1,0.1,0.1,0.1,0.1,0.1,0.1,0.1,0.1,0.1,0.2],"fetchReefNM":[0.2,0.3,0.4,0.6,15,15,15,15,15,15,15,15,15,15,15,15,15,15,15,0.7,0.2,0.1,0.1,0.1,0.1,0.1,0.1,0.1,0.1,0.1,0.1,0.1,0.1,0.1,0.1,0.2]}},{"type":"Feature","geometry":{"type":"Point","coordinates":[151.04174,-10.6404]},"properties":{"id":"osm-node13853924440","name":"Mwahiu Bay","kind":"anchorage","source":"OpenStreetMap","sourceRef":"node/13853924440","likelyAnchorage":true,"noAnchoring":false,"noAnchoringName":null,"notes":null,"fetchLandNM":[0.1,0.1,0.1,0.2,0.2,0.3,15,9.2,11.5,15,15,1.3,0.7,0.2,0.2,0.1,0.1,0.1,0.2,0.2,0.2,0.2,0.3,0.3,0.3,0.3,0.3,0.2,0.2,0.2,0.2,0.1,0.1,0.1,0.1,0.2],"fetchReefNM":[0.1,0.1,0.1,0.2,0.2,0.3,13,9.1,11.5,3.9,15,1.3,0.7,0.2,0.2,0.1,0.1,0.1,0.2,0.2,0.2,0.2,0.3,0.3,0.3,0.3,0.3,0.2,0.2,0.2,0.2,0.1,0.1,0.1,0.1,0.2]}},{"type":"Feature","geometry":{"type":"Point","coordinates":[150.66691,-10.65462]},"properties":{"id":"osm-node13871477439","name":"Nakala Bay","kind":"anchorage","source":"OpenStreetMap","sourceRef":"node/13871477439","likelyAnchorage":true,"noAnchoring":false,"noAnchoringName":null,"notes":null,"fetchLandNM":[2.5,5.2,3,3,0.5,0.5,3.6,3.8,6.9,11.2,15,15,15,1.6,0.5,0.3,0.2,0.2,0.2,0.2,0.2,0.2,0.2,0.2,0.2,0.2,0.2,0.2,0.2,0.2,0.2,0.2,0.2,0.2,0.3,0.3],"fetchReefNM":[0.1,0.2,3,3,0.5,0.5,0.5,3.8,4.5,11.2,0.8,15,15,1.6,0.5,0.2,0.1,0.1,0.1,0.1,0.1,0.1,0.1,0.1,0.1,0.1,0.1,0.1,0.1,0.1,0.1,0.2,0.1,0.1,0.1,0.1]}},{"type":"Feature","geometry":{"type":"Point","coordinates":[150.74361,-10.61072]},"properties":{"id":"osm-node13871263057","name":"Namoai Bay","kind":"anchorage","source":"OpenStreetMap","sourceRef":"node/13871263057","likelyAnchorage":true,"noAnchoring":false,"noAnchoringName":null,"notes":null,"fetchLandNM":[0.2,0.3,0.3,0.3,0.3,0.3,0.4,0.5,1.1,1.1,1.3,1.2,1.2,4.1,1,0.7,0.5,0.3,0.3,0.4,0.3,0.2,0.3,0.3,0.8,0.6,0.5,0.5,0.3,0.3,0.3,0.3,0.2,0.2,0.2,0.2],"fetchReefNM":[0.2,0.3,0.3,0.3,0.3,0.3,0.4,0.5,1.1,1.1,1.3,0.8,1.2,4.1,1,0.2,0.2,0.2,0.3,0.4,0.3,0.2,0.3,0.3,0.8,0.6,0.5,0.5,0.3,0.3,0.3,0.3,0.2,0.2,0.2,0.2]}},{"type":"Feature","geometry":{"type":"Point","coordinates":[150.50489,-10.43107]},"properties":{"id":"osm-node13473104675","name":"Nananalai Bay","kind":"anchorage","source":"OpenStreetMap","sourceRef":"node/13473104675","likelyAnchorage":true,"noAnchoring":false,"noAnchoringName":null,"notes":null,"fetchLandNM":[6.4,5.9,6,6.1,6.7,7.5,9.3,15,15,15,15,7.5,2.1,1.2,0.6,0.5,0.4,0.4,0.3,0.3,0.3,0.3,0.3,0.3,0.3,0.3,0.4,0.4,0.4,0.5,11.1,10.4,9.9,8.4,7,6.6],"fetchReefNM":[6.4,5.9,6,6.1,6.4,7.5,9.3,15,15,15,15,7.5,2.1,1.2,0.6,0.5,0.4,0.4,0.3,0.3,0.3,0.3,0.3,0.3,0.3,0.3,0.4,0.4,0.4,0.5,11.1,10.4,9.9,8.4,7,6.6]}},{"type":"Feature","geometry":{"type":"Point","coordinates":[150.51967,-10.44198]},"properties":{"id":"osm-node13930540098","name":"Nawarai Bay","kind":"anchorage","source":"OpenStreetMap","sourceRef":"node/13930540098","likelyAnchorage":true,"noAnchoring":false,"noAnchoringName":null,"notes":null,"fetchLandNM":[6.5,6.4,6.3,6.7,7.3,8,15,15,15,15,15,5.4,0.3,0.2,0.1,0.1,0.1,0.1,0.1,0.1,0.1,0.1,0.1,0.1,0.1,0.2,0.2,0.3,0.3,0.5,1.5,11.5,11,9.3,7.6,7],"fetchReefNM":[6.5,6.4,6.3,6.7,7.3,8,15,15,15,15,15,5.4,0.3,0.2,0.1,0.1,0.1,0.1,0.1,0.1,0.1,0.1,0.1,0.1,0.1,0.2,0.2,0.3,0.3,0.5,1.5,11.5,11,9.3,7.6,7]}},{"type":"Feature","geometry":{"type":"Point","coordinates":[150.23808,-10.19808]},"properties":{"id":"osm-way1528772342","name":"Nevira Creek","kind":"anchorage","source":"OpenStreetMap","sourceRef":"way/1528772342","likelyAnchorage":true,"noAnchoring":false,"noAnchoringName":null,"notes":null,"fetchLandNM":[3.8,3.7,3.2,3,2.8,3.2,3.3,3.3,3.6,6.8,15,15,13.4,11.1,10.6,12.4,15,15,15,15,15,15,15,15,15,15,15,15,15,15,14.3,7.7,7.5,7.4,4.2,4],"fetchReefNM":[3.8,3.7,3.2,3,2.8,3.2,3.3,3.3,3.6,6.8,15,15,13.4,11.1,10.6,12.4,15,15,15,15,15,15,15,15,15,15,15,15,15,15,14.3,7.7,7.5,7.4,4.2,4]}},{"type":"Feature","geometry":{"type":"Point","coordinates":[150.66767,-10.5132]},"properties":{"id":"osm-node13871469988","name":"Nuwabuli Bay","kind":"anchorage","source":"OpenStreetMap","sourceRef":"node/13871469988","likelyAnchorage":true,"noAnchoring":false,"noAnchoringName":null,"notes":null,"fetchLandNM":[11.1,11.9,13.8,15,15,15,15,15,15,15,7.8,8.1,5.9,3.9,5.6,0.1,0.1,0.1,0.1,0.1,0.1,0.1,0.1,0.1,0.1,0.1,0.1,0.1,0.1,0.1,0.1,0.1,0.1,0.2,0.2,0.3],"fetchReefNM":[11.1,11.9,13.8,15,15,15,15,1.5,1.7,2.1,5.5,8.1,5.6,3.5,3.7,0.1,0.1,0.1,0.1,0.1,0.1,0.1,0.1,0.1,0.1,0.1,0.1,0.1,0.1,0.1,0.1,0.1,0.1,0.2,0.2,0.3]}},{"type":"Feature","geometry":{"type":"Point","coordinates":[150.77936,-10.62675]},"properties":{"id":"osm-node13871263053","name":"Oba Bay","kind":"anchorage","source":"OpenStreetMap","sourceRef":"node/13871263053","likelyAnchorage":true,"noAnchoring":false,"noAnchoringName":null,"notes":null,"fetchLandNM":[0.4,0.4,0.3,0.3,0.3,0.3,0.4,0.4,0.4,0.5,0.5,0.5,0.5,0.5,0.5,0.5,0.5,15,15,15,15,5,5,15,7,2.3,1.3,1.2,0.7,0.7,0.7,0.6,0.6,0.4,0.4,0.4],"fetchReefNM":[0.4,0.4,0.3,0.3,0.3,0.3,0.4,0.4,0.4,0.5,0.5,0.5,0.5,0.5,0.5,0.5,0.5,15,15,15,15,5,5,15,7,2.3,1.3,1.2,0.7,0.7,0.7,0.6,0.6,0.4,0.4,0.4]}},{"type":"Feature","geometry":{"type":"Point","coordinates":[150.47091,-10.20682]},"properties":{"id":"osm-node13931116085","name":"Paupau Bay","kind":"anchorage","source":"OpenStreetMap","sourceRef":"node/13931116085","likelyAnchorage":true,"noAnchoring":false,"noAnchoringName":null,"notes":null,"fetchLandNM":[15,15,15,15,15,15,15,15,15,4.3,3.6,3.5,2.3,0.5,0.4,0.4,0.3,0.3,0.3,0.3,0.2,0.2,0.2,0.2,0.2,0.2,0.3,0.3,0.4,0.4,0.5,15,15,15,15,15],"fetchReefNM":[15,15,15,15,15,15,15,15,15,4.3,3.6,3.5,2.3,0.5,0.4,0.4,0.3,0.3,0.3,0.3,0.2,0.2,0.2,0.2,0.2,0.2,0.3,0.3,0.4,0.4,0.5,15,15,15,15,15]}},{"type":"Feature","geometry":{"type":"Point","coordinates":[150.55058,-10.34441]},"properties":{"id":"osm-node13929240413","name":"Peletania Bay","kind":"anchorage","source":"OpenStreetMap","sourceRef":"node/13929240413","likelyAnchorage":true,"noAnchoring":false,"noAnchoringName":null,"notes":null,"fetchLandNM":[0.1,0.1,0.1,0,0,0,0,0,0,0.1,0.1,0.1,15,15,15,9,8.1,7.2,6.6,6.3,6.2,6.1,6.5,6.9,8.1,10.6,12.5,10.7,9.8,1.9,0.9,0.1,0,0,0,0],"fetchReefNM":[0.1,0.1,0.1,0,0,0,0,0,0,0.1,0.1,0.1,15,15,15,9,8.1,7.2,6.6,6.3,6.2,6.1,6.5,6.9,8.1,10.6,12.5,10.7,9.8,1.9,0.9,0.1,0,0,0,0]}},{"type":"Feature","geometry":{"type":"Point","coordinates":[150.6943,-10.58656]},"properties":{"id":"osm-node13871263092","name":"Possession Bay","kind":"anchorage","source":"OpenStreetMap","sourceRef":"node/13871263092","likelyAnchorage":true,"noAnchoring":false,"noAnchoringName":null,"notes":null,"fetchLandNM":[1.4,15,15,0.5,0.5,0.4,0.3,0.3,0.3,0.3,0.2,0.2,0.2,0.3,0.2,0.2,0.2,0.2,0.3,0.3,0.2,0.3,0.3,0.3,0.3,4,6.1,3,1.8,1.5,1.2,1.6,1.3,1.3,1.3,1.3],"fetchReefNM":[1.4,15,2,0.5,0.5,0.4,0.3,0.3,0.3,0.3,0.2,0.2,0.2,0.3,0.2,0.2,0.2,0.2,0.3,0.3,0.2,0.3,0.3,0.3,0.3,4,6.1,2.9,1.8,1.5,1.2,1.6,1.1,1.3,1.3,1.3]}},{"type":"Feature","geometry":{"type":"Point","coordinates":[150.45347,-10.3096]},"properties":{"id":"osm-node8311488354","name":"Sanderson Bay","kind":"anchorage","source":"OpenStreetMap","sourceRef":"node/8311488354","likelyAnchorage":true,"noAnchoring":false,"noAnchoringName":null,"notes":null,"fetchLandNM":[0.1,0.1,0.1,0.1,0.1,0.1,0.1,0.1,0.1,0.1,0.1,0.1,0.1,0.1,0.1,0.1,0.3,6.9,6.4,6.3,6.1,6.7,7.4,8.3,0.1,0.1,0,0,0,0,0,0,0,0,0.1,0.1],"fetchReefNM":[0.1,0.1,0.1,0.1,0.1,0.1,0.1,0.1,0.1,0.1,0.1,0.1,0.1,0.1,0.1,0.1,0.3,6.9,6.4,6.3,6.1,6.7,7.1,8.3,0.1,0.1,0,0,0,0,0,0,0,0,0.1,0.1]}},{"type":"Feature","geometry":{"type":"Point","coordinates":[150.44391,-10.31382]},"properties":{"id":"osm-node13947007633","name":"Sanderson Bay","kind":"anchorage","source":"OpenStreetMap","sourceRef":"node/13947007633","likelyAnchorage":true,"noAnchoring":false,"noAnchoringName":null,"notes":null,"fetchLandNM":[0.3,0.3,0.3,0.3,0.4,0.5,0.5,0.7,0.7,0.7,0.7,0.7,15,15,11.6,9,7.2,6.5,6,5.7,6.1,6.4,7,7.8,6.9,5.9,5.3,3.1,0.9,0.7,0.6,0.5,0.5,0.4,0.4,0.3],"fetchReefNM":[0.3,0.3,0.3,0.3,0.4,0.5,0.5,0.7,0.7,0.7,0.7,0.7,15,15,11.6,9,7.2,6.5,6,5.7,6.1,6.4,6.9,7.8,6.9,5.9,5.3,3.1,0.9,0.7,0.6,0.5,0.5,0.4,0.4,0.3]}},{"type":"Feature","geometry":{"type":"Point","coordinates":[150.40504,-10.30601]},"properties":{"id":"osm-node13473104676","name":"Stringer Bay","kind":"anchorage","source":"OpenStreetMap","sourceRef":"node/13473104676","likelyAnchorage":true,"noAnchoring":false,"noAnchoringName":null,"notes":null,"fetchLandNM":[0.4,0.4,0.5,0.6,0.6,0.6,0.5,0.4,0.5,0.6,0.7,15,15,15,10.8,8.1,6.9,6.1,6.1,6.1,6.3,6.5,5.7,4.4,0.9,0.7,0.6,0.6,0.5,0.5,0.4,0.4,0.4,0.4,0.4,0.4],"fetchReefNM":[0.4,0.4,0.5,0.6,0.6,0.6,0.5,0.4,0.5,0.6,0.7,15,15,15,10.8,8.1,6.9,6.1,6.1,6.1,6.2,6.5,5.7,4.4,0.9,0.7,0.6,0.6,0.5,0.5,0.4,0.4,0.4,0.4,0.4,0.4]}},{"type":"Feature","geometry":{"type":"Point","coordinates":[150.56928,-10.61602]},"properties":{"id":"osm-node13871469997","name":"Suahia Bay","kind":"anchorage","source":"OpenStreetMap","sourceRef":"node/13871469997","likelyAnchorage":true,"noAnchoring":false,"noAnchoringName":null,"notes":null,"fetchLandNM":[0.2,0.2,0.2,0.5,0.9,1,1.1,4.7,6.8,5.7,3.5,4.1,9.4,15,15,15,15,0.8,0.7,0.6,15,0.4,0.3,0.2,0.2,0.2,0.2,0.2,0.2,0.2,0.2,0.2,0.2,0.2,0.2,0.2],"fetchReefNM":[0.2,0.2,0.2,0.5,0.9,1,1.1,4.7,6.8,3.6,3.5,4.1,9.4,15,15,15,15,0.8,0.7,0.6,15,0.4,0.3,0.2,0.2,0.2,0.2,0.2,0.2,0.2,0.2,0.2,0.2,0.2,0.2,0.2]}},{"type":"Feature","geometry":{"type":"Point","coordinates":[150.70766,-10.58027]},"properties":{"id":"osm-node13871263094","name":"Tanabuibuina Bay","kind":"anchorage","source":"OpenStreetMap","sourceRef":"node/13871263094","likelyAnchorage":true,"noAnchoring":false,"noAnchoringName":null,"notes":null,"fetchLandNM":[1.5,1.5,1.4,1.1,0.5,0.4,0.4,2.7,0.2,0.2,0.2,0.2,0.3,0.2,0.2,0.2,0.2,0.4,0.4,0.4,0.4,0.2,0.2,0.2,0.3,0.2,0.2,0.2,0.2,0.2,0.2,0.2,0.3,1.6,14.3,15],"fetchReefNM":[1.2,1.3,1.1,1.1,0.5,0.4,0.4,2.4,0.2,0.2,0.2,0.2,0.3,0.2,0.2,0.2,0.2,0.4,0.4,0.4,0.4,0.2,0.2,0.2,0.3,0.2,0.2,0.2,0.2,0.2,0.2,0.2,0.3,1.6,14.3,4.5]}},{"type":"Feature","geometry":{"type":"Point","coordinates":[151.21892,-10.17116]},"properties":{"id":"osm-node13850011090","name":"Taupwaboboli Bay","kind":"anchorage","source":"OpenStreetMap","sourceRef":"node/13850011090","likelyAnchorage":true,"noAnchoring":false,"noAnchoringName":null,"notes":null,"fetchLandNM":[0.3,0.3,0.3,0.3,0.3,0.4,0.5,15,15,15,15,15,15,15,15,15,15,0.7,0.6,0.5,0.4,0.3,0.3,0.3,0.3,0.3,0.3,0.4,0.4,0.5,0.4,0.4,0.3,0.3,0.3,0.3],"fetchReefNM":[0.3,0.3,0.3,0.3,0.3,0.4,0.5,15,15,15,15,15,1.5,1.7,1.8,1.9,2.1,0.7,0.6,0.5,0.4,0.3,0.3,0.3,0.3,0.3,0.3,0.4,0.4,0.5,0.4,0.4,0.3,0.3,0.3,0.3]}},{"type":"Feature","geometry":{"type":"Point","coordinates":[151.23949,-10.60334]},"properties":{"id":"osm-node13852852600","name":"Tawalai Bay","kind":"anchorage","source":"OpenStreetMap","sourceRef":"node/13852852600","likelyAnchorage":true,"noAnchoring":false,"noAnchoringName":null,"notes":null,"fetchLandNM":[15,15,15,15,15,15,2.8,15,15,15,15,0.4,0.3,0.3,0.3,0.3,0.3,0.2,0.2,0.2,0.2,0.2,0.2,0.2,0.2,0.3,0.3,0.3,0.4,0.7,15,15,15,15,4.4,15],"fetchReefNM":[4.3,5.3,2.6,2.1,1.6,2.1,2.2,15,1.2,2.4,3.1,0.4,0.3,0.3,0.3,0.3,0.3,0.2,0.2,0.2,0.2,0.2,0.2,0.2,0.2,0.3,0.3,0.3,0.4,0.7,2.5,1.7,3,5.3,1.4,10.8]}},{"type":"Feature","geometry":{"type":"Point","coordinates":[150.19498,-10.68798]},"properties":{"id":"osm-node10290787590","name":"Tawaleha Bay","kind":"anchorage","source":"OpenStreetMap","sourceRef":"node/10290787590","likelyAnchorage":true,"noAnchoring":false,"noAnchoringName":null,"notes":null,"fetchLandNM":[0.2,0.2,0.2,0.2,0.3,0.3,0.4,0.7,0.7,0.7,0.6,0.6,0.5,0.6,0.5,0.6,15,15,15,15,15,15,15,15,15,15,0.5,0.5,0.6,0.5,0.5,0.4,0.3,0.2,0.2,0.2],"fetchReefNM":[0.2,0.2,0.2,0.2,0.3,0.3,0.4,0.7,0.7,0.7,0.6,0.6,0.5,0.6,0.5,0.6,15,15,15,15,15,15,15,15,15,15,0.5,0.5,0.6,0.5,0.5,0.4,0.3,0.2,0.2,0.2]}},{"type":"Feature","geometry":{"type":"Point","coordinates":[150.81188,-10.24663]},"properties":{"id":"osm-node13923822693","name":"Tipaulina Bay","kind":"anchorage","source":"OpenStreetMap","sourceRef":"node/13923822693","likelyAnchorage":true,"noAnchoring":false,"noAnchoringName":null,"notes":null,"fetchLandNM":[15,15,15,15,13.5,12.9,1.4,1.2,1.1,0.5,0.5,0.5,0.4,0.4,0.4,0.3,0.3,0.3,0.3,0.3,0.4,0.5,0.6,0.7,1,1,4.7,14.4,15,15,15,15,15,15,15,15],"fetchReefNM":[15,15,15,15,13.5,12.9,1.4,1.2,1.1,0.5,0.5,0.5,0.4,0.4,0.4,0.3,0.3,0.3,0.3,0.3,0.4,0.5,0.6,0.7,1,1,4.7,14.4,15,15,15,15,15,15,15,15]}},{"type":"Feature","geometry":{"type":"Point","coordinates":[150.80445,-10.26714]},"properties":{"id":"osm-node13923832512","name":"Toulaihalhopo Bay","kind":"anchorage","source":"OpenStreetMap","sourceRef":"node/13923832512","likelyAnchorage":true,"noAnchoring":false,"noAnchoringName":null,"notes":null,"fetchLandNM":[0.1,0.1,0,0,0,0.1,0.1,0.1,0.1,12.9,12.7,15,15,15,15,15,15,15,15,15,15,0,0,0,0,0,0,0,0,0,0.1,0.1,0.1,0.1,0.1,0.1],"fetchReefNM":[0.1,0.1,0,0,0,0.1,0.1,0.1,0.1,6.1,5.1,4.5,4.3,15,15,15,15,15,15,15,15,0,0,0,0,0,0,0,0,0,0.1,0.1,0.1,0.1,0.1,0.1]}},{"type":"Feature","geometry":{"type":"Point","coordinates":[150.31834,-10.1886]},"properties":{"id":"osm-node13931118628","name":"Ube Bay","kind":"anchorage","source":"OpenStreetMap","sourceRef":"node/13931118628","likelyAnchorage":true,"noAnchoring":false,"noAnchoringName":null,"notes":null,"fetchLandNM":[15,15,15,15,15,15,15,15,15,0.6,0.5,0.4,0.2,0.2,0.2,0.2,0.1,0.1,0.1,0.1,0.1,0.2,0.2,0.2,0.2,0.2,0.3,0.4,1.5,1.8,2.3,15,15,15,15,15],"fetchReefNM":[15,15,15,15,15,15,15,15,15,0.6,0.5,0.4,0.2,0.2,0.2,0.2,0.1,0.1,0.1,0.1,0.1,0.2,0.2,0.2,0.2,0.2,0.3,0.4,1.5,1.8,2.3,15,15,15,15,15]}},{"type":"Feature","geometry":{"type":"Point","coordinates":[150.56845,-10.34483]},"properties":{"id":"osm-node13929240403","name":"Upa Ui Bay","kind":"anchorage","source":"OpenStreetMap","sourceRef":"node/13929240403","likelyAnchorage":true,"noAnchoring":false,"noAnchoringName":null,"notes":null,"fetchLandNM":[0.1,0.1,0.1,0.1,0.1,0.1,0.1,0.1,0.2,0.2,0.3,1.1,15,15,15,9.1,8.3,7.5,7,6.7,6.5,6.6,6.8,7.3,8.4,0.1,0.1,0.1,0.1,0.1,0.1,0.1,0.1,0.1,0.1,0.1],"fetchReefNM":[0.1,0.1,0.1,0.1,0.1,0.1,0.1,0.1,0.2,0.2,0.3,1.1,0.4,15,15,9.1,8.3,7.5,7,6.7,6.5,6.6,6.8,7.3,8.4,0.1,0.1,0.1,0.1,0.1,0.1,0.1,0.1,0.1,0.1,0.1]}},{"type":"Feature","geometry":{"type":"Point","coordinates":[150.56716,-10.20721]},"properties":{"id":"osm-node13924050498","name":"Utalai Bay","kind":"anchorage","source":"OpenStreetMap","sourceRef":"node/13924050498","likelyAnchorage":true,"noAnchoring":false,"noAnchoringName":null,"notes":null,"fetchLandNM":[15,15,15,15,15,15,15,15,15,15,1.1,0.9,0.8,0.8,0.6,0.4,0.4,0.5,0.5,0.5,0.5,0.6,0.6,0.6,0.7,0.8,0.8,1.1,15,15,15,15,15,15,15,15],"fetchReefNM":[15,15,15,15,15,15,15,15,15,15,1.1,0.9,0.8,0.8,0.6,0.4,0.4,0.5,0.5,0.5,0.5,0.6,0.6,0.6,0.7,0.8,0.8,1.1,15,15,15,15,15,15,15,15]}},{"type":"Feature","geometry":{"type":"Point","coordinates":[150.02208,-10.6235]},"properties":{"id":"osm-node13872162683","name":"Wadiheri Bay","kind":"anchorage","source":"OpenStreetMap","sourceRef":"node/13872162683","likelyAnchorage":true,"noAnchoring":false,"noAnchoringName":null,"notes":null,"fetchLandNM":[0.3,0.3,0.2,0.2,0.2,0.2,0.2,0.3,0.6,0.6,0.7,0.8,0.2,0.2,0.2,0.2,0.2,15,15,0.5,15,15,15,15,0.2,0.2,0.3,0.3,0.2,0.2,0.2,0.2,0.2,0.2,0.2,0.2],"fetchReefNM":[0.3,0.3,0.2,0.2,0.2,0.2,0.2,0.3,0.6,0.6,0.7,0.8,0.2,0.2,0.2,0.2,0.2,15,15,0.5,15,15,15,15,0.2,0.2,0.3,0.3,0.2,0.2,0.2,0.2,0.2,0.2,0.2,0.2]}},{"type":"Feature","geometry":{"type":"Point","coordinates":[150.35532,-10.39457]},"properties":{"id":"osm-node13947923284","name":"Waga Anchorage","kind":"anchorage","source":"OpenStreetMap","sourceRef":"node/13947923284","likelyAnchorage":true,"noAnchoring":false,"noAnchoringName":null,"notes":null,"fetchLandNM":[3.7,4.5,4.9,6.7,6.5,7.7,8.5,10.8,13.9,15,3.7,1.9,1.1,0.9,0.6,0.4,0.4,0.3,0.3,0.4,0.4,0.4,0.4,0.4,0.5,0.6,0.8,0.8,0.8,0.9,1,1,1.2,1.5,2.1,2.4],"fetchReefNM":[3.7,4.5,4.9,6.7,6.5,7.7,8.5,10.8,13.9,15,3.7,1,1.1,0.4,0.6,0.4,0.4,0.3,0.3,0.4,0.4,0.4,0.4,0.4,0.5,0.6,0.8,0.8,0.8,0.9,1,1,1.2,1.5,2.1,2.4]}},{"type":"Feature","geometry":{"type":"Point","coordinates":[150.95718,-10.06247]},"properties":{"id":"osm-node13845631738","name":"Waikaiuna Bay","kind":"anchorage","source":"OpenStreetMap","sourceRef":"node/13845631738","likelyAnchorage":true,"noAnchoring":false,"noAnchoringName":null,"notes":null,"fetchLandNM":[0.3,0.2,0.2,0.2,0.2,0.2,0.2,0.2,0.2,0.2,0.2,0.2,0.2,0.2,0.2,0.2,0.2,0.2,0.2,0.2,15,11.4,14.8,15,15,15,15,15,15,15,15,15,3.8,4.1,1.6,1.5],"fetchReefNM":[0.3,0.2,0.2,0.2,0.2,0.2,0.2,0.2,0.2,0.2,0.2,0.2,0.2,0.2,0.2,0.2,0.2,0.2,0.2,0.2,9.2,11.4,14.8,15,15,15,15,15,15,15,15,15,3.8,4.1,1.6,1.5]}},{"type":"Feature","geometry":{"type":"Point","coordinates":[150.88716,-10.58188]},"properties":{"id":"osm-node13867665641","name":"Waiyau Bay","kind":"anchorage","source":"OpenStreetMap","sourceRef":"node/13867665641","likelyAnchorage":true,"noAnchoring":false,"noAnchoringName":null,"notes":null,"fetchLandNM":[0.2,0.3,0.7,0.7,0.8,15,15,15,0.9,0.5,0.4,0.4,2.6,2.6,2.6,0.2,0.1,0.1,0.1,0.1,0.2,0.2,0.2,0.2,0.2,0.1,0.1,0.1,0.1,0.1,0.2,0.2,0.2,0.1,0.1,0.2],"fetchReefNM":[0.2,0.3,0.7,0.7,0.8,3.7,15,1.2,0.5,0.3,0.4,0.3,0.5,2.6,2.6,0.2,0.1,0.1,0.1,0.1,0.2,0.2,0.2,0.2,0.2,0.1,0.1,0.1,0.1,0.1,0.2,0.2,0.2,0.1,0.1,0.2]}},{"type":"Feature","geometry":{"type":"Point","coordinates":[150.79792,-10.28313]},"properties":{"id":"osm-node13923832513","name":"Walaliai Bay","kind":"anchorage","source":"OpenStreetMap","sourceRef":"node/13923832513","likelyAnchorage":true,"noAnchoring":false,"noAnchoringName":null,"notes":null,"fetchLandNM":[0.7,0.9,1,1.3,2,2.6,15,15,15,7.7,7.3,15,15,15,15,15,15,15,15,15,15,15,15,15,15,2,1.8,1.3,0.8,0.7,0.7,0.7,0.7,0.7,0.7,0.7],"fetchReefNM":[0.7,0.9,1,1.3,2,2.6,7.5,7.8,6.7,5.3,4.6,4.1,15,15,15,15,15,15,15,15,15,15,15,15,15,2,1.8,1.3,0.8,0.7,0.7,0.7,0.7,0.7,0.7,0.7]}},{"type":"Feature","geometry":{"type":"Point","coordinates":[151.16473,-10.15223]},"properties":{"id":"osm-node13850011086","name":"Walaulau Bay","kind":"anchorage","source":"OpenStreetMap","sourceRef":"node/13850011086","likelyAnchorage":true,"noAnchoring":false,"noAnchoringName":null,"notes":null,"fetchLandNM":[0.3,0.3,0.3,0.3,0.3,0.3,0.4,0.4,0.4,0.5,0.7,2.5,2.6,15,3.6,15,15,15,15,15,15,15,10.5,10.5,15,15,0.5,0.5,0.5,0.5,0.5,0.4,0.4,0.4,0.4,0.3],"fetchReefNM":[0.3,0.3,0.3,0.3,0.3,0.3,0.4,0.4,0.4,0.5,0.7,2.5,2.6,4.9,3.6,15,4.3,7.1,6.2,6.1,9.2,11.1,10.3,10.5,15,13.9,0.5,0.5,0.5,0.5,0.5,0.4,0.4,0.4,0.4,0.3]}},{"type":"Feature","geometry":{"type":"Point","coordinates":[150.48477,-10.32354]},"properties":{"id":"osm-node13473104678","name":"Wanaduela Bay","kind":"anchorage","source":"OpenStreetMap","sourceRef":"node/13473104678","likelyAnchorage":true,"noAnchoring":false,"noAnchoringName":null,"notes":null,"fetchLandNM":[0.1,0.1,0.1,0.1,0.1,0.1,0.1,0.1,0.1,0.1,0.7,15,15,15,11.8,9.4,7.9,6.9,6.2,6,5.9,6.2,6.4,7.7,9.1,8.9,7,0.2,0.1,0.1,0.1,0.1,0.1,0.1,0.1,0.1],"fetchReefNM":[0.1,0.1,0.1,0.1,0.1,0.1,0.1,0.1,0.1,0.1,0.7,15,15,15,11.8,9.4,7.9,6.9,6.2,6,5.9,6.2,6.4,7.7,9.1,8.9,7,0.2,0.1,0.1,0.1,0.1,0.1,0.1,0.1,0.1]}},{"type":"Feature","geometry":{"type":"Point","coordinates":[150.05985,-10.08386]},"properties":{"id":"osm-node13931447551","name":"Warawara Bay","kind":"anchorage","source":"OpenStreetMap","sourceRef":"node/13931447551","likelyAnchorage":true,"noAnchoring":false,"noAnchoringName":null,"notes":null,"fetchLandNM":[15,15,15,15,15,15,15,15,15,15,0.9,0.6,0.5,0.4,0.4,0.4,0.3,0.3,0.3,0.3,0.3,0.3,0.3,0.3,0.3,0.3,0.3,0.4,0.4,0.4,0.5,15,15,15,15,15],"fetchReefNM":[15,15,15,15,15,15,15,15,15,15,0.9,0.6,0.5,0.4,0.4,0.4,0.3,0.3,0.3,0.3,0.3,0.3,0.3,0.3,0.3,0.3,0.3,0.4,0.4,0.4,0.5,15,15,15,15,15]}},{"type":"Feature","geometry":{"type":"Point","coordinates":[150.16279,-10.19796]},"properties":{"id":"osm-way1528772343","name":"Wasa Creek","kind":"anchorage","source":"OpenStreetMap","sourceRef":"way/1528772343","likelyAnchorage":true,"noAnchoring":false,"noAnchoringName":null,"notes":null,"fetchLandNM":[6.3,6.4,5.6,4.8,5.3,5.9,6.3,6.6,7.6,11.2,15,15,14.3,14.4,15,15,15,15,15,14.8,15,15,15,15,15,15,15,15,15,15,15,11.3,8.7,5.6,5.1,5.5],"fetchReefNM":[6.3,6.4,5.6,4.8,5.3,5.9,6.3,6.6,7.6,11.2,15,15,14.3,14.4,15,15,15,15,15,14.8,15,15,15,15,15,15,15,15,15,15,15,11.3,8.7,5.6,5.1,5.5]}},{"type":"Feature","geometry":{"type":"Point","coordinates":[150.54891,-10.34179]},"properties":{"id":"osm-node13929240414","name":"Wasaloni Bay","kind":"anchorage","source":"OpenStreetMap","sourceRef":"node/13929240414","likelyAnchorage":true,"noAnchoring":false,"noAnchoringName":null,"notes":null,"fetchLandNM":[0.1,0.1,0.1,0.1,0.1,0.1,0.1,0.1,0.1,0.1,0.1,0.1,0.1,0.1,0.1,0.1,0.1,0.1,6.8,6.4,6.2,6,6.5,7,8.1,10.8,12.3,12.1,9.5,0.9,0.6,0.3,0.3,0.2,0.1,0.1],"fetchReefNM":[0.1,0.1,0.1,0.1,0.1,0.1,0.1,0.1,0.1,0.1,0.1,0.1,0.1,0.1,0.1,0.1,0.1,0.1,6.8,6.4,6.2,6,6.5,7,8.1,10.7,12.3,12.1,9.5,0.9,0.6,0.3,0.3,0.2,0.1,0.1]}},{"type":"Feature","geometry":{"type":"Point","coordinates":[150.59642,-10.35189]},"properties":{"id":"osm-node13929190199","name":"Watunou Bay","kind":"anchorage","source":"OpenStreetMap","sourceRef":"node/13929190199","likelyAnchorage":true,"noAnchoring":false,"noAnchoringName":null,"notes":null,"fetchLandNM":[0.2,0.2,0.2,0.2,0.3,0.3,0.2,0.2,0.3,1.3,15,15,15,15,15,14.2,7.9,7.5,7.1,6.8,6.7,6.8,7.2,7.5,8.5,0.3,0.2,0.2,0.2,0.2,0.2,0.2,0.3,0.3,0.3,0.3],"fetchReefNM":[0.2,0.2,0.2,0.2,0.3,0.3,0.2,0.2,0.3,1.3,15,15,15,15,14.7,13.8,7.9,7.5,7.1,6.8,6.7,6.8,7.2,7.5,8.5,0.3,0.2,0.2,0.2,0.2,0.2,0.2,0.3,0.3,0.3,0.3]}},{"type":"Feature","geometry":{"type":"Point","coordinates":[150.82346,-10.54669]},"properties":{"id":"osm-node13871262683","name":"Wiwiyai Bay","kind":"anchorage","source":"OpenStreetMap","sourceRef":"node/13871262683","likelyAnchorage":true,"noAnchoring":false,"noAnchoringName":null,"notes":null,"fetchLandNM":[15,15,15,15,15,0.2,0.1,0.1,0.2,0.2,0.2,0.2,0.2,0.3,0.2,0.1,0.1,0.1,0.2,0.2,0.2,0.2,0.2,0.2,0.2,0.2,0.1,0.1,0.1,0.1,0.1,0.2,0.5,15,15,15],"fetchReefNM":[15,14.1,14.7,15,14.5,0.2,0.1,0.1,0.2,0.2,0.2,0.2,0.2,0.3,0.2,0.1,0.1,0.1,0.2,0.2,0.2,0.2,0.2,0.2,0.2,0.2,0.1,0.1,0.1,0.1,0.1,0.2,0.5,15,15,15]}},{"type":"Feature","geometry":{"type":"Point","coordinates":[150.70853,-10.25837]},"properties":{"id":"osm-node13924041951","name":"Wohitali Bay","kind":"anchorage","source":"OpenStreetMap","sourceRef":"node/13924041951","likelyAnchorage":true,"noAnchoring":false,"noAnchoringName":null,"notes":null,"fetchLandNM":[15,15,15,15,15,15,15,15,7.4,1.1,0.9,0.3,0.3,0.3,0.2,0.2,0.2,0.2,0.2,0.2,0.2,0.2,0.2,0.2,0.2,0.2,0.2,0.2,0.2,0.2,0.2,15,15,15,15,15],"fetchReefNM":[15,15,15,15,15,15,15,15,7.4,1.1,0.9,0.3,0.3,0.3,0.2,0.2,0.2,0.2,0.2,0.2,0.2,0.2,0.2,0.2,0.2,0.2,0.2,0.2,0.2,0.2,0.2,15,15,15,15,15]}},{"type":"Feature","geometry":{"type":"Point","coordinates":[150.88618,-10.57193]},"properties":{"id":"osm-node13867665642","name":"Yabalawauna Bay","kind":"anchorage","source":"OpenStreetMap","sourceRef":"node/13867665642","likelyAnchorage":true,"noAnchoring":false,"noAnchoringName":null,"notes":null,"fetchLandNM":[0.1,0.1,0.1,0.1,0.1,0.1,0.1,0.2,0.3,0.3,1.2,1.2,1,0.8,0.8,0.1,0.1,0.1,0.1,0.1,0.1,0.1,0.1,0.1,0.1,0.1,0.2,0.2,0.2,0.2,0.2,0.2,0.2,0.1,0.1,0.1],"fetchReefNM":[0.1,0.1,0.1,0.1,0.1,0.1,0.1,0.2,0.3,0.3,1.2,1,1,0.7,0.8,0.1,0.1,0.1,0.1,0.1,0.1,0.1,0.1,0.1,0.1,0.1,0.2,0.2,0.2,0.2,0.2,0.2,0.2,0.1,0.1,0.1]}}]}