{"type":"FeatureCollection","meta":{"region":"QLD","tile":"t-12e152","built":"2026-08-25","sources":["OpenStreetMap (ODbL)","GBRMPA (CC BY)"]},"features":[{"type":"Feature","geometry":{"type":"Point","coordinates":[153.35235,-11.54468]},"properties":{"id":"osm-node13919502289","name":"Badabada Bay","kind":"anchorage","source":"OpenStreetMap","sourceRef":"node/13919502289","likelyAnchorage":true,"noAnchoring":false,"noAnchoringName":null,"notes":null,"fetchLandNM":[0.3,0.2,0.2,0.3,0.3,0.3,0.3,0.3,0.3,0.2,0.2,0.2,0.2,0.3,0.3,0.3,0.4,0.5,15,15,15,15,15,15,15,15,15,15,15,15,4.9,4.5,4.4,3.3,0.5,0.3],"fetchReefNM":[0.3,0.2,0.2,0.3,0.3,0.3,0.3,0.3,0.3,0.2,0.2,0.2,0.2,0.3,0.3,0.3,0.4,0.5,7.2,7.3,7.5,8.2,9,9.1,11.8,15,15,15,10.3,8.4,4.9,4.5,4.4,3.3,0.5,0.3]}},{"type":"Feature","geometry":{"type":"Point","coordinates":[152.84573,-10.68635]},"properties":{"id":"osm-node13888778465","name":"Bugoiya Harbour","kind":"anchorage","source":"OpenStreetMap","sourceRef":"node/13888778465","likelyAnchorage":true,"noAnchoring":false,"noAnchoringName":null,"notes":null,"fetchLandNM":[0.1,0.1,0.1,0.1,0.1,0.1,0.1,0.1,0,0,0,0,0.1,0.1,0.1,0.3,15,15,0.2,0.1,0.1,0.1,0.1,0.1,0.1,0.1,0.1,0.1,0.1,0.1,0.1,0.1,0.1,0.1,0.1,0.1],"fetchReefNM":[0.1,0.1,0.1,0.1,0.1,0.1,0.1,0.1,0,0,0,0,0.1,0.1,0.1,0.1,15,15,0.2,0.1,0.1,0.1,0.1,0.1,0.1,0.1,0.1,0.1,0.1,0.1,0.1,0.1,0.1,0.1,0.1,0.1]}},{"type":"Feature","geometry":{"type":"Point","coordinates":[153.53978,-11.62628]},"properties":{"id":"osm-node13919510141","name":"Dumaga Bay","kind":"anchorage","source":"OpenStreetMap","sourceRef":"node/13919510141","likelyAnchorage":true,"noAnchoring":false,"noAnchoringName":null,"notes":null,"fetchLandNM":[0.6,0.7,0.8,1.3,1.4,1.3,1.2,1.2,1,0.9,1,1.1,1,0.7,0.7,0.7,0.7,0.6,0.6,0.6,0.6,0.7,0.7,0.7,15,15,15,15,15,1.7,1.5,0.9,0.8,0.7,0.6,0.6],"fetchReefNM":[0.6,0.7,0.8,1.3,1.4,1.3,1.2,1.2,1,0.9,1,1.1,1,0.7,0.7,0.7,0.7,0.6,0.6,0.6,0.6,0.7,0.7,0.7,2.1,1.4,12.9,15,15,1.7,1.5,0.9,0.8,0.7,0.6,0.6]}},{"type":"Feature","geometry":{"type":"Point","coordinates":[153.29924,-11.37026]},"properties":{"id":"osm-node13919509906","name":"Fohao Bay","kind":"anchorage","source":"OpenStreetMap","sourceRef":"node/13919509906","likelyAnchorage":true,"noAnchoring":false,"noAnchoringName":null,"notes":null,"fetchLandNM":[15,15,15,15,15,15,15,2.3,9.1,15,15,0.8,0.7,0.5,0.4,0.4,0.5,0.3,0.3,0.3,0.3,0.3,0.4,0.4,0.4,0.4,0.5,0.5,0.4,0.4,0.5,7.4,4.5,4.7,15,15],"fetchReefNM":[6.8,6.5,6.2,6,5.8,5.6,2.8,2,1.6,1.8,2.7,0.8,0.7,0.5,0.4,0.4,0.5,0.3,0.3,0.3,0.3,0.3,0.4,0.4,0.4,0.4,0.5,0.5,0.4,0.4,0.5,7.4,4.5,4.7,12.4,5.7]}},{"type":"Feature","geometry":{"type":"Point","coordinates":[153.20835,-11.27978]},"properties":{"id":"osm-node13918021579","name":"Hei Huti Bay","kind":"anchorage","source":"OpenStreetMap","sourceRef":"node/13918021579","likelyAnchorage":true,"noAnchoring":false,"noAnchoringName":null,"notes":null,"fetchLandNM":[0.3,0.3,0.3,0.3,0.4,0.4,0.5,15,15,15,11.6,2.2,2.8,2.8,2.5,5.7,4.1,3.1,2.8,0.6,0.6,0.5,0.4,0.4,0.4,0.4,0.4,0.4,0.4,0.4,0.4,0.4,0.4,0.4,0.4,0.3],"fetchReefNM":[0.3,0.3,0.3,0.3,0.4,0.4,0.5,5.1,3.4,8.1,9.5,2.2,2.8,2.8,2.5,5.7,4.1,3.1,2.8,0.6,0.6,0.5,0.4,0.4,0.4,0.4,0.4,0.4,0.4,0.4,0.4,0.4,0.4,0.4,0.4,0.3]}},{"type":"Feature","geometry":{"type":"Point","coordinates":[153.34505,-11.50164]},"properties":{"id":"osm-node13917971039","name":"Hinai Bay","kind":"anchorage","source":"OpenStreetMap","sourceRef":"node/13917971039","likelyAnchorage":true,"noAnchoring":false,"noAnchoringName":null,"notes":null,"fetchLandNM":[0.7,0.7,0.7,0.7,0.8,0.9,1,1,0.9,0.9,0.8,0.7,0.6,0.6,0.7,0.7,0.8,1.1,15,15,15,15,15,15,15,15,15,3.5,2.8,0.5,0.5,0.6,0.7,0.7,0.7,0.7],"fetchReefNM":[0.7,0.7,0.7,0.7,0.8,0.9,1,1,0.9,0.9,0.8,0.7,0.6,0.6,0.7,0.7,0.8,1.1,9.8,9.8,10.3,10.9,10.3,13.2,15,15,15,3.5,2.8,0.5,0.5,0.6,0.7,0.7,0.7,0.7]}},{"type":"Feature","geometry":{"type":"Point","coordinates":[152.77815,-11.15273]},"properties":{"id":"osm-node13920709578","name":"Hoba Bay","kind":"anchorage","source":"OpenStreetMap","sourceRef":"node/13920709578","likelyAnchorage":true,"noAnchoring":false,"noAnchoringName":null,"notes":null,"fetchLandNM":[15,15,15,15,15,15,0.8,0.5,0.3,0.3,0.2,0.2,0.2,0.2,0.2,0.2,0.2,0.2,0.2,0.2,0.2,0.2,0.2,0.2,0.2,0.2,0.2,0.2,0.2,3,2.6,1.1,1,1.1,15,12.1],"fetchReefNM":[15,9.4,9,9.4,8.9,9.8,0.8,0.5,0.3,0.3,0.2,0.2,0.2,0.2,0.2,0.2,0.2,0.2,0.2,0.2,0.2,0.2,0.2,0.2,0.2,0.2,0.2,0.2,0.2,3,1.1,1,0.9,0.9,1.9,12.1]}},{"type":"Feature","geometry":{"type":"Point","coordinates":[153.17551,-11.26962]},"properties":{"id":"osm-node13918021475","name":"Huniye Bay","kind":"anchorage","source":"OpenStreetMap","sourceRef":"node/13918021475","likelyAnchorage":true,"noAnchoring":false,"noAnchoringName":null,"notes":null,"fetchLandNM":[0.6,0.5,0.4,0.4,0.4,0.4,0.4,0.5,0.5,0.5,0.5,0.6,0.7,0.6,0.6,0.5,0.5,0.4,0.4,0.4,0.4,0.4,0.5,0.5,15,15,15,15,4.4,15,2.4,1.8,1.5,1.2,1,0.6],"fetchReefNM":[0.6,0.5,0.4,0.4,0.4,0.4,0.4,0.5,0.5,0.5,0.5,0.6,0.7,0.6,0.6,0.5,0.5,0.4,0.4,0.4,0.4,0.4,0.5,0.5,4.2,0.7,10.1,15,4.4,15,2.4,1.8,1.5,1.2,1,0.6]}},{"type":"Feature","geometry":{"type":"Point","coordinates":[153.44918,-11.57228]},"properties":{"id":"osm-node13919502291","name":"Lijiliji Bay","kind":"anchorage","source":"OpenStreetMap","sourceRef":"node/13919502291","likelyAnchorage":true,"noAnchoring":false,"noAnchoringName":null,"notes":null,"fetchLandNM":[1.3,1.4,1.4,0.9,0.9,1,1,1,1.1,1.2,1.3,1.3,0.9,0.8,0.8,0.8,0.8,0.7,0.7,15,15,15,15,15,15,15,15,15,1.6,1.6,1.7,0.7,0.8,0.8,0.9,1],"fetchReefNM":[1.3,1.4,1.4,0.9,0.9,1,1,1,1.1,1.2,1.3,1.3,0.9,0.8,0.8,0.8,0.8,0.7,0.7,5,5.4,6.3,7.4,8.6,10.8,14.1,15,15,1.6,1.6,1.7,0.7,0.8,0.8,0.9,1]}},{"type":"Feature","geometry":{"type":"Point","coordinates":[152.76288,-10.62791]},"properties":{"id":"osm-node13917248829","name":"Rijak Bay","kind":"anchorage","source":"OpenStreetMap","sourceRef":"node/13917248829","likelyAnchorage":true,"noAnchoring":false,"noAnchoringName":null,"notes":null,"fetchLandNM":[15,15,15,15,15,15,0.9,0.5,0.2,0.2,0.2,0.2,0.2,0.2,0.2,0.2,0.2,0.2,0.2,0.2,0.2,0.2,0.2,0.2,0.2,0.2,0.3,10.3,15,15,15,15,15,15,15,15],"fetchReefNM":[15,15,15,15,15,15,0.9,0.5,0.2,0.2,0.2,0.2,0.2,0.2,0.2,0.2,0.2,0.2,0.2,0.2,0.2,0.2,0.2,0.2,0.2,0.2,0.3,10.3,15,15,15,15,15,15,15,15]}},{"type":"Feature","geometry":{"type":"Point","coordinates":[152.55512,-11.07207]},"properties":{"id":"osm-node13878297304","name":"Riman Bay","kind":"anchorage","source":"OpenStreetMap","sourceRef":"node/13878297304","likelyAnchorage":true,"noAnchoring":false,"noAnchoringName":null,"notes":null,"fetchLandNM":[15,15,15,7.7,11.8,11.9,0.3,0.3,0.2,0.2,0.2,0.2,0.2,0.2,0.2,0.2,0.1,0.1,0.1,0.2,0.2,0.2,0.2,0.2,0.3,0.3,15,4.7,1,1.2,15,3.1,3.4,15,15,15],"fetchReefNM":[3.6,1.9,2.1,5.7,11.4,10.8,0.3,0.3,0.2,0.2,0.2,0.2,0.2,0.2,0.2,0.2,0.1,0.1,0.1,0.2,0.2,0.2,0.2,0.2,0.3,0.3,13,3.8,1,1.2,4.7,3.1,3.3,1.8,1.6,2]}},{"type":"Feature","geometry":{"type":"Point","coordinates":[153.27362,-11.47743]},"properties":{"id":"osm-node13917971036","name":"Ula Bay","kind":"anchorage","source":"OpenStreetMap","sourceRef":"node/13917971036","likelyAnchorage":true,"noAnchoring":false,"noAnchoringName":null,"notes":null,"fetchLandNM":[0.9,0.9,0.8,0.9,0.9,1,1.1,1.3,1.6,1.6,1.3,1.1,1,0.9,0.9,0.8,0.8,1,1,1,15,15,15,15,15,15,15,15,15,15,2.8,2.6,3.6,1.2,0.9,0.9],"fetchReefNM":[0.9,0.9,0.8,0.9,0.9,1,1.1,1.3,1.6,1.6,1.3,1.1,1,0.9,0.9,0.8,0.8,1,1,1,9.6,11.4,12.7,13.6,8.4,3.5,3.3,3.5,4.3,10,2.8,2.6,3.6,1.2,0.9,0.9]}}]}