{"type":"FeatureCollection","meta":{"region":"QLD","tile":"t-14e142","built":"2026-08-25","sources":["OpenStreetMap (ODbL)","GBRMPA (CC BY)"]},"features":[{"type":"Feature","geometry":{"type":"Point","coordinates":[143.4068,-12.81163]},"properties":{"id":"osm-node3020492947","name":"Lloyd Bay","kind":"anchorage","source":"OpenStreetMap","sourceRef":"node/3020492947","likelyAnchorage":true,"noAnchoring":false,"noAnchoringName":null,"notes":null,"fetchLandNM":[7.2,1.9,15,15,15,15,15,15,15,15,15,6.7,6,4.9,3.2,3,3.2,3.3,3.3,3.3,3.5,5.2,4.9,4.1,3.4,3,2.9,2.9,2.9,2.9,3,3.2,3.4,3.7,4.1,3.4],"fetchReefNM":[7.2,1.9,15,14.8,12.8,15,15,15,15,15,15,6.7,6,4.9,3.2,3,3.2,3.3,3.3,3.3,3.5,5.2,4.9,4.1,3.4,3,2.9,2.9,2.9,2.9,3,3.2,3.4,3.7,4.1,3.4]}},{"type":"Feature","geometry":{"type":"Point","coordinates":[143.71751,-13.48878]},"properties":{"id":"gbrmpa-80005","name":"Morris Island South-Easterly Wind","kind":"designated_anchorage","source":"GBRMPA","sourceRef":"80005","likelyAnchorage":true,"noAnchoring":false,"noAnchoringName":null,"notes":"  · Management area: Far Northern Management Area · Great Barrier Reef Marine Park Regulations 2019","fetchLandNM":[15,15,15,15,15,15,15,15,15,15,15,0.4,0.4,0.4,0.4,0.4,15,15,9.9,15,15,15,15,12.8,10.2,8.1,8.1,8,7.7,7.6,8.1,10.2,15,15,15,15],"fetchReefNM":[6.2,3.3,3.1,3.2,3.5,0.9,0.8,0.7,0.7,0.6,0.6,0.4,0.4,0.4,0.4,0.4,0.6,1,9.8,15,15,15,15,12.8,10.2,8.1,8.1,8,7.7,7.6,8.1,10.2,15,15,15,5.8]}},{"type":"Feature","geometry":{"type":"Point","coordinates":[143.56908,-13.17156]},"properties":{"id":"gbrmpa-80004","name":"Night Island South-Easterly Wind","kind":"designated_anchorage","source":"GBRMPA","sourceRef":"80004","likelyAnchorage":true,"noAnchoring":false,"noAnchoringName":null,"notes":"  · Management area: Far Northern Management Area · Great Barrier Reef Marine Park Regulations 2019","fetchLandNM":[15,15,15,15,15,15,15,15,15,15,0.5,0.5,0.5,0.5,0.6,0.8,0.9,15,12,10.8,7.9,6.1,4.7,3.9,3.5,3.2,2.8,2.8,3.3,3.8,4.4,5,5.9,7,9.7,15],"fetchReefNM":[15,15,8.3,15,15,6,6.8,0.4,0.3,0.4,0.4,0.4,0.4,0.4,0.4,0.6,0.8,1.1,2.6,10.8,7.9,6.1,4.7,3.9,3.5,3.2,2.8,2.8,3.3,3.8,4.4,5,5.9,7,9.7,15]}},{"type":"Feature","geometry":{"type":"Point","coordinates":[143.21673,-12.24965]},"properties":{"id":"gbrmpa-80003","name":"Piper Islands North-Westerly Wind","kind":"designated_anchorage","source":"GBRMPA","sourceRef":"80003","likelyAnchorage":true,"noAnchoring":false,"noAnchoringName":null,"notes":"  · Management area: Far Northern Management Area · Great Barrier Reef Marine Park Regulations 2019","fetchLandNM":[15,15,15,15,15,15,0.6,15,15,15,11.5,15,15,15,15,15,15,8.1,7,6.5,6.1,6.8,7.7,8.8,9.5,8.6,7.7,7.7,7.5,7.7,1.1,9.2,9.7,0.5,11.8,14.2],"fetchReefNM":[15,15,8.5,7.1,9.2,0.5,0.5,0.5,0.5,0.5,0.6,0.8,10.2,15,15,15,15,8.1,7,6.5,6.1,6.8,7.7,8.8,9.5,8.6,7.7,7.7,4.6,0.4,0.3,0.3,0.3,0.4,11.8,14.2]}},{"type":"Feature","geometry":{"type":"Point","coordinates":[143.22351,-12.23711]},"properties":{"id":"gbrmpa-80002","name":"Piper Islands South-Easterly Wind","kind":"designated_anchorage","source":"GBRMPA","sourceRef":"80002","likelyAnchorage":true,"noAnchoring":false,"noAnchoringName":null,"notes":"  · Management area: Far Northern Management Area · Great Barrier Reef Marine Park Regulations 2019","fetchLandNM":[15,15,12.5,15,15,15,15,15,15,4.8,15,15,15,15,15,0.4,0.4,9.5,8.2,7.4,7.2,7.7,8.5,9.9,10,0.8,7.8,8,7.6,8.3,9,9.1,9.6,10.3,11.9,14.3],"fetchReefNM":[15,15,7.7,6.3,8.4,8.5,9.3,2.6,2.8,2.4,2.6,6.4,0.6,0.5,0.4,0.3,0.3,0.3,0.3,7.4,7.2,7.7,8.5,0.8,0.7,0.6,0.8,5,7.6,8.3,9,9.1,9.6,10.3,11.9,14.3]}},{"type":"Feature","geometry":{"type":"Point","coordinates":[143.12529,-12.30459]},"properties":{"id":"osm-node3020494155","name":"Temple Bay","kind":"anchorage","source":"OpenStreetMap","sourceRef":"node/3020494155","likelyAnchorage":true,"noAnchoring":false,"noAnchoringName":null,"notes":null,"fetchLandNM":[12.2,15,15,15,15,15,15,15,15,15,15,15,15,3.6,3.3,2.9,2.7,3,2.5,2.5,2.3,2.8,3,3.5,3.3,3,2.9,2.8,2.7,2.8,2.8,2.9,3.2,4.5,5.3,9.4],"fetchReefNM":[12.2,4,15,15,13.1,5.6,6.8,7.5,10.2,12.7,14.8,15,15,3.6,3.3,2.9,2.7,3,2.5,2.5,2.3,2.8,3,3.5,3.3,3,2.9,2.8,2.7,2.8,2.8,2.9,3.2,4.5,5.3,9.4]}},{"type":"Feature","geometry":{"type":"Point","coordinates":[143.32542,-12.50224]},"properties":{"id":"osm-node3020494567","name":"Weymouth Bay","kind":"anchorage","source":"OpenStreetMap","sourceRef":"node/3020494567","likelyAnchorage":true,"noAnchoring":false,"noAnchoringName":null,"notes":null,"fetchLandNM":[15,15,12.9,15,15,15,15,15,15,15,15,15,15,15,7.5,5.1,4.1,4,3.4,3.5,3.4,3.1,2.6,2.8,2.5,2.8,3.1,3.1,3,3.1,3.4,3.9,4.3,6.2,15,15],"fetchReefNM":[13.8,11,9.1,6,5.7,5.7,5.7,5.9,6.3,7.1,15,15,15,15,7.5,5.1,4.1,4,3.4,3.5,3.4,3.1,2.6,2.8,2.5,2.8,3.1,3.1,3,3.1,3.4,3.9,4.3,6.2,15,15]}},{"type":"Feature","geometry":{"type":"Point","coordinates":[143.87881,-12.10675]},"properties":{"id":"osm-node3020494593","name":"Wreck Bay","kind":"anchorage","source":"OpenStreetMap","sourceRef":"node/3020494593","likelyAnchorage":true,"noAnchoring":false,"noAnchoringName":null,"notes":null,"fetchLandNM":[15,15,15,15,15,15,15,15,15,15,15,15,15,15,15,15,15,15,15,15,15,15,15,15,15,15,15,15,15,15,15,15,15,15,15,15],"fetchReefNM":[3.8,3.9,6.4,3.1,3.8,3.7,4,4.5,4.6,15,15,15,15,15,15,7,7.8,10.5,11.9,13.5,15,15,7.7,5.4,4.3,4.1,4,4.1,4.1,3.9,4.1,4.2,4.4,4.6,4.6,3.9]}}]}