{"type":"FeatureCollection","meta":{"tile":"t-14e142","built":"2026-08-25"},"features":[{"type":"Feature","geometry":{"type":"Polygon","coordinates":[[[143.4711,-11.7877],[143.5011,-11.8209],[143.5327,-11.8343],[143.6252,-11.8028],[143.9019,-11.8028],[143.9019,-12.0212],[143.8426,-12.0212],[143.8428,-12.3183],[143.8508,-12.3183],[143.8508,-12.3633],[143.8921,-12.3633],[144,-12.2454],[144,-12.04],[144.4676,-12.04],[144.4676,-12.62],[143.9004,-12.62],[143.9004,-13.0497],[143.9382,-13.0774],[143.9382,-13.1389],[143.9277,-13.1524],[143.9472,-13.2184],[143.9292,-13.2819],[143.9607,-13.3098],[143.9382,-13.3623],[143.7213,-13.5296],[143.7121,-13.5048],[143.7186,-13.4269],[143.7363,-13.3798],[143.84,-13.3698],[143.84,-13.26],[143.81,-13.26],[143.81,-13.1967],[143.8,-13.2067],[143.7867,-13.2067],[143.78,-13.2],[143.78,-13.1933],[143.7933,-13.18],[143.8098,-13.1799],[143.7822,-13.0847],[143.74,-12.98],[143.74,-12.96],[143.72,-12.94],[143.72,-12.88],[143.7,-12.88],[143.68,-12.86],[143.68,-12.84],[143.71,-12.84],[143.71,-12.79],[143.7844,-12.79],[143.7844,-12.64],[143.7311,-12.4301],[143.6826,-12.4048],[143.6434,-12.4405],[143.6906,-12.681],[143.6906,-12.79],[143.6414,-12.79],[143.6414,-12.7291],[143.5998,-12.7291],[143.5748,-12.7166],[143.5664,-12.7041],[143.5664,-12.6958],[143.6141,-12.6958],[143.614,-12.5875],[143.5789,-12.5875],[143.5456,-12.6083],[143.5248,-12.6083],[143.5039,-12.5916],[143.5039,-12.575],[143.5331,-12.575],[143.57,-12.56],[143.57,-12.5386],[143.4684,-12.5386],[143.38,-12.43],[143.3586,-12.3977],[143.373,-12.3862],[143.307,-12.2839],[143.2989,-12.2839],[143.2731,-12.2585],[143.2581,-12.2325],[143.2581,-12.207],[143.2706,-12.207],[143.3123,-12.2278],[143.3123,-12.2346],[143.3199,-12.2346],[143.4,-12.2146],[143.4,-12.1846],[143.37,-12.1646],[143.33,-12.1445],[143.31,-12.1245],[143.3,-12.1046],[143.3,-12.0746],[143.31,-12.0646],[143.3331,-12.0112],[143.3563,-11.9899],[143.4105,-11.9719],[143.4118,-11.97],[143.45,-11.97],[143.53,-11.96],[143.6144,-11.96],[143.6144,-11.8852],[143.5928,-11.8685],[143.5411,-11.8535],[143.503,-11.8512],[143.46,-11.86],[143.4,-11.89],[143.36,-11.92],[143.36,-11.9385],[143.3,-11.88],[143.29,-11.88],[143.27,-11.87],[143.27,-11.85],[143.29,-11.85],[143.27,-11.81],[143.26,-11.81],[143.26,-11.79],[143.27,-11.79],[143.25,-11.76],[143.25,-11.75],[143.2661,-11.7332],[143.2878,-11.7316],[143.4537,-11.7797],[143.4711,-11.7877]],[[143.8332,-12.5663],[143.8332,-12.6013],[143.8901,-12.6013],[143.8901,-12.5663],[143.8332,-12.5663]],[[143.8257,-12.9902],[143.8495,-13.0192],[143.8712,-13.0192],[143.8714,-13.0041],[143.8494,-12.9744],[143.8418,-12.9744],[143.8257,-12.9902]],[[143.393,-12.274],[143.393,-12.306],[143.425,-12.306],[143.425,-12.274],[143.393,-12.274]],[[143.8315,-12.401],[143.8315,-12.4279],[143.8603,-12.4279],[143.8603,-12.401],[143.8315,-12.401]],[[143.4807,-12.5244],[143.4962,-12.5275],[143.505,-12.5263],[143.4905,-12.5262],[143.475,-12.5211],[143.4623,-12.513],[143.4557,-12.5074],[143.454,-12.5036],[143.4548,-12.5079],[143.4618,-12.5136],[143.4807,-12.5244]],[[143.4471,-12.4976],[143.4483,-12.4969],[143.4335,-12.4832],[143.4333,-12.4814],[143.4324,-12.4837],[143.4404,-12.4899],[143.4471,-12.4976]],[[143.2806,-11.8601],[143.2843,-11.8557],[143.2809,-11.8564],[143.2806,-11.8601]],[[143.321,-12.2506],[143.3216,-12.2515],[143.3227,-12.2501],[143.3217,-12.2467],[143.321,-12.2506]],[[143.2674,-12.2393],[143.2689,-12.2384],[143.2658,-12.2359],[143.2674,-12.2393]],[[143.4525,-12.0623],[143.4547,-12.0619],[143.4613,-12.0538],[143.4525,-12.0623]],[[143.3154,-11.8353],[143.3142,-11.8366],[143.3154,-11.8382],[143.3176,-11.8365],[143.3154,-11.8353]],[[143.7332,-13.4879],[143.7344,-13.4886],[143.7362,-13.4864],[143.7332,-13.4879]],[[143.3016,-11.8489],[143.3016,-11.846],[143.3004,-11.8478],[143.3016,-11.8489]],[[143.4739,-11.835],[143.4691,-11.8355],[143.4717,-11.8364],[143.4739,-11.835]],[[143.7464,-13.389],[143.7477,-13.3902],[143.7492,-13.3894],[143.7464,-13.389]],[[143.8533,-13.0225],[143.8496,-13.023],[143.8512,-13.0243],[143.8533,-13.0225]],[[143.3837,-11.8846],[143.3866,-11.8836],[143.3889,-11.8815],[143.3837,-11.8846]],[[143.722,-13.4946],[143.7234,-13.4945],[143.7245,-13.4919],[143.722,-13.4946]],[[143.3714,-12.405],[143.3692,-12.4027],[143.3724,-12.4087],[143.3714,-12.405]],[[143.2942,-12.2685],[143.2957,-12.2684],[143.2929,-12.2657],[143.2942,-12.2685]],[[143.6431,-11.8848],[143.6461,-11.8838],[143.6433,-11.8835],[143.6431,-11.8848]],[[143.7363,-13.4789],[143.7375,-13.4799],[143.7371,-13.4776],[143.7363,-13.4789]],[[143.3048,-11.8487],[143.304,-11.8505],[143.3055,-11.85],[143.3048,-11.8487]],[[143.5728,-12.7042],[143.5738,-12.7045],[143.5745,-12.7027],[143.5728,-12.7042]],[[143.8646,-13.0405],[143.8664,-13.0395],[143.8654,-13.0391],[143.8646,-13.0405]],[[143.3007,-12.2318],[143.3036,-12.2355],[143.3036,-12.2342],[143.3007,-12.2318]],[[143.3808,-11.8858],[143.38,-11.8853],[143.3777,-11.8863],[143.3808,-11.8858]],[[143.8198,-12.9593],[143.8208,-12.9594],[143.8214,-12.9574],[143.8198,-12.9593]],[[143.475,-11.8337],[143.4736,-11.8345],[143.4765,-11.8346],[143.475,-11.8337]],[[143.4613,-11.841],[143.4629,-11.8412],[143.4631,-11.8399],[143.4613,-11.841]],[[143.691,-11.9254],[143.6915,-11.924],[143.6903,-11.9244],[143.691,-11.9254]],[[143.4314,-11.8534],[143.4325,-11.8532],[143.4334,-11.8514],[143.4314,-11.8534]],[[143.4186,-11.8616],[143.4171,-11.8637],[143.4182,-11.8634],[143.4186,-11.8616]],[[143.6774,-11.8875],[143.6789,-11.8872],[143.6778,-11.8865],[143.6774,-11.8875]],[[143.4129,-11.8659],[143.4142,-11.8639],[143.4136,-11.864],[143.4129,-11.8659]],[[143.4214,-11.86],[143.4224,-11.8602],[143.4238,-11.8581],[143.4214,-11.86]],[[143.5876,-12.1219],[143.5892,-12.1217],[143.588,-12.121],[143.5876,-12.1219]],[[143.5719,-12.1189],[143.573,-12.1185],[143.573,-12.1174],[143.5719,-12.1189]],[[143.5097,-12.5874],[143.5098,-12.5862],[143.5085,-12.586],[143.5097,-12.5874]],[[143.3832,-11.8847],[143.382,-11.8849],[143.3818,-11.8862],[143.3832,-11.8847]],[[143.2648,-12.2177],[143.2639,-12.2183],[143.2653,-12.2184],[143.2648,-12.2177]],[[143.4777,-11.8336],[143.4772,-11.8332],[143.4773,-11.8348],[143.4777,-11.8336]],[[143.811,-12.7986],[143.8125,-12.7977],[143.8128,-12.7968],[143.811,-12.7986]],[[143.3045,-12.2374],[143.3051,-12.2373],[143.304,-12.2361],[143.3045,-12.2374]],[[143.48,-11.8325],[143.4805,-11.8327],[143.4811,-11.8315],[143.48,-11.8325]],[[143.3044,-12.2393],[143.3046,-12.238],[143.3041,-12.2386],[143.3044,-12.2393]],[[143.3675,-12.4007],[143.3678,-12.401],[143.3683,-12.4],[143.3675,-12.4007]],[[143.7908,-12.7921],[143.7918,-12.7924],[143.7919,-12.7916],[143.7908,-12.7921]],[[143.4195,-11.8612],[143.4193,-11.8621],[143.4203,-11.861],[143.4195,-11.8612]],[[143.4885,-12.4047],[143.4886,-12.4033],[143.4882,-12.4037],[143.4885,-12.4047]]]},"properties":{"id":"gbrmpa-zone-524","type":"Habitat Protection Zone","zone":"Dark Blue Zone","color":"#3f6fb0","name":"HP-11-5046","permit":"Far Northern Mid-Shelf","source":"GBRMPA"}},{"type":"Feature","geometry":{"type":"Polygon","coordinates":[[[143.721,-13.8698],[143.7182,-13.8699],[143.714,-13.8658],[143.7158,-13.8608],[143.7191,-13.8605],[143.7212,-13.8623],[143.721,-13.8698]]]},"properties":{"id":"gbrmpa-zone-673","type":"Commonwealth Islands Zone (GBRMPA)","zone":"Commonwealth Island Zone","color":"#b0b8bd","name":"Hannah Island (13097100)","permit":null,"source":"GBRMPA"}},{"type":"Feature","geometry":{"type":"Polygon","coordinates":[[[143.72,-13.3667],[143.72,-13.3933],[143.7133,-13.4],[143.6934,-13.4],[143.6844,-13.3733],[143.6846,-13.36],[143.6934,-13.36],[143.72,-13.3667]],[[143.6932,-13.371],[143.6946,-13.3703],[143.6937,-13.3688],[143.6932,-13.371]]]},"properties":{"id":"gbrmpa-zone-530","type":"Habitat Protection Zone","zone":"Dark Blue Zone","color":"#3f6fb0","name":"HP-13-5081","permit":"Ellis Reef (13-059)","source":"GBRMPA"}},{"type":"Feature","geometry":{"type":"Polygon","coordinates":[[[143.9037,-13.8963],[143.8912,-13.9187],[143.8812,-13.9088],[143.8919,-13.8963],[143.9037,-13.8963]],[[143.8891,-13.9078],[143.8901,-13.9071],[143.8892,-13.9071],[143.8891,-13.9078]]]},"properties":{"id":"gbrmpa-zone-481","type":"Habitat Protection Zone","zone":"Dark Blue Zone","color":"#3f6fb0","name":"HP-13-5381","permit":"Kestrel Reef (13-104)","source":"GBRMPA"}},{"type":"Feature","geometry":{"type":"Polygon","coordinates":[[[143.6934,-12.96],[143.68,-12.96],[143.6734,-12.9533],[143.6867,-12.94],[143.6934,-12.9467],[143.6934,-12.96]]]},"properties":{"id":"gbrmpa-zone-550","type":"Habitat Protection Zone","zone":"Dark Blue Zone","color":"#3f6fb0","name":"HP-12-5067","permit":"Unnamed reef 12-139","source":"GBRMPA"}},{"type":"Feature","geometry":{"type":"Polygon","coordinates":[[[143.78,-13.36],[143.75,-13.36],[143.74,-13.35],[143.74,-13.3333],[143.72,-13.3333],[143.72,-13.32],[143.7267,-13.3133],[143.74,-13.3133],[143.74,-13.33],[143.77,-13.32],[143.78,-13.3],[143.79,-13.29],[143.8,-13.29],[143.82,-13.32],[143.82,-13.34],[143.78,-13.36]]]},"properties":{"id":"gbrmpa-zone-533","type":"Habitat Protection Zone","zone":"Dark Blue Zone","color":"#3f6fb0","name":"HP-13-5079","permit":"Unnamed reefs 13-052 and 13-055","source":"GBRMPA"}},{"type":"Feature","geometry":{"type":"Polygon","coordinates":[[[143.7284,-13.8594],[143.7284,-13.8717],[143.7232,-13.877],[143.7143,-13.877],[143.7067,-13.8689],[143.7067,-13.86],[143.7133,-13.8533],[143.7233,-13.8533],[143.7284,-13.8594]],[[143.7189,-13.8701],[143.7215,-13.8692],[143.7215,-13.8633],[143.7199,-13.8609],[143.7171,-13.8604],[143.7149,-13.8614],[143.7139,-13.8652],[143.7189,-13.8701]]]},"properties":{"id":"gbrmpa-zone-484","type":"Habitat Protection Zone","zone":"Dark Blue Zone","color":"#3f6fb0","name":"HP-13-5089","permit":"Hannah Island Reef (13-097)","source":"GBRMPA"}},{"type":"Feature","geometry":{"type":"Polygon","coordinates":[[[144,-13.92],[143.98,-13.95],[143.93,-13.98],[143.91,-13.99],[143.87,-13.98],[143.87,-13.94],[143.8912,-13.9187],[143.9037,-13.8963],[143.92,-13.88],[143.931,-13.8576],[143.9652,-13.8368],[143.9802,-13.8053],[143.9843,-13.7918],[143.9962,-13.779],[144.01,-13.779],[144.0218,-13.7888],[144.0218,-13.8329],[144.007,-13.8702],[144.0018,-13.8898],[144,-13.92]],[[143.8801,-13.9473],[143.8788,-13.9458],[143.8767,-13.9466],[143.8806,-13.9557],[143.8822,-13.9513],[143.8801,-13.9473]],[[143.9044,-13.9463],[143.9067,-13.9492],[143.9098,-13.9493],[143.9074,-13.9458],[143.9044,-13.9463]],[[143.8941,-13.945],[143.8945,-13.9467],[143.8988,-13.9454],[143.8995,-13.9435],[143.8968,-13.9429],[143.8941,-13.945]]]},"properties":{"id":"gbrmpa-zone-490","type":"Marine National Park Zone","zone":"Green Zone","color":"#2fae5a","name":"MNP-13-1174","permit":"Hedge Reef (13-108)","source":"GBRMPA"}},{"type":"Feature","geometry":{"type":"Polygon","coordinates":[[[143.1046,-12.2385],[143.1046,-12.2675],[143.09,-12.2675],[143.0922,-12.2609],[143.0961,-12.2579],[143.0967,-12.2535],[143.0897,-12.2496],[143.0867,-12.2437],[143.088,-12.2387],[143.1046,-12.2385]]]},"properties":{"id":"gbrmpa-zone-571","type":"Conservation Park Zone","zone":"Yellow Zone","color":"#e8c23f","name":"CP-12-4003","permit":"Bolt Head","source":"GBRMPA"}},{"type":"Feature","geometry":{"type":"Polygon","coordinates":[[[143.8626,-13.0177],[143.8562,-13.0163],[143.841,-13.0037],[143.8386,-12.9936],[143.8365,-12.9904],[143.8302,-12.991],[143.8306,-12.9887],[143.8426,-12.9783],[143.8448,-12.9788],[143.8624,-12.9967],[143.8658,-13.0106],[143.8626,-13.0177]]]},"properties":{"id":"gbrmpa-zone-548","type":"Marine National Park Zone","zone":"Green Zone","color":"#2fae5a","name":"MNP-12-1013","permit":"Cat Reef (12-143)","source":"GBRMPA"}},{"type":"Feature","geometry":{"type":"Polygon","coordinates":[[[143.26,-11.79],[143.26,-11.81],[143.27,-11.81],[143.29,-11.85],[143.27,-11.85],[143.27,-11.87],[143.29,-11.88],[143.3,-11.88],[143.36,-11.9385],[143.36,-11.97],[143.4118,-11.97],[143.4105,-11.9719],[143.3563,-11.9899],[143.3331,-12.0112],[143.31,-12.0646],[143.3,-12.0746],[143.3,-12.1046],[143.31,-12.1245],[143.33,-12.1445],[143.37,-12.1646],[143.4,-12.1846],[143.4,-12.2146],[143.3199,-12.2346],[143.3123,-12.2346],[143.3123,-12.2278],[143.2706,-12.207],[143.2581,-12.207],[143.2581,-12.2325],[143.2731,-12.2585],[143.2989,-12.2839],[143.307,-12.2839],[143.373,-12.3862],[143.3586,-12.3977],[143.38,-12.43],[143.4684,-12.5386],[143.57,-12.5386],[143.57,-12.56],[143.5331,-12.575],[143.5039,-12.575],[143.5039,-12.5916],[143.5248,-12.6083],[143.5456,-12.6083],[143.5789,-12.5875],[143.614,-12.5875],[143.6141,-12.6958],[143.5664,-12.6958],[143.5664,-12.7041],[143.5748,-12.7166],[143.5998,-12.7291],[143.6414,-12.7291],[143.6414,-12.79],[143.71,-12.79],[143.71,-12.84],[143.68,-12.84],[143.68,-12.86],[143.7,-12.88],[143.72,-12.88],[143.72,-12.94],[143.74,-12.96],[143.74,-12.98],[143.7822,-13.0847],[143.8098,-13.1799],[143.7933,-13.18],[143.78,-13.1933],[143.78,-13.2],[143.7867,-13.2067],[143.8,-13.2067],[143.81,-13.1967],[143.81,-13.26],[143.84,-13.26],[143.84,-13.3698],[143.7363,-13.3798],[143.7186,-13.4269],[143.7121,-13.5048],[143.7247,-13.54],[143.7289,-13.6116],[143.8084,-13.6116],[143.9716,-13.56],[144.0432,-13.5148],[144.08,-13.57],[144.08,-13.6322],[144.0914,-13.65],[144.14,-13.65],[144.14,-13.68],[144.19,-13.71],[144.2,-13.71],[144.2671,-13.8106],[144.2671,-13.8583],[144.28,-13.9],[144.334,-13.9202],[144.334,-13.9497],[144.3438,-13.96],[144.37,-13.96],[144.37,-13.97],[144.43,-13.97],[144.43,-14],[144.5474,-14],[144.5474,-14.0625],[144.6156,-14.0625],[144.625,-14.075],[144.625,-14.175],[144.65,-14.25],[144.675,-14.3],[144.725,-14.375],[144.775,-14.4],[144.7934,-14.4],[144.8676,-14.4225],[144.8788,-14.4363],[144.8902,-14.4421],[144.9001,-14.4421],[144.9279,-14.4616],[144.9435,-14.4808],[144.9435,-14.5],[144.9471,-14.5101],[144.9604,-14.5328],[144.9831,-14.55],[145.004,-14.55],[145.24,-14.6292],[145.24,-14.67],[145.33,-14.74],[145.33,-14.8],[145.4,-14.9769],[145.46,-14.9769],[145.46,-15.0473],[145.4,-15.0473],[145.4,-15.0875],[145.3665,-15.0875],[145.3665,-15.1041],[145.4,-15.1041],[145.4,-15.252],[145.46,-15.252],[145.46,-15.38],[145.388,-15.38],[145.388,-15.6299],[145.4201,-15.6299],[145.4202,-15.6353],[145.4243,-15.6501],[145.5,-15.7129],[145.5,-15.92],[145.3792,-15.92],[145.3792,-15.8524],[145.382,-15.848],[145.382,-15.837],[145.3762,-15.83],[145.377,-15.755],[145.372,-15.72],[145.363,-15.697],[145.345,-15.676],[145.343,-15.662],[145.328,-15.6481],[145.328,-15.61],[145.338,-15.61],[145.338,-15.594],[145.3294,-15.594],[145.3287,-15.5922],[145.3267,-15.5932],[145.3204,-15.5892],[145.3192,-15.584],[145.3222,-15.5808],[145.319,-15.5794],[145.3173,-15.5751],[145.3228,-15.5707],[145.3189,-15.5696],[145.3176,-15.5662],[145.3108,-15.5605],[145.3079,-15.5542],[145.3052,-15.5523],[145.2823,-15.4941],[145.2828,-15.4916],[145.2956,-15.4916],[145.2956,-15.4708],[145.2831,-15.4708],[145.287,-15.3786],[145.2882,-15.3759],[145.2879,-15.37],[145.2854,-15.3646],[145.2956,-15.3506],[145.2982,-15.3424],[145.2873,-15.3349],[145.2863,-15.3306],[145.2837,-15.3294],[145.2835,-15.3236],[145.2854,-15.3185],[145.2923,-15.3097],[145.3122,-15.2916],[145.3307,-15.279],[145.3405,-15.2751],[145.3433,-15.2755],[145.344,-15.2777],[145.3502,-15.2763],[145.3545,-15.278],[145.3571,-15.2772],[145.3575,-15.2748],[145.3541,-15.2716],[145.3528,-15.2584],[145.3439,-15.2479],[145.3448,-15.2329],[145.343,-15.2293],[145.3386,-15.2268],[145.3357,-15.2208],[145.3498,-15.2208],[145.3498,-15.2083],[145.3294,-15.2083],[145.2986,-15.1458],[145.3331,-15.1458],[145.3331,-15.1292],[145.2903,-15.1292],[145.2663,-15.0805],[145.2884,-15.0446],[145.3323,-14.9985],[145.3827,-14.9985],[145.3693,-14.9185],[145.3,-14.9185],[145.3,-14.944],[145.2246,-14.8483],[145.2297,-14.8359],[145.2317,-14.836],[145.2168,-14.7675],[145.2168,-14.6956],[145.2096,-14.6926],[145.1133,-14.7279],[144.9117,-14.5491],[144.8486,-14.5257],[144.8486,-14.5188],[144.8412,-14.5188],[144.8412,-14.523],[144.766,-14.4951],[144.7113,-14.4713],[144.6418,-14.4379],[144.6418,-14.4001],[144.662,-14.378],[144.662,-14.3473],[144.6542,-14.334],[144.647,-14.334],[144.6344,-14.3042],[144.6011,-14.2485],[144.5261,-14.1485],[144.4968,-14.1485],[144.4882,-14.1402],[144.4818,-14.1387],[144.288,-14.23],[144.288,-14.1673],[144.2734,-14.1456],[144.2382,-14.124],[144.228,-14.124],[144.196,-14.1744],[144.196,-14.2479],[144.1198,-14.359],[143.81,-14.2301],[143.7847,-14.2036],[143.64,-13.78],[143.65,-13.78],[143.65,-13.74],[143.64,-13.73],[143.6446,-13.5533],[143.66,-13.5533],[143.6616,-13.5517],[143.6625,-13.5431],[143.6619,-13.5352],[143.66,-13.5333],[143.6452,-13.5333],[143.6463,-13.4981],[143.6509,-13.458],[143.6559,-13.4565],[143.6553,-13.4487],[143.6522,-13.4466],[143.656,-13.402],[143.61,-13.33],[143.61,-13.32],[143.6,-13.32],[143.5748,-13.2792],[143.5748,-13.2016],[143.585,-13.2016],[143.585,-13.1665],[143.567,-13.1665],[143.56,-13.148],[143.56,-13.12],[143.57,-13.11],[143.56,-13.1],[143.56,-13.07],[143.57,-13.06],[143.5601,-13.0504],[143.5601,-12.812],[143.552,-12.8],[143.427,-12.8],[143.4076,-12.7583],[143.43,-12.68],[143.44,-12.67],[143.45,-12.67],[143.46,-12.66],[143.45,-12.65],[143.44,-12.65],[143.45,-12.63],[143.4645,-12.63],[143.4645,-12.6217],[143.4498,-12.6078],[143.42,-12.59],[143.36,-12.56],[143.2999,-12.4966],[143.2999,-12.4138],[143.2156,-12.3091],[143.1246,-12.2771],[143.1246,-12.2467],[143.1467,-12.2467],[143.1467,-12.2267],[143.1246,-12.2267],[143.1246,-12.1505],[143.21,-12.01],[143.25,-12],[143.2768,-12],[143.2957,-11.9713],[143.2677,-11.9423],[143.26,-11.95],[143.26,-11.96],[143.25,-11.96],[143.2299,-11.9491],[143.2218,-11.9491],[143.2218,-11.9411],[143.2022,-11.9411],[143.1495,-11.9167],[143.1361,-11.9],[143.1206,-11.9],[143.1206,-11.8916],[143.1123,-11.8833],[143.0973,-11.8833],[143.1,-11.84],[143.1,-11.7],[143.2175,-11.742],[143.25,-11.75],[143.25,-11.76],[143.27,-11.79],[143.26,-11.79]],[[144.06,-13.88],[143.9107,-14.0386],[144.0228,-14.0803],[144.1309,-14.0803],[144.2474,-13.9796],[144.2474,-13.9141],[144.231,-13.8717],[144.18,-13.8717],[144.1619,-13.84],[144.06,-13.84],[144.06,-13.88]],[[143.78,-13.63],[143.77,-13.64],[143.77,-13.67],[143.74,-13.73],[143.75,-13.75],[143.78,-13.74],[143.7978,-13.7133],[143.8267,-13.7133],[143.8267,-13.6733],[143.83,-13.67],[143.83,-13.64],[143.84,-13.63],[143.89,-13.63],[143.89,-13.65],[143.88,-13.66],[143.87,-13.71],[143.79,-13.79],[143.75,-13.79],[143.73,-13.8],[143.73,-13.81],[143.77,-13.84],[143.77,-13.85],[143.7802,-13.85],[143.79,-13.84],[143.84,-13.84],[143.87,-13.81],[143.91,-13.78],[143.96,-13.68],[143.96,-13.67],[143.94,-13.66],[143.94,-13.6],[143.93,-13.59],[143.91,-13.59],[143.78,-13.63]],[[143.94,-13.77],[143.88,-13.86],[143.88,-13.88],[143.92,-13.88],[143.9037,-13.8963],[143.8919,-13.8963],[143.8812,-13.9088],[143.8912,-13.9187],[143.87,-13.94],[143.87,-13.98],[143.91,-13.99],[143.93,-13.98],[143.98,-13.95],[144,-13.92],[144.02,-13.92],[144.05,-13.85],[144.05,-13.81],[144.01,-13.779],[144.01,-13.75],[144,-13.74],[143.99,-13.74],[143.99,-13.72],[143.95,-13.74],[143.94,-13.76],[143.94,-13.77]],[[143.63,-13.08],[143.63,-13.13],[143.69,-13.13],[143.69,-13.12],[143.71,-13.12],[143.75,-13.11],[143.75,-13.08],[143.73,-13.04],[143.6948,-13.0291],[143.622,-13.0291],[143.6124,-13.0383],[143.6124,-13.0558],[143.63,-13.08]],[[143.77,-13.15],[143.74,-13.16],[143.73,-13.16],[143.73,-13.17],[143.72,-13.17],[143.66,-13.2],[143.66,-13.23],[143.6901,-13.2472],[143.6748,-13.2625],[143.6748,-13.275],[143.6789,-13.2832],[143.679,-13.2933],[143.6622,-13.2933],[143.6672,-13.3132],[143.68,-13.3133],[143.6867,-13.3067],[143.6867,-13.2958],[143.7039,-13.2958],[143.7164,-13.2833],[143.7164,-13.2622],[143.73,-13.27],[143.75,-13.27],[143.79,-13.23],[143.79,-13.21],[143.76,-13.21],[143.73,-13.22],[143.71,-13.21],[143.7201,-13.1899],[143.73,-13.18],[143.78,-13.18],[143.79,-13.17],[143.79,-13.16],[143.78,-13.15],[143.77,-13.15]],[[143.78,-13.3],[143.77,-13.32],[143.74,-13.33],[143.74,-13.3133],[143.7267,-13.3133],[143.72,-13.32],[143.72,-13.3333],[143.74,-13.3333],[143.74,-13.35],[143.75,-13.36],[143.78,-13.36],[143.82,-13.34],[143.82,-13.32],[143.8,-13.29],[143.79,-13.29],[143.78,-13.3]],[[144.2041,-14.0661],[144.2041,-14.0874],[144.2763,-14.0874],[144.2763,-14.0432],[144.2507,-14.0432],[144.2041,-14.0661]],[[143.5873,-12.8874],[143.5998,-12.9],[143.629,-12.8916],[143.6456,-12.875],[143.6456,-12.8625],[143.6623,-12.8625],[143.6623,-12.8333],[143.6248,-12.8333],[143.6206,-12.8375],[143.6206,-12.8458],[143.6289,-12.8541],[143.6289,-12.8625],[143.6206,-12.8708],[143.5873,-12.8708],[143.5873,-12.8874]],[[145.427,-15.716],[145.427,-15.764],[145.4488,-15.764],[145.476,-15.742],[145.4668,-15.7159],[145.427,-15.716]],[[143.68,-12.98],[143.6667,-12.9867],[143.66,-12.9933],[143.66,-13.0066],[143.6734,-13.0133],[143.7067,-13.0066],[143.7333,-13.0066],[143.7333,-12.9867],[143.6881,-12.98],[143.68,-12.98]],[[143.5289,-12.6458],[143.5164,-12.6583],[143.5164,-12.6666],[143.5206,-12.6708],[143.5289,-12.6708],[143.5331,-12.6666],[143.5331,-12.6541],[143.5748,-12.6541],[143.5956,-12.6333],[143.5956,-12.6208],[143.5873,-12.6208],[143.5748,-12.6291],[143.5498,-12.6291],[143.5456,-12.6333],[143.5289,-12.6333],[143.5289,-12.6458]],[[143.1867,-12.2467],[143.2,-12.2533],[143.2133,-12.2533],[143.2333,-12.2667],[143.2534,-12.2667],[143.2534,-12.2533],[143.2333,-12.2333],[143.1867,-12.2333],[143.1867,-12.2467]],[[143.46,-12.78],[143.46,-12.79],[143.5,-12.79],[143.49,-12.74],[143.47,-12.75],[143.46,-12.78]],[[143.2467,-12.1],[143.2667,-12.12],[143.28,-12.12],[143.28,-12.0933],[143.2733,-12.0733],[143.2544,-12.0733],[143.2467,-12.0866],[143.2467,-12.1]],[[143.6844,-13.3733],[143.6934,-13.4],[143.7133,-13.4],[143.72,-13.3933],[143.72,-13.3667],[143.6934,-13.36],[143.6846,-13.36],[143.6844,-13.3733]],[[143.7107,-13.6494],[143.7132,-13.67],[143.75,-13.67],[143.75,-13.6323],[143.7106,-13.6483],[143.7107,-13.6494]],[[144.3289,-14.0791],[144.304,-14.1041],[144.304,-14.1125],[144.3248,-14.1125],[144.3414,-14.1041],[144.3456,-14.0958],[144.3456,-14.0791],[144.3289,-14.0791]],[[143.5963,-12.7763],[143.6,-12.78],[143.63,-12.78],[143.63,-12.76],[143.59,-12.75],[143.59,-12.77],[143.5963,-12.7763]],[[144.523,-14.1045],[144.5066,-14.118],[144.5068,-14.1278],[144.5123,-14.1333],[144.5373,-14.1333],[144.5414,-14.1291],[144.5415,-14.1047],[144.523,-14.1045]],[[143.8249,-13.917],[143.8331,-13.9375],[143.8414,-13.9375],[143.8498,-13.9291],[143.8498,-13.9],[143.8248,-13.9],[143.8249,-13.917]],[[143.29,-12.023],[143.29,-12.05],[143.31,-12.05],[143.31,-12.01],[143.2984,-12.01],[143.29,-12.023]],[[143.5081,-12.5541],[143.5081,-12.5667],[143.5415,-12.5667],[143.554,-12.5583],[143.554,-12.5458],[143.5081,-12.5541]],[[144.7987,-14.4195],[144.7987,-14.4433],[144.8241,-14.4433],[144.8241,-14.4195],[144.7987,-14.4195]],[[143.38,-12.5267],[143.3867,-12.5333],[143.4067,-12.5333],[143.3888,-12.5],[143.38,-12.5],[143.38,-12.5267]],[[144.9014,-14.4948],[144.9014,-14.5162],[144.9273,-14.5162],[144.9273,-14.4948],[144.9014,-14.4948]],[[144.0133,-14.1206],[143.9867,-14.12],[143.98,-14.1267],[143.9933,-14.14],[144.0133,-14.1333],[144.0133,-14.1206]],[[143.6267,-12.9867],[143.6267,-12.98],[143.6,-12.98],[143.6,-12.9933],[143.6066,-13],[143.62,-13],[143.6267,-12.9867]],[[143.2618,-12.1322],[143.2675,-12.1411],[143.277,-12.1495],[143.2834,-12.1503],[143.288,-12.1469],[143.2887,-12.1414],[143.287,-12.1378],[143.2742,-12.1257],[143.2688,-12.1236],[143.2623,-12.1253],[143.2618,-12.1322]],[[143.8498,-13.9708],[143.8498,-13.95],[143.8279,-13.95],[143.8355,-13.975],[143.8414,-13.975],[143.8498,-13.9708]],[[143.7284,-13.8594],[143.7233,-13.8533],[143.7133,-13.8533],[143.7067,-13.86],[143.7067,-13.8689],[143.7143,-13.877],[143.7232,-13.877],[143.7284,-13.8717],[143.7284,-13.8594]],[[145.2667,-14.7267],[145.2867,-14.7267],[145.2867,-14.7067],[145.2667,-14.7067],[145.2667,-14.7267]],[[143.6,-12.8],[143.6,-12.82],[143.62,-12.82],[143.62,-12.8],[143.6,-12.8]],[[143.74,-13.1267],[143.74,-13.1467],[143.76,-13.1467],[143.76,-13.1333],[143.7534,-13.1267],[143.74,-13.1267]],[[145.3887,-15.7113],[145.3955,-15.7208],[145.4081,-15.7208],[145.4081,-15.7],[145.3887,-15.7],[145.3887,-15.7113]],[[145.4321,-15.0276],[145.4421,-15.0324],[145.4497,-15.0324],[145.4536,-15.0282],[145.4536,-15.0222],[145.4499,-15.0165],[145.4394,-15.0129],[145.4308,-15.0162],[145.4292,-15.0217],[145.4321,-15.0276]],[[143.6467,-12.9267],[143.6467,-12.94],[143.66,-12.94],[143.6667,-12.9333],[143.6667,-12.92],[143.6533,-12.92],[143.6467,-12.9267]],[[143.7593,-13.9533],[143.7637,-13.9462],[143.7637,-13.9351],[143.7594,-13.9313],[143.7563,-13.9313],[143.7485,-13.9355],[143.7444,-13.9399],[143.7444,-13.948],[143.7487,-13.9533],[143.7593,-13.9533]],[[143.6961,-13.854],[143.6961,-13.844],[143.693,-13.8389],[143.6886,-13.8348],[143.6842,-13.8348],[143.6802,-13.8374],[143.6771,-13.8417],[143.6771,-13.8467],[143.6823,-13.8546],[143.6881,-13.8577],[143.6948,-13.8563],[143.6961,-13.854]],[[143.2192,-12.139],[143.2201,-12.1399],[143.23,-12.13],[143.23,-12.12],[143.21,-12.12],[143.21,-12.13],[143.2192,-12.139]],[[143.2,-11.926],[143.2063,-11.9361],[143.218,-11.9361],[143.218,-11.926],[143.2091,-11.916],[143.2,-11.916],[143.2,-11.926]],[[145.3081,-14.7942],[145.3081,-14.7958],[145.3248,-14.7958],[145.3248,-14.7791],[145.3081,-14.7791],[145.3081,-14.7942]],[[145.3172,-15.4959],[145.3172,-15.5125],[145.3337,-15.5125],[145.3337,-15.4959],[145.3172,-15.4959]],[[144.8845,-14.4645],[144.8868,-14.4703],[144.8933,-14.4746],[144.8986,-14.4736],[144.9013,-14.47],[144.9011,-14.4614],[144.8982,-14.4537],[144.891,-14.454],[144.8859,-14.459],[144.8845,-14.4645]],[[143.6867,-12.94],[143.6734,-12.9533],[143.68,-12.96],[143.6934,-12.96],[143.6934,-12.9467],[143.6867,-12.94]],[[144.762,-14.484],[144.762,-14.468],[144.746,-14.468],[144.746,-14.484],[144.762,-14.484]],[[143.9195,-14.0812],[143.9195,-14.0752],[143.917,-14.0695],[143.9109,-14.0695],[143.9028,-14.0741],[143.9028,-14.0813],[143.9063,-14.0856],[143.9162,-14.0856],[143.9195,-14.0812]],[[145.1914,-14.6625],[145.1914,-14.675],[145.2081,-14.675],[145.2081,-14.6625],[145.1914,-14.6625]],[[145.1706,-14.6541],[145.1706,-14.6666],[145.1873,-14.6666],[145.1873,-14.6541],[145.1706,-14.6541]],[[143.604,-13.275],[143.5956,-13.2666],[143.5873,-13.2666],[143.5873,-13.275],[143.5956,-13.2833],[143.604,-13.2833],[143.604,-13.275]],[[145.424,-15.702],[145.424,-15.712],[145.444,-15.712],[145.444,-15.702],[145.424,-15.702]],[[143.6665,-13.1625],[143.6623,-13.1583],[143.6539,-13.1583],[143.6498,-13.1625],[143.6498,-13.1667],[143.6539,-13.1708],[143.6623,-13.1708],[143.6665,-13.1666],[143.6665,-13.1625]],[[145.2664,-14.8458],[145.2664,-14.8583],[145.28,-14.8583],[145.28,-14.846],[145.2664,-14.8458]],[[145.2789,-14.8083],[145.2789,-14.8208],[145.2914,-14.8208],[145.2914,-14.8083],[145.2789,-14.8083]],[[143.8623,-14.0708],[143.8623,-14.0583],[143.8498,-14.0583],[143.8498,-14.0708],[143.8623,-14.0708]],[[145.3468,-15.5368],[145.3533,-15.5423],[145.3579,-15.5423],[145.3579,-15.5268],[145.3468,-15.5268],[145.3468,-15.5368]],[[145.3893,-15.9059],[145.3893,-15.9173],[145.4024,-15.9173],[145.4024,-15.9059],[145.3893,-15.9059]],[[143.646,-13.156],[143.646,-13.144],[143.634,-13.144],[143.6373,-13.156],[143.646,-13.156]],[[143.6239,-13.158],[143.6239,-13.148],[143.6122,-13.148],[143.6122,-13.158],[143.6239,-13.158]],[[144.9149,-14.5444],[144.9177,-14.5472],[144.9212,-14.5472],[144.9249,-14.5433],[144.9249,-14.5402],[144.922,-14.5376],[144.9197,-14.5375],[144.9149,-14.5423],[144.9149,-14.5444]],[[143.6936,-13.6722],[143.6955,-13.6679],[143.6945,-13.6659],[143.6904,-13.6682],[143.6939,-13.6682],[143.6897,-13.6687],[143.6884,-13.6706],[143.6898,-13.6741],[143.6936,-13.6722]]]},"properties":{"id":"gbrmpa-zone-525","type":"General Use Zone","zone":"Light Blue Zone","color":"#7fc3dd","name":"GU-11-6002","permit":null,"source":"GBRMPA"}},{"type":"Feature","geometry":{"type":"Polygon","coordinates":[[[143.7594,-13.9313],[143.7637,-13.9351],[143.7637,-13.9462],[143.7593,-13.9533],[143.7487,-13.9533],[143.7444,-13.948],[143.7444,-13.9399],[143.7485,-13.9355],[143.7563,-13.9313],[143.7594,-13.9313]],[[143.7514,-13.9403],[143.7534,-13.9406],[143.7563,-13.938],[143.7576,-13.9392],[143.7568,-13.9336],[143.7509,-13.9382],[143.7514,-13.9403]]]},"properties":{"id":"gbrmpa-zone-479","type":"Habitat Protection Zone","zone":"Dark Blue Zone","color":"#3f6fb0","name":"HP-13-5091","permit":"Burkitt Island Reef (13-111)","source":"GBRMPA"}},{"type":"Feature","geometry":{"type":"Polygon","coordinates":[[[144.231,-13.8717],[144.2474,-13.9141],[144.2474,-13.9796],[144.1309,-14.0803],[144.0228,-14.0803],[143.9107,-14.0386],[144.06,-13.88],[144.07,-13.89],[144.17,-13.89],[144.18,-13.8717],[144.231,-13.8717]],[[143.9223,-14.0323],[143.9312,-14.0317],[143.9502,-14.0229],[143.9583,-14.0159],[143.9651,-14.0127],[143.9781,-14.0004],[143.9716,-14.0019],[143.9667,-14.0076],[143.9463,-14.0217],[143.9353,-14.0276],[143.924,-14.0304],[143.9223,-14.0323]],[[143.9949,-13.9821],[144.0009,-13.9767],[144.0053,-13.9703],[144.005,-13.9681],[144.0027,-13.9691],[143.9949,-13.9821]]]},"properties":{"id":"gbrmpa-zone-482","type":"Marine National Park Zone","zone":"Green Zone","color":"#2fae5a","name":"MNP-13-1019","permit":"Corbett Reef (14-016) and Grub Reef (14-003)","source":"GBRMPA"}},{"type":"Feature","geometry":{"type":"Polygon","coordinates":[[[143.6667,-12.92],[143.6667,-12.9333],[143.66,-12.94],[143.6467,-12.94],[143.6467,-12.9267],[143.6533,-12.92],[143.6667,-12.92]],[[143.6568,-12.9308],[143.6584,-12.9306],[143.658,-12.929],[143.6564,-12.9293],[143.6568,-12.9308]]]},"properties":{"id":"gbrmpa-zone-551","type":"Habitat Protection Zone","zone":"Dark Blue Zone","color":"#3f6fb0","name":"HP-12-5066","permit":"Unnamed reef 12-133","source":"GBRMPA"}},{"type":"Feature","geometry":{"type":"Polygon","coordinates":[[[143.8498,-13.9],[143.8498,-13.9291],[143.8414,-13.9375],[143.8331,-13.9375],[143.8248,-13.9166],[143.8248,-13.9],[143.8498,-13.9]],[[143.8326,-13.9148],[143.834,-13.9142],[143.8338,-13.9108],[143.832,-13.9118],[143.8326,-13.9148]]]},"properties":{"id":"gbrmpa-zone-480","type":"Habitat Protection Zone","zone":"Dark Blue Zone","color":"#3f6fb0","name":"HP-13-5090","permit":"Pelican Island Reef (13-107)","source":"GBRMPA"}},{"type":"Feature","geometry":{"type":"Polygon","coordinates":[[[143.5956,-13.2666],[143.604,-13.275],[143.604,-13.2833],[143.5956,-13.2833],[143.5873,-13.275],[143.5873,-13.2666],[143.5956,-13.2666]],[[143.5968,-13.2764],[143.5979,-13.2757],[143.5963,-13.274],[143.5968,-13.2764]]]},"properties":{"id":"gbrmpa-zone-534","type":"Habitat Protection Zone","zone":"Dark Blue Zone","color":"#3f6fb0","name":"HP-13-5078","permit":"Lowrie Island Reef (13-045)","source":"GBRMPA"}},{"type":"Feature","geometry":{"type":"Polygon","coordinates":[[[143.6665,-13.8561],[143.7847,-14.2036],[143.7082,-14.2237],[143.6996,-14.1963],[143.6985,-14.1876],[143.7022,-14.1527],[143.7004,-14.1402],[143.702,-14.1382],[143.701,-14.1324],[143.7028,-14.127],[143.7,-14.1192],[143.6979,-14.1186],[143.6974,-14.1139],[143.6988,-14.1135],[143.6969,-14.1121],[143.6953,-14.1062],[143.6956,-14.0979],[143.6943,-14.0956],[143.6926,-14.096],[143.691,-14.0913],[143.6937,-14.088],[143.6942,-14.0738],[143.6918,-14.0701],[143.6932,-14.0676],[143.6923,-14.0649],[143.69,-14.063],[143.6849,-14.0467],[143.6808,-14.0152],[143.6753,-14.0067],[143.6706,-14.0062],[143.6649,-14.0019],[143.6625,-14.0025],[143.6526,-13.9894],[143.6427,-13.9854],[143.6437,-13.9842],[143.642,-13.9819],[143.6349,-13.9762],[143.6297,-13.9751],[143.6261,-13.9675],[143.6231,-13.9655],[143.6167,-13.9493],[143.6128,-13.9304],[143.6112,-13.9303],[143.6086,-13.9197],[143.6029,-13.9103],[143.6021,-13.9113],[143.6003,-13.9094],[143.6008,-13.9036],[143.5992,-13.9009],[143.6003,-13.8819],[143.59,-13.8561],[143.6665,-13.8561]],[[143.6953,-14.0766],[143.6964,-14.0768],[143.6966,-14.0693],[143.694,-14.0633],[143.6953,-14.0766]]]},"properties":{"id":"gbrmpa-zone-483","type":"Conservation Park Zone","zone":"Yellow Zone","color":"#e8c23f","name":"CP-13-4009","permit":"Port Stewart coastal area","source":"GBRMPA"}},{"type":"Feature","geometry":{"type":"Polygon","coordinates":[[[143.6267,-12.98],[143.6267,-12.9867],[143.62,-13],[143.6066,-13],[143.6,-12.9933],[143.6,-12.98],[143.6267,-12.98]],[[143.6148,-12.9855],[143.6162,-12.9853],[143.6175,-12.9872],[143.6167,-12.9843],[143.6148,-12.9855]],[[143.611,-12.9855],[143.6127,-12.9855],[143.6133,-12.9845],[143.611,-12.9855]]]},"properties":{"id":"gbrmpa-zone-546","type":"Habitat Protection Zone","zone":"Dark Blue Zone","color":"#3f6fb0","name":"HP-12-5068","permit":"Sherrard Reef (12-145)","source":"GBRMPA"}},{"type":"Feature","geometry":{"type":"Polygon","coordinates":[[[143.5441,-13.356],[143.626,-13.356],[143.656,-13.402],[143.6463,-13.4981],[143.5802,-13.498],[143.5844,-13.4791],[143.5968,-13.4427],[143.5972,-13.4258],[143.5984,-13.4227],[143.5954,-13.4195],[143.5963,-13.4137],[143.5908,-13.4099],[143.5883,-13.4046],[143.5858,-13.3975],[143.5838,-13.3784],[143.5811,-13.3738],[143.5777,-13.3722],[143.5742,-13.3738],[143.5596,-13.3681],[143.5441,-13.356]]]},"properties":{"id":"gbrmpa-zone-531","type":"Marine National Park Zone","zone":"Green Zone","color":"#2fae5a","name":"MNP-13-1016","permit":"Cape Sidmouth","source":"GBRMPA"}},{"type":"Feature","geometry":{"type":"Polygon","coordinates":[[[143.8498,-13.95],[143.8498,-13.9708],[143.8414,-13.975],[143.8355,-13.975],[143.8279,-13.95],[143.8498,-13.95]],[[143.8373,-13.957],[143.8383,-13.9569],[143.8386,-13.9561],[143.8373,-13.957]]]},"properties":{"id":"gbrmpa-zone-478","type":"Habitat Protection Zone","zone":"Dark Blue Zone","color":"#3f6fb0","name":"HP-13-5092","permit":"Iris Reef (13-113)","source":"GBRMPA"}},{"type":"Feature","geometry":{"type":"Polygon","coordinates":[[[143.8712,-13.0192],[143.8495,-13.0192],[143.8257,-12.9902],[143.8418,-12.9744],[143.8494,-12.9744],[143.8714,-13.0041],[143.8712,-13.0192]],[[143.8626,-13.0177],[143.8658,-13.0106],[143.8624,-12.9967],[143.8448,-12.9788],[143.8426,-12.9783],[143.8306,-12.9887],[143.8302,-12.991],[143.8365,-12.9904],[143.8386,-12.9936],[143.841,-13.0037],[143.8562,-13.0163],[143.8626,-13.0177]]]},"properties":{"id":"gbrmpa-zone-549","type":"Buffer Zone","zone":"Olive Green Zone","color":"#94a84f","name":"B-12-3002","permit":"Cat Reef (12-143) surrounds","source":"GBRMPA"}},{"type":"Feature","geometry":{"type":"Polygon","coordinates":[[[143.6456,-12.875],[143.629,-12.8916],[143.5998,-12.9],[143.5873,-12.8874],[143.5873,-12.8708],[143.6206,-12.8708],[143.6289,-12.8625],[143.6289,-12.8541],[143.6206,-12.8458],[143.6206,-12.8375],[143.6248,-12.8333],[143.6623,-12.8333],[143.6623,-12.8625],[143.6456,-12.8625],[143.6456,-12.875]],[[143.6023,-12.8855],[143.6048,-12.8875],[143.6041,-12.8846],[143.6023,-12.8855]],[[143.5967,-12.8841],[143.597,-12.8857],[143.5985,-12.8836],[143.5967,-12.8841]],[[143.5989,-12.8873],[143.599,-12.8902],[143.5993,-12.8875],[143.5989,-12.8873]],[[143.5989,-12.8813],[143.5993,-12.8808],[143.5982,-12.8795],[143.5989,-12.8813]],[[143.5964,-12.8778],[143.5966,-12.8781],[143.5969,-12.8774],[143.5964,-12.8778]]]},"properties":{"id":"gbrmpa-zone-552","type":"Habitat Protection Zone","zone":"Dark Blue Zone","color":"#3f6fb0","name":"HP-12-5065","permit":"Sunk Reef (12-122), Frederick Patches (12-126), unnamed reef 12-124 and Chapman Island Reef (12-129)","source":"GBRMPA"}},{"type":"Feature","geometry":{"type":"Polygon","coordinates":[[[143.6948,-13.8563],[143.6881,-13.8577],[143.6823,-13.8546],[143.6771,-13.8467],[143.6771,-13.8417],[143.6842,-13.8348],[143.6886,-13.8348],[143.6961,-13.844],[143.6961,-13.854],[143.6948,-13.8563]]]},"properties":{"id":"gbrmpa-zone-486","type":"Habitat Protection Zone","zone":"Dark Blue Zone","color":"#3f6fb0","name":"HP-13-5087","permit":"Sullivan Shoal (13-095)","source":"GBRMPA"}},{"type":"Feature","geometry":{"type":"Polygon","coordinates":[[[143.9924,-13.428],[143.9862,-13.428],[143.9831,-13.4192],[143.9793,-13.4158],[143.9627,-13.4169],[143.9484,-13.392],[143.9484,-13.384],[143.9804,-13.368],[144.0004,-13.408],[144.0004,-13.424],[143.9924,-13.428]]]},"properties":{"id":"gbrmpa-zone-529","type":"Preservation Zone","zone":"Pink Zone","color":"#e58fb0","name":"P-13-7","permit":"Unnamed reef 13-061","source":"GBRMPA"}},{"type":"Feature","geometry":{"type":"Polygon","coordinates":[[[143.6734,-13.0133],[143.66,-13.0066],[143.66,-12.9933],[143.6667,-12.9867],[143.68,-12.98],[143.6881,-12.98],[143.7333,-12.9867],[143.7333,-13.0066],[143.7067,-13.0066],[143.6734,-13.0133]]]},"properties":{"id":"gbrmpa-zone-547","type":"Habitat Protection Zone","zone":"Dark Blue Zone","color":"#3f6fb0","name":"HP-12-5069","permit":"Unnamed reef 12-146","source":"GBRMPA"}},{"type":"Feature","geometry":{"type":"Polygon","coordinates":[[[143.425,-12.274],[143.425,-12.306],[143.393,-12.306],[143.393,-12.274],[143.425,-12.274]],[[143.409,-12.2864],[143.4034,-12.2873],[143.4073,-12.2929],[143.4103,-12.2913],[143.4132,-12.293],[143.416,-12.2906],[143.4139,-12.2839],[143.41,-12.2831],[143.409,-12.2864]],[[143.4048,-12.2936],[143.4007,-12.2974],[143.4018,-12.3005],[143.4057,-12.2971],[143.4048,-12.2936]],[[143.4161,-12.2928],[143.4167,-12.2954],[143.4191,-12.2967],[143.4188,-12.293],[143.4161,-12.2928]]]},"properties":{"id":"gbrmpa-zone-570","type":"Conservation Park Zone","zone":"Yellow Zone","color":"#e8c23f","name":"CP-12-4004","permit":"Forbes Islands Reef (12-016b)","source":"GBRMPA"}},{"type":"Feature","geometry":{"type":"Polygon","coordinates":[[[143.6373,-13.156],[143.634,-13.144],[143.646,-13.144],[143.646,-13.156],[143.6373,-13.156]]]},"properties":{"id":"gbrmpa-zone-541","type":"Habitat Protection Zone","zone":"Dark Blue Zone","color":"#3f6fb0","name":"HP-13-5073","permit":"Glennie Reef (13-024)","source":"GBRMPA"}},{"type":"Feature","geometry":{"type":"Polygon","coordinates":[[[143.31,-12.01],[143.31,-12.05],[143.29,-12.05],[143.29,-12.023],[143.2984,-12.01],[143.31,-12.01]],[[143.3009,-12.036],[143.2985,-12.0362],[143.2967,-12.0386],[143.2964,-12.0427],[143.2993,-12.0433],[143.3027,-12.0416],[143.3035,-12.037],[143.3009,-12.036]],[[143.303,-12.0179],[143.3043,-12.0168],[143.3042,-12.0162],[143.303,-12.0179]],[[143.2982,-12.0185],[143.2967,-12.0188],[143.2975,-12.0195],[143.2982,-12.0185]]]},"properties":{"id":"gbrmpa-zone-578","type":"Habitat Protection Zone","zone":"Dark Blue Zone","color":"#3f6fb0","name":"HP-12-5050","permit":"Haggerston Island Reef (12-001)","source":"GBRMPA"}},{"type":"Feature","geometry":{"type":"Polygon","coordinates":[[[143.6031,-12.78],[143.6,-12.78],[143.59,-12.77],[143.59,-12.75],[143.63,-12.76],[143.63,-12.78],[143.6031,-12.78]]]},"properties":{"id":"gbrmpa-zone-555","type":"Habitat Protection Zone","zone":"Dark Blue Zone","color":"#3f6fb0","name":"HP-12-5063","permit":"Zenith Reef (12-115)","source":"GBRMPA"}},{"type":"Feature","geometry":{"type":"Polygon","coordinates":[[[143.5415,-12.5667],[143.5081,-12.5667],[143.5081,-12.5541],[143.554,-12.5458],[143.554,-12.5583],[143.5415,-12.5667]]]},"properties":{"id":"gbrmpa-zone-561","type":"Habitat Protection Zone","zone":"Dark Blue Zone","color":"#3f6fb0","name":"HP-12-5059","permit":"Dolphin Reef (12-096)","source":"GBRMPA"}},{"type":"Feature","geometry":{"type":"Polygon","coordinates":[[[143.2777,-12.1282],[143.287,-12.1378],[143.2887,-12.1414],[143.288,-12.1469],[143.2834,-12.1503],[143.277,-12.1495],[143.2675,-12.1411],[143.2618,-12.1322],[143.2623,-12.1253],[143.2658,-12.1236],[143.2742,-12.1257],[143.2777,-12.1282]],[[143.2675,-12.1307],[143.2687,-12.131],[143.2671,-12.1289],[143.2675,-12.1307]]]},"properties":{"id":"gbrmpa-zone-575","type":"Habitat Protection Zone","zone":"Dark Blue Zone","color":"#3f6fb0","name":"HP-12-5053","permit":"Laurel Reef (12-006)","source":"GBRMPA"}},{"type":"Feature","geometry":{"type":"Polygon","coordinates":[[[143.56,-13.07],[143.56,-13.1],[143.57,-13.11],[143.56,-13.12],[143.56,-13.148],[143.5076,-13.148],[143.5053,-13.1446],[143.5055,-13.1315],[143.5031,-13.1278],[143.503,-13.108],[143.506,-13.0806],[143.5087,-13.0725],[143.5601,-13.0504],[143.57,-13.06],[143.56,-13.07]]]},"properties":{"id":"gbrmpa-zone-543","type":"Habitat Protection Zone","zone":"Dark Blue Zone","color":"#3f6fb0","name":"HP-13-5071","permit":"Stork/Sykes Reefs coastal area: Stork Reef (13-012), unnamed reef 13-013, unnamed reef 13-019 and Sykes Reef (13-020)","source":"GBRMPA"}},{"type":"Feature","geometry":{"type":"Polygon","coordinates":[[[143.3888,-12.5],[143.4067,-12.5333],[143.3867,-12.5333],[143.38,-12.5267],[143.38,-12.5],[143.3888,-12.5]],[[143.3929,-12.5228],[143.3938,-12.5231],[143.3902,-12.5191],[143.3929,-12.5228]]]},"properties":{"id":"gbrmpa-zone-563","type":"Habitat Protection Zone","zone":"Dark Blue Zone","color":"#3f6fb0","name":"HP-12-5058","permit":"Middle Reef (12-072)","source":"GBRMPA"}},{"type":"Feature","geometry":{"type":"Polygon","coordinates":[[[143.6239,-13.148],[143.6239,-13.158],[143.6122,-13.158],[143.6122,-13.148],[143.6239,-13.148]],[[143.6173,-13.1537],[143.6179,-13.153],[143.6172,-13.1529],[143.6173,-13.1537]]]},"properties":{"id":"gbrmpa-zone-540","type":"Habitat Protection Zone","zone":"Dark Blue Zone","color":"#3f6fb0","name":"HP-13-5074","permit":"Waterwitch Reef (13-025)","source":"GBRMPA"}},{"type":"Feature","geometry":{"type":"Polygon","coordinates":[[[143.2733,-12.0733],[143.28,-12.0933],[143.28,-12.12],[143.2667,-12.12],[143.2467,-12.1],[143.2467,-12.0866],[143.2544,-12.0733],[143.2733,-12.0733]],[[143.2571,-12.0838],[143.2583,-12.0839],[143.256,-12.0815],[143.2571,-12.0838]]]},"properties":{"id":"gbrmpa-zone-577","type":"Habitat Protection Zone","zone":"Dark Blue Zone","color":"#3f6fb0","name":"HP-12-5051","permit":"Moody Reef (12-004)","source":"GBRMPA"}},{"type":"Feature","geometry":{"type":"Polygon","coordinates":[[[143.567,-13.1665],[143.567,-13.2016],[143.5172,-13.2016],[143.5182,-13.1892],[143.5227,-13.1785],[143.5215,-13.1734],[143.5137,-13.162],[143.5076,-13.148],[143.56,-13.148],[143.567,-13.1665]]]},"properties":{"id":"gbrmpa-zone-539","type":"Conservation Park Zone","zone":"Yellow Zone","color":"#e8c23f","name":"CP-13-4008","permit":"Bobardt Point","source":"GBRMPA"}},{"type":"Feature","geometry":{"type":"Polygon","coordinates":[[[143.2999,-12.4138],[143.2999,-12.4823],[143.2769,-12.4823],[143.2749,-12.4808],[143.2755,-12.4741],[143.2735,-12.4726],[143.2716,-12.4669],[143.2765,-12.4551],[143.2779,-12.4469],[143.2771,-12.4392],[143.2753,-12.4374],[143.2703,-12.4377],[143.2697,-12.436],[143.2724,-12.4197],[143.2719,-12.4107],[143.2738,-12.4067],[143.294,-12.4067],[143.2999,-12.4138]]]},"properties":{"id":"gbrmpa-zone-565","type":"Marine National Park Zone","zone":"Green Zone","color":"#2fae5a","name":"MNP-12-1009","permit":"Fair Cape","source":"GBRMPA"}},{"type":"Feature","geometry":{"type":"Polygon","coordinates":[[[143.74,-13.1467],[143.74,-13.1267],[143.7534,-13.1267],[143.76,-13.1333],[143.76,-13.1467],[143.74,-13.1467]]]},"properties":{"id":"gbrmpa-zone-542","type":"Habitat Protection Zone","zone":"Dark Blue Zone","color":"#3f6fb0","name":"HP-13-5072","permit":"Dart Shoal (13-023)","source":"GBRMPA"}},{"type":"Feature","geometry":{"type":"Polygon","coordinates":[[[143.2218,-11.9411],[143.2218,-11.9491],[143.2299,-11.9491],[143.25,-11.96],[143.26,-11.96],[143.26,-11.95],[143.2677,-11.9423],[143.2957,-11.9713],[143.2768,-12],[143.25,-12],[143.21,-12.01],[143.1246,-12.1505],[143.1246,-12.1737],[143.0952,-12.1737],[143.0932,-12.1578],[143.1015,-12.146],[143.1128,-12.1212],[143.1183,-12.1141],[143.1212,-12.1145],[143.1191,-12.1118],[143.1201,-12.1091],[143.1373,-12.087],[143.1359,-12.0864],[143.1362,-12.0845],[143.1466,-12.0698],[143.1524,-12.0569],[143.1518,-12.0542],[143.1554,-12.0494],[143.161,-12.0456],[143.1655,-12.0367],[143.167,-12.0296],[143.1782,-12.0129],[143.1853,-11.9911],[143.2077,-11.9758],[143.2139,-11.9745],[143.2169,-11.9746],[143.2214,-11.9811],[143.2211,-11.984],[143.2283,-11.9886],[143.2292,-11.9862],[143.2374,-11.9848],[143.2368,-11.9814],[143.2444,-11.974],[143.2442,-11.9687],[143.2415,-11.9654],[143.2324,-11.9643],[143.232,-11.9598],[143.2296,-11.9593],[143.225,-11.9538],[143.2192,-11.9537],[143.2192,-11.9488],[143.2022,-11.9411],[143.2218,-11.9411]],[[143.2687,-11.975],[143.2633,-11.9735],[143.2612,-11.9758],[143.2636,-11.9789],[143.2663,-11.9886],[143.2676,-11.9902],[143.2714,-11.9905],[143.2775,-11.9875],[143.2777,-11.9861],[143.2687,-11.975]],[[143.2515,-11.9914],[143.2475,-11.9842],[143.2449,-11.9853],[143.2442,-11.9882],[143.2479,-11.9903],[143.2478,-11.9939],[143.2523,-11.9954],[143.2515,-11.9914]],[[143.2859,-11.9676],[143.2851,-11.9704],[143.2876,-11.9745],[143.2907,-11.9705],[143.2859,-11.9676]],[[143.2439,-11.9947],[143.2415,-11.9934],[143.2405,-11.9943],[143.2432,-11.9964],[143.2445,-11.9961],[143.2439,-11.9947]],[[143.2624,-11.9674],[143.2631,-11.9701],[143.265,-11.9686],[143.2631,-11.9654],[143.2624,-11.9674]],[[143.2542,-11.9702],[143.2556,-11.9694],[143.2529,-11.9679],[143.2523,-11.9699],[143.2542,-11.9702]],[[143.2684,-11.9506],[143.2665,-11.9492],[143.2664,-11.9502],[143.2684,-11.9506]],[[143.218,-11.9833],[143.2174,-11.9838],[143.2188,-11.9842],[143.218,-11.9833]],[[143.2723,-11.9606],[143.2736,-11.9604],[143.2729,-11.9598],[143.2723,-11.9606]],[[143.2678,-11.9582],[143.2675,-11.9576],[143.2665,-11.9577],[143.2678,-11.9582]]]},"properties":{"id":"gbrmpa-zone-579","type":"Habitat Protection Zone","zone":"Dark Blue Zone","color":"#3f6fb0","name":"HP-11-5049","permit":"Cape Grenville coastal area","source":"GBRMPA"}},{"type":"Feature","geometry":{"type":"Polygon","coordinates":[[[143.3215,-12.5195],[143.36,-12.56],[143.3471,-12.5675],[143.3405,-12.5676],[143.3305,-12.5652],[143.3246,-12.5586],[143.311,-12.5574],[143.3035,-12.5522],[143.2982,-12.5443],[143.297,-12.5329],[143.2884,-12.5313],[143.2866,-12.5248],[143.2889,-12.5229],[143.2868,-12.5195],[143.3215,-12.5195]]]},"properties":{"id":"gbrmpa-zone-562","type":"Marine National Park Zone","zone":"Green Zone","color":"#2fae5a","name":"MNP-12-1010","permit":"Weymouth Bay","source":"GBRMPA"}},{"type":"Feature","geometry":{"type":"Polygon","coordinates":[[[143.6301,-13.13],[143.63,-13.08],[143.6948,-13.0291],[143.73,-13.04],[143.75,-13.08],[143.75,-13.11],[143.71,-13.12],[143.69,-13.12],[143.69,-13.13],[143.6301,-13.13]]]},"properties":{"id":"gbrmpa-zone-545","type":"Habitat Protection Zone","zone":"Dark Blue Zone","color":"#3f6fb0","name":"HP-13-5070","permit":"Colclough Reefs (13-021a and b), New Reef (13-022) and unnamed reef 13-014","source":"GBRMPA"}},{"type":"Feature","geometry":{"type":"Polygon","coordinates":[[[143.63,-13.08],[143.6124,-13.0558],[143.6124,-13.0383],[143.622,-13.0291],[143.6948,-13.0291],[143.63,-13.08]]]},"properties":{"id":"gbrmpa-zone-544","type":"Marine National Park Zone","zone":"Green Zone","color":"#2fae5a","name":"MNP-13-1014","permit":"Osborne Reef (13-006)","source":"GBRMPA"}},{"type":"Feature","geometry":{"type":"Polygon","coordinates":[[[143.49,-12.74],[143.5,-12.79],[143.46,-12.79],[143.46,-12.78],[143.47,-12.75],[143.49,-12.74]],[[143.4839,-12.7828],[143.4864,-12.7822],[143.486,-12.7815],[143.4839,-12.7828]],[[143.4813,-12.7543],[143.4806,-12.7555],[143.4828,-12.7546],[143.4813,-12.7543]],[[143.4854,-12.7533],[143.486,-12.7539],[143.4869,-12.7517],[143.4854,-12.7533]],[[143.4769,-12.7549],[143.4754,-12.7545],[143.4747,-12.7553],[143.4769,-12.7549]]]},"properties":{"id":"gbrmpa-zone-556","type":"Habitat Protection Zone","zone":"Dark Blue Zone","color":"#3f6fb0","name":"HP-12-5062","permit":"Hazelgrove Reef (12-085), May Reef (12-086) and Exit Reef (12-089)","source":"GBRMPA"}},{"type":"Feature","geometry":{"type":"Polygon","coordinates":[[[144.09,-11.2],[144.09,-11.23],[145.0011,-11.23],[145.0011,-12.9985],[145.1548,-13.3084],[144.36,-13.3084],[144.36,-13.45],[144.0798,-13.45],[144.0798,-13.4834],[144.0432,-13.5148],[143.9716,-13.56],[143.8084,-13.6116],[143.7289,-13.6116],[143.7247,-13.54],[143.7213,-13.5296],[143.9382,-13.3623],[143.9607,-13.3098],[143.9292,-13.2819],[143.9472,-13.2184],[143.9277,-13.1524],[143.9382,-13.1389],[143.9382,-13.0774],[143.9004,-13.0497],[143.9004,-12.62],[144.4676,-12.62],[144.4676,-12.04],[144,-12.04],[144,-12.2454],[143.8921,-12.3633],[143.8508,-12.3633],[143.8508,-12.3183],[143.8428,-12.3183],[143.8426,-12.0212],[143.9019,-12.0212],[143.9019,-11.8028],[143.6252,-11.8028],[143.5327,-11.8343],[143.5011,-11.8209],[143.4711,-11.7877],[143.4537,-11.7797],[143.2878,-11.7316],[143.2661,-11.7332],[143.25,-11.75],[143.2175,-11.742],[143.1,-11.7],[143.1,-11.84],[143.0964,-11.8997],[143.0929,-11.9042],[143.0837,-11.9108],[143.0685,-11.9177],[143.0643,-11.9233],[143.0597,-11.9234],[143.0514,-11.9292],[143.0309,-11.9354],[143.0304,-11.934],[143.026,-11.9345],[143.0152,-11.9379],[143.0136,-11.9364],[143.0008,-11.9363],[142.9889,-11.9335],[142.9829,-11.9293],[142.9773,-11.9326],[142.9698,-11.9307],[142.966,-11.9271],[142.9635,-11.9217],[142.9602,-11.9214],[142.9604,-11.9171],[142.9549,-11.9141],[142.9557,-11.9123],[142.9529,-11.9075],[142.9454,-11.9],[142.934,-11.8943],[142.9307,-11.8945],[142.9288,-11.8922],[142.9241,-11.8916],[142.917,-11.8945],[142.9141,-11.8922],[142.9125,-11.8927],[142.9088,-11.8895],[142.9008,-11.8717],[142.896,-11.8714],[142.8914,-11.8736],[142.8834,-11.8719],[142.8765,-11.8679],[142.8729,-11.8631],[142.8704,-11.8561],[142.8711,-11.8541],[142.8564,-11.8449],[142.8539,-11.8366],[142.8526,-11.8243],[142.8546,-11.8155],[142.8503,-11.8058],[142.8517,-11.8043],[142.855,-11.7791],[142.8603,-11.7666],[142.8602,-11.7571],[142.8589,-11.7539],[142.8564,-11.7538],[142.8617,-11.7527],[142.8627,-11.7479],[142.8576,-11.7161],[142.8584,-11.714],[142.8598,-11.7144],[142.8612,-11.6902],[142.861,-11.6744],[142.8584,-11.6693],[142.86,-11.6524],[142.8581,-11.6485],[142.8927,-11.6485],[142.884,-11.5316],[142.8366,-11.5316],[142.8365,-11.5125],[142.8396,-11.5062],[142.8392,-11.4934],[142.8333,-11.4902],[142.8258,-11.4785],[142.8278,-11.4668],[142.8272,-11.4602],[142.8322,-11.4341],[142.8353,-11.4278],[142.8682,-11.3824],[142.8644,-11.38],[142.8621,-11.3755],[142.8611,-11.3693],[142.8631,-11.3589],[142.8565,-11.3552],[142.8544,-11.3482],[142.8549,-11.343],[142.842,-11.3258],[142.8404,-11.32],[142.828,-11.3144],[142.8232,-11.2998],[142.8213,-11.2985],[143.1888,-11.2985],[143.1888,-11.28],[143.2306,-11.28],[143.2306,-11.2983],[143.6403,-11.2983],[143.6403,-11.28],[143.67,-11.28],[143.67,-11.23],[144.06,-11.23],[144.07,-11.2],[144.09,-11.2]],[[143.952,-11.948],[144,-11.98],[144.024,-11.96],[144.024,-11.94],[143.976,-11.924],[143.952,-11.924],[143.952,-11.948]],[[143.9484,-13.392],[143.9627,-13.4169],[143.9793,-13.4158],[143.9831,-13.4192],[143.9862,-13.428],[143.9924,-13.428],[144.0004,-13.424],[144.0004,-13.408],[143.9804,-13.368],[143.9484,-13.384],[143.9484,-13.392]],[[143.7,-11.548],[143.7,-11.576],[143.74,-11.576],[143.74,-11.548],[143.7,-11.548]],[[143.108,-11.448],[143.108,-11.484],[143.136,-11.484],[143.136,-11.448],[143.108,-11.448]],[[143.948,-11.4],[143.948,-11.408],[143.968,-11.412],[143.98,-11.408],[143.98,-11.396],[143.96,-11.396],[143.948,-11.4]],[[143.0889,-11.7656],[143.087,-11.7668],[143.0876,-11.77],[143.0907,-11.7691],[143.0937,-11.772],[143.096,-11.7722],[143.0946,-11.7684],[143.0889,-11.7656]],[[144.0314,-11.5897],[144.0327,-11.592],[144.0392,-11.593],[144.0353,-11.5878],[144.0327,-11.5878],[144.0314,-11.5897]],[[143.0185,-11.4887],[143.0232,-11.4876],[143.0285,-11.489],[143.0274,-11.4869],[143.0213,-11.4842],[143.0175,-11.487],[143.0185,-11.4887]],[[143.0153,-11.5519],[143.0102,-11.5503],[143.0111,-11.5525],[143.0186,-11.5567],[143.0153,-11.5519]],[[143.179,-11.7],[143.1811,-11.7051],[143.1827,-11.7034],[143.1819,-11.7],[143.1805,-11.6987],[143.179,-11.7]],[[144.021,-11.412],[144.0225,-11.4118],[144.0222,-11.4098],[144.0197,-11.4067],[144.0186,-11.4089],[144.021,-11.412]],[[142.9677,-11.3802],[142.9635,-11.3813],[142.9672,-11.3818],[142.968,-11.3849],[142.9677,-11.3802]],[[143.9056,-13.4927],[143.9076,-13.4938],[143.9076,-13.4889],[143.9056,-13.4927]],[[143.0843,-11.7661],[143.0808,-11.7669],[143.0832,-11.7681],[143.0826,-11.7702],[143.0849,-11.7681],[143.0843,-11.7661]],[[143.0324,-11.4507],[143.033,-11.4464],[143.0312,-11.4469],[143.0324,-11.4507]],[[143.8114,-11.3231],[143.8126,-11.323],[143.8125,-11.3209],[143.8095,-11.3182],[143.8114,-11.3231]],[[142.9329,-11.5928],[142.9348,-11.5911],[142.9341,-11.59],[142.9304,-11.5915],[142.9329,-11.5928]],[[143.9519,-13.3676],[143.9541,-13.3657],[143.9507,-13.3654],[143.9519,-13.3676]],[[142.9198,-11.7639],[142.9244,-11.7627],[142.9317,-11.765],[142.9244,-11.7621],[142.9198,-11.7639]],[[142.9444,-11.5915],[142.9356,-11.5924],[142.9385,-11.5932],[142.9423,-11.5917],[142.9454,-11.5937],[142.9444,-11.5915]],[[144.0325,-13.4795],[144.0351,-13.4798],[144.0336,-13.4774],[144.0318,-13.478],[144.0325,-13.4795]],[[143.9707,-13.4416],[143.9734,-13.4409],[143.9713,-13.4394],[143.9697,-13.4407],[143.9707,-13.4416]],[[142.9827,-11.7645],[142.9837,-11.7663],[142.9853,-11.7632],[142.9827,-11.7645]],[[143.028,-11.3796],[143.0333,-11.3801],[143.0289,-11.3781],[143.028,-11.3796]],[[143.7382,-13.5521],[143.7399,-13.5517],[143.7391,-13.5506],[143.7358,-13.5498],[143.7382,-13.5521]],[[143.0881,-11.7887],[143.0895,-11.7911],[143.0884,-11.7922],[143.0902,-11.7921],[143.0906,-11.7904],[143.0881,-11.7887]],[[143.0542,-11.3732],[143.0538,-11.3755],[143.056,-11.3733],[143.0542,-11.3732]],[[143.0314,-11.4813],[143.0327,-11.4811],[143.0319,-11.4796],[143.0294,-11.4805],[143.0314,-11.4813]],[[142.9351,-11.7687],[142.9341,-11.7661],[142.9335,-11.7689],[142.9351,-11.7687]],[[142.8996,-11.5875],[142.8956,-11.5877],[142.901,-11.5898],[142.8996,-11.5875]],[[142.9605,-11.7525],[142.9617,-11.7537],[142.9642,-11.749],[142.9605,-11.7525]],[[143.0916,-11.7722],[143.0892,-11.7714],[143.0898,-11.7729],[143.0916,-11.7722]],[[142.9703,-11.7505],[142.9724,-11.7496],[142.9706,-11.749],[142.9703,-11.7505]],[[143.0824,-11.7853],[143.083,-11.7862],[143.0873,-11.7875],[143.0824,-11.7853]],[[142.9781,-11.7286],[142.9768,-11.7275],[142.9748,-11.7278],[142.9781,-11.7286]],[[143.0191,-11.5508],[143.0217,-11.5512],[143.0202,-11.55],[143.0191,-11.5508]],[[143.0166,-11.6027],[143.0182,-11.6023],[143.0166,-11.6014],[143.0166,-11.6027]],[[142.9876,-11.7257],[142.9906,-11.7298],[142.9893,-11.7272],[142.9876,-11.7257]],[[142.9759,-11.7507],[142.9774,-11.7499],[142.9764,-11.7492],[142.9759,-11.7507]],[[143.0897,-11.7741],[143.0908,-11.7757],[143.0928,-11.7758],[143.0897,-11.7741]],[[143.0836,-11.7889],[143.0829,-11.7897],[143.085,-11.7909],[143.0836,-11.7889]],[[143.0818,-11.7855],[143.0797,-11.7862],[143.0813,-11.7866],[143.0818,-11.7855]],[[143.7813,-11.4031],[143.7802,-11.4044],[143.7815,-11.4044],[143.7813,-11.4031]],[[143.1327,-11.4993],[143.1338,-11.4989],[143.1332,-11.4976],[143.1327,-11.4993]],[[143.0738,-11.5097],[143.0746,-11.5097],[143.074,-11.508],[143.0738,-11.5097]],[[142.9782,-11.7275],[142.9792,-11.7278],[142.9797,-11.7259],[142.9782,-11.7275]],[[142.9922,-11.739],[142.993,-11.7391],[142.9923,-11.7369],[142.9922,-11.739]],[[142.9365,-11.7959],[142.9372,-11.7962],[142.9372,-11.7945],[142.9365,-11.7959]],[[142.9979,-11.5859],[142.9964,-11.5838],[142.9964,-11.5847],[142.9979,-11.5859]],[[143.068,-11.4728],[143.0672,-11.4728],[143.0676,-11.4741],[143.068,-11.4728]],[[143.3173,-11.6375],[143.318,-11.6375],[143.3183,-11.636],[143.3173,-11.6375]],[[143.6513,-11.7723],[143.6522,-11.7708],[143.6514,-11.7708],[143.6513,-11.7723]],[[143.666,-11.6889],[143.6671,-11.6894],[143.6673,-11.6888],[143.666,-11.6889]],[[142.9088,-11.8654],[142.9096,-11.8652],[142.9094,-11.8644],[142.9088,-11.8654]],[[143.0957,-11.7737],[143.0951,-11.7753],[143.096,-11.774],[143.0957,-11.7737]],[[143.6363,-11.7587],[143.637,-11.759],[143.6371,-11.7579],[143.6363,-11.7587]],[[142.8783,-11.781],[142.879,-11.7809],[142.879,-11.7799],[142.8783,-11.781]],[[143.2835,-11.5993],[143.2846,-11.5991],[143.2842,-11.5987],[143.2835,-11.5993]],[[142.8573,-11.8007],[142.8579,-11.8],[142.8574,-11.7996],[142.8573,-11.8007]],[[143.0939,-11.7754],[143.0935,-11.7759],[143.0947,-11.7754],[143.0939,-11.7754]],[[143.6565,-11.754],[143.6575,-11.7541],[143.6572,-11.7535],[143.6565,-11.754]],[[143.6561,-11.7791],[143.6569,-11.7793],[143.6568,-11.7785],[143.6561,-11.7791]],[[142.9925,-11.7408],[142.9933,-11.7407],[142.9929,-11.7403],[142.9925,-11.7408]],[[142.9933,-11.7423],[142.9934,-11.7419],[142.9927,-11.7416],[142.9933,-11.7423]]]},"properties":{"id":"gbrmpa-zone-607","type":"Marine National Park Zone","zone":"Green Zone","color":"#2fae5a","name":"MNP-11-1004","permit":"Far Northern Cross Shelf Transect","source":"GBRMPA"}},{"type":"Feature","geometry":{"type":"Polygon","coordinates":[[[143.2999,-12.4966],[143.3215,-12.5195],[143.2847,-12.5196],[143.2749,-12.5153],[143.2726,-12.5106],[143.2727,-12.5026],[143.2708,-12.4992],[143.2769,-12.4823],[143.2999,-12.4823],[143.2999,-12.4966]],[[143.2889,-12.5142],[143.2905,-12.514],[143.2902,-12.5132],[143.2889,-12.5142]]]},"properties":{"id":"gbrmpa-zone-564","type":"Buffer Zone","zone":"Olive Green Zone","color":"#94a84f","name":"B-12-3001","permit":"Pascoe River","source":"GBRMPA"}},{"type":"Feature","geometry":{"type":"Polygon","coordinates":[[[143.23,-12.12],[143.23,-12.13],[143.2201,-12.1399],[143.21,-12.13],[143.21,-12.12],[143.23,-12.12]],[[143.2174,-12.126],[143.2181,-12.1257],[143.217,-12.1247],[143.2174,-12.126]]]},"properties":{"id":"gbrmpa-zone-576","type":"Habitat Protection Zone","zone":"Dark Blue Zone","color":"#3f6fb0","name":"HP-12-5052","permit":"Young Reef (12-005)","source":"GBRMPA"}},{"type":"Feature","geometry":{"type":"Polygon","coordinates":[[[143.75,-13.6323],[143.75,-13.67],[143.7132,-13.67],[143.7106,-13.6483],[143.75,-13.6323]],[[143.7182,-13.6549],[143.7221,-13.6547],[143.7181,-13.6532],[143.7182,-13.6549]]]},"properties":{"id":"gbrmpa-zone-492","type":"Habitat Protection Zone","zone":"Dark Blue Zone","color":"#3f6fb0","name":"HP-13-5085","permit":"Fife Island Reef (13-081)","source":"GBRMPA"}},{"type":"Feature","geometry":{"type":"Polygon","coordinates":[[[143.5748,-13.2016],[143.5748,-13.2792],[143.6,-13.32],[143.61,-13.32],[143.61,-13.33],[143.626,-13.356],[143.5441,-13.356],[143.5383,-13.3511],[143.5355,-13.3403],[143.5267,-13.327],[143.525,-13.305],[143.5217,-13.2937],[143.5227,-13.2772],[143.5174,-13.2585],[143.5164,-13.2211],[143.5183,-13.2067],[143.5172,-13.2016],[143.5748,-13.2016]],[[143.5689,-13.2133],[143.5701,-13.214],[143.5704,-13.2111],[143.5689,-13.2133]],[[143.5712,-13.2174],[143.5719,-13.2172],[143.5707,-13.2165],[143.5712,-13.2174]]]},"properties":{"id":"gbrmpa-zone-535","type":"Habitat Protection Zone","zone":"Dark Blue Zone","color":"#3f6fb0","name":"HP-13-5077","permit":"Binstead Islet Reef (13-034) and Treat Reef (13-053) coastal area","source":"GBRMPA"}},{"type":"Feature","geometry":{"type":"Polygon","coordinates":[[[143.2156,-12.3091],[143.294,-12.4067],[143.2738,-12.4067],[143.2722,-12.4045],[143.2667,-12.4037],[143.2663,-12.4004],[143.2648,-12.3997],[143.2661,-12.3941],[143.2606,-12.3934],[143.2542,-12.3904],[143.2501,-12.3914],[143.2476,-12.3792],[143.2358,-12.3838],[143.2292,-12.3815],[143.2254,-12.3782],[143.224,-12.3743],[143.2198,-12.3723],[143.2156,-12.3629],[143.2156,-12.3091]]]},"properties":{"id":"gbrmpa-zone-569","type":"Conservation Park Zone","zone":"Yellow Zone","color":"#e8c23f","name":"CP-12-4005","permit":"Second Stony Point to Fair Cape","source":"GBRMPA"}},{"type":"Feature","geometry":{"type":"Polygon","coordinates":[[[143.7892,-13.1592],[143.79,-13.17],[143.78,-13.18],[143.73,-13.18],[143.7201,-13.1899],[143.71,-13.21],[143.73,-13.22],[143.76,-13.21],[143.79,-13.21],[143.79,-13.23],[143.75,-13.27],[143.73,-13.27],[143.7164,-13.2622],[143.7164,-13.2833],[143.7039,-13.2958],[143.6867,-13.2958],[143.6867,-13.3067],[143.68,-13.3133],[143.6672,-13.3132],[143.6622,-13.2933],[143.679,-13.2933],[143.6789,-13.2832],[143.6748,-13.275],[143.6748,-13.2625],[143.6901,-13.2472],[143.66,-13.23],[143.66,-13.2],[143.72,-13.17],[143.73,-13.17],[143.73,-13.16],[143.74,-13.16],[143.77,-13.15],[143.78,-13.15],[143.7892,-13.1592]],[[143.775,-13.1622],[143.7768,-13.1614],[143.7759,-13.1598],[143.775,-13.1622]],[[143.6739,-13.3027],[143.6747,-13.3023],[143.6733,-13.3017],[143.6739,-13.3027]]]},"properties":{"id":"gbrmpa-zone-538","type":"Habitat Protection Zone","zone":"Dark Blue Zone","color":"#3f6fb0","name":"HP-13-5075","permit":"Jubilee Reef (13-027), Throne Shoals (13-032), Diamond Reign Reefs (Reef 13-036), unnamed reef 13-038, Celebration Reef (13-041) and Bow Reef (13-048)","source":"GBRMPA"}},{"type":"Feature","geometry":{"type":"Polygon","coordinates":[[[143.6558,-13.4565],[143.6509,-13.458],[143.6522,-13.4466],[143.6553,-13.4487],[143.6558,-13.4565]]]},"properties":{"id":"gbrmpa-zone-495","type":"Habitat Protection Zone","zone":"Dark Blue Zone","color":"#3f6fb0","name":"HP-13-5082","permit":"Quake Reef (13-068)","source":"GBRMPA"}},{"type":"Feature","geometry":{"type":"Polygon","coordinates":[[[143.5289,-12.6708],[143.5206,-12.6708],[143.5164,-12.6662],[143.5164,-12.6583],[143.5289,-12.6458],[143.5289,-12.6333],[143.5456,-12.6333],[143.5498,-12.6291],[143.5748,-12.6291],[143.5873,-12.6208],[143.5956,-12.6208],[143.5956,-12.6333],[143.5748,-12.6541],[143.5331,-12.6541],[143.5331,-12.6666],[143.5289,-12.6708]]]},"properties":{"id":"gbrmpa-zone-558","type":"Habitat Protection Zone","zone":"Dark Blue Zone","color":"#3f6fb0","name":"HP-12-5061","permit":"Burke Reef (12-105) and Tannadice Shoals (12-106)","source":"GBRMPA"}},{"type":"Feature","geometry":{"type":"Polygon","coordinates":[[[143.2333,-12.2333],[143.2534,-12.2533],[143.2534,-12.2667],[143.2333,-12.2667],[143.2133,-12.2533],[143.2,-12.2533],[143.1867,-12.2467],[143.1867,-12.2333],[143.2333,-12.2333]],[[143.2248,-12.2429],[143.2259,-12.2451],[143.2286,-12.2449],[143.2281,-12.2433],[143.2248,-12.2429]],[[143.238,-12.2599],[143.2389,-12.2594],[143.2338,-12.2562],[143.238,-12.2599]],[[143.2093,-12.2404],[143.2126,-12.2429],[143.2121,-12.2412],[143.2093,-12.2404]],[[143.2002,-12.2412],[143.2026,-12.2413],[143.2002,-12.2401],[143.2002,-12.2412]]]},"properties":{"id":"gbrmpa-zone-572","type":"Habitat Protection Zone","zone":"Dark Blue Zone","color":"#3f6fb0","name":"HP-12-5055","permit":"Piper Islands Reefs (12-011 and 12-012)","source":"GBRMPA"}},{"type":"Feature","geometry":{"type":"Polygon","coordinates":[[[143.6463,-13.4981],[143.6452,-13.5333],[143.66,-13.5333],[143.6619,-13.5352],[143.6625,-13.5431],[143.6616,-13.5517],[143.66,-13.5533],[143.6446,-13.5533],[143.64,-13.73],[143.65,-13.74],[143.65,-13.78],[143.64,-13.78],[143.6665,-13.8561],[143.59,-13.8561],[143.5813,-13.8494],[143.5747,-13.8312],[143.5636,-13.821],[143.5607,-13.8207],[143.5582,-13.8134],[143.5557,-13.8104],[143.5523,-13.8102],[143.5483,-13.8033],[143.5418,-13.7871],[143.5401,-13.7716],[143.5348,-13.7644],[143.5319,-13.7545],[143.5354,-13.736],[143.5424,-13.7225],[143.5456,-13.7014],[143.5479,-13.6607],[143.5468,-13.6536],[143.5481,-13.6477],[143.5469,-13.6459],[143.5509,-13.6305],[143.5493,-13.6307],[143.5498,-13.6263],[143.5603,-13.5869],[143.5622,-13.587],[143.57,-13.5696],[143.5763,-13.5606],[143.5804,-13.5582],[143.5816,-13.5532],[143.5885,-13.5445],[143.5917,-13.538],[143.5923,-13.5303],[143.5901,-13.5279],[143.5915,-13.5225],[143.5875,-13.5175],[143.5828,-13.5157],[143.5805,-13.5111],[143.5802,-13.498],[143.6463,-13.4981]],[[143.6399,-13.7734],[143.6413,-13.7731],[143.639,-13.776],[143.6417,-13.7752],[143.6419,-13.7768],[143.6401,-13.7767],[143.6428,-13.7769],[143.6463,-13.7705],[143.6439,-13.7695],[143.6399,-13.7734]]]},"properties":{"id":"gbrmpa-zone-494","type":"Habitat Protection Zone","zone":"Dark Blue Zone","color":"#3f6fb0","name":"HP-13-5083","permit":"Nesbit River to Roberts Point coastal area: including McDonald Reef (13-075), Wilkie Island Reef (13-091), Frenchman Reef (13-085) and Poulsen Reef (13-086)","source":"GBRMPA"}},{"type":"Feature","geometry":{"type":"Polygon","coordinates":[[[143.6623,-13.1708],[143.6539,-13.1708],[143.6498,-13.1667],[143.6498,-13.1625],[143.6539,-13.1583],[143.6623,-13.1583],[143.6665,-13.1625],[143.6665,-13.1666],[143.6623,-13.1708]]]},"properties":{"id":"gbrmpa-zone-537","type":"Habitat Protection Zone","zone":"Dark Blue Zone","color":"#3f6fb0","name":"HP-13-5076","permit":"Gertrude Reef (13-026)","source":"GBRMPA"}},{"type":"Feature","geometry":{"type":"Polygon","coordinates":[[[143.3886,-12.7175],[143.4497,-12.8486],[143.4344,-12.8536],[143.4304,-12.8561],[143.4272,-12.8609],[143.4134,-12.866],[143.3817,-12.8659],[143.3773,-12.8687],[143.3767,-12.872],[143.3674,-12.8769],[143.3665,-12.8829],[143.3643,-12.8857],[143.3589,-12.887],[143.3575,-12.8933],[143.353,-12.8928],[143.3502,-12.888],[143.3543,-12.871],[143.3531,-12.8563],[143.358,-12.8453],[143.3568,-12.8376],[143.3596,-12.8355],[143.3574,-12.823],[143.3571,-12.8019],[143.3625,-12.7882],[143.3633,-12.7814],[143.3714,-12.7623],[143.3774,-12.7574],[143.3818,-12.7509],[143.3848,-12.7248],[143.3886,-12.7175]],[[143.3969,-12.754],[143.3955,-12.7556],[143.3966,-12.7601],[143.3991,-12.7664],[143.4015,-12.7677],[143.4029,-12.7659],[143.4016,-12.7636],[143.4018,-12.7566],[143.3969,-12.754]],[[143.3955,-12.7506],[143.3965,-12.7487],[143.3952,-12.748],[143.3955,-12.7506]],[[143.4044,-12.7593],[143.4056,-12.759],[143.4054,-12.7569],[143.4044,-12.7593]],[[143.4103,-12.7807],[143.4128,-12.7814],[143.4111,-12.7801],[143.4103,-12.7807]],[[143.3949,-12.7421],[143.3943,-12.7417],[143.3943,-12.7422],[143.3949,-12.7421]]]},"properties":{"id":"gbrmpa-zone-557","type":"Conservation Park Zone","zone":"Yellow Zone","color":"#e8c23f","name":"CP-12-4007","permit":"Lloyd Bay","source":"GBRMPA"}},{"type":"Feature","geometry":{"type":"Polygon","coordinates":[[[144.01,-13.779],[143.9962,-13.779],[143.9843,-13.7918],[143.9802,-13.8053],[143.9652,-13.8368],[143.931,-13.8576],[143.92,-13.88],[143.88,-13.88],[143.88,-13.86],[143.94,-13.77],[143.94,-13.76],[143.95,-13.74],[143.99,-13.72],[143.99,-13.74],[144,-13.74],[144.01,-13.75],[144.01,-13.779]]]},"properties":{"id":"gbrmpa-zone-491","type":"Habitat Protection Zone","zone":"Dark Blue Zone","color":"#3f6fb0","name":"HP-13-5086","permit":"Unnamed reefs 13-089, 13-093a, b and c","source":"GBRMPA"}},{"type":"Feature","geometry":{"type":"Polygon","coordinates":[[[143.62,-12.82],[143.6,-12.82],[143.6,-12.8],[143.62,-12.8],[143.62,-12.82]]]},"properties":{"id":"gbrmpa-zone-554","type":"Habitat Protection Zone","zone":"Dark Blue Zone","color":"#3f6fb0","name":"HP-12-5064","permit":"Wye Reef (12-119)","source":"GBRMPA"}},{"type":"Feature","geometry":{"type":"Polygon","coordinates":[[[143.3601,-12.56],[143.42,-12.59],[143.4498,-12.6078],[143.4645,-12.6217],[143.4645,-12.63],[143.45,-12.63],[143.44,-12.65],[143.45,-12.65],[143.46,-12.66],[143.45,-12.67],[143.44,-12.67],[143.43,-12.68],[143.4076,-12.7583],[143.3886,-12.7175],[143.3906,-12.7135],[143.3923,-12.7137],[143.3948,-12.7107],[143.3993,-12.6982],[143.4182,-12.6826],[143.4187,-12.6763],[143.4146,-12.6785],[143.4029,-12.6797],[143.4014,-12.6655],[143.4049,-12.6586],[143.4115,-12.6521],[143.4254,-12.6336],[143.4338,-12.6249],[143.4384,-12.6238],[143.4371,-12.62],[143.4384,-12.6181],[143.4383,-12.6125],[143.4368,-12.6115],[143.4343,-12.6142],[143.4267,-12.6133],[143.4204,-12.6158],[143.4173,-12.6145],[143.4174,-12.6097],[143.4216,-12.6068],[143.4164,-12.6],[143.4147,-12.5938],[143.4127,-12.5937],[143.4111,-12.5963],[143.4065,-12.598],[143.3975,-12.5973],[143.3926,-12.5954],[143.3876,-12.5921],[143.3848,-12.5866],[143.3766,-12.5797],[143.3594,-12.5717],[143.3544,-12.5642],[143.3601,-12.56]],[[143.4445,-12.6238],[143.4464,-12.6242],[143.4505,-12.6206],[143.4485,-12.6144],[143.4433,-12.6182],[143.4446,-12.6196],[143.4445,-12.6238]],[[143.4159,-12.591],[143.4177,-12.5891],[143.4159,-12.5891],[143.4159,-12.591]]]},"properties":{"id":"gbrmpa-zone-560","type":"Habitat Protection Zone","zone":"Dark Blue Zone","color":"#3f6fb0","name":"HP-12-5060","permit":"Portland Roads coastal area","source":"GBRMPA"}},{"type":"Feature","geometry":{"type":"Polygon","coordinates":[[[143.7844,-12.64],[143.7844,-12.79],[143.6906,-12.79],[143.6906,-12.681],[143.6434,-12.4405],[143.6826,-12.4048],[143.7311,-12.4301],[143.7844,-12.64]],[[143.696,-12.783],[143.6974,-12.7803],[143.6961,-12.7795],[143.696,-12.783]]]},"properties":{"id":"gbrmpa-zone-566","type":"Marine National Park Zone","zone":"Green Zone","color":"#2fae5a","name":"MNP-12-1008","permit":"Unnamed reef 12-100","source":"GBRMPA"}},{"type":"Feature","geometry":{"type":"Polygon","coordinates":[[[143.1246,-12.1737],[143.1246,-12.2771],[143.2156,-12.3091],[143.2156,-12.3629],[143.204,-12.3597],[143.203,-12.3574],[143.1943,-12.3531],[143.1956,-12.3498],[143.1944,-12.3487],[143.1937,-12.35],[143.1829,-12.3504],[143.1805,-12.3465],[143.1817,-12.3447],[143.179,-12.3425],[143.1777,-12.3444],[143.1754,-12.3443],[143.1736,-12.342],[143.1715,-12.3456],[143.1679,-12.3471],[143.1647,-12.3445],[143.1613,-12.3468],[143.1375,-12.3447],[143.1251,-12.3464],[143.122,-12.3436],[143.1163,-12.3442],[143.1157,-12.338],[143.0798,-12.3286],[143.0787,-12.3141],[143.0804,-12.3026],[143.0828,-12.2891],[143.0885,-12.2766],[143.09,-12.2675],[143.1046,-12.2675],[143.1046,-12.2385],[143.0882,-12.2385],[143.0909,-12.226],[143.0978,-12.218],[143.0964,-12.2101],[143.0931,-12.2096],[143.0957,-12.2007],[143.0948,-12.1995],[143.0906,-12.1997],[143.0888,-12.1977],[143.094,-12.1845],[143.0931,-12.1796],[143.0943,-12.1752],[143.0952,-12.1737],[143.1246,-12.1737]]]},"properties":{"id":"gbrmpa-zone-574","type":"Marine National Park Zone","zone":"Green Zone","color":"#2fae5a","name":"MNP-12-1006","permit":"Temple Bay","source":"GBRMPA"}},{"type":"Feature","geometry":{"type":"Polygon","coordinates":[[[143.8901,-12.6013],[143.8332,-12.6013],[143.8332,-12.5663],[143.8901,-12.5663],[143.8901,-12.6013]]]},"properties":{"id":"gbrmpa-zone-559","type":"Marine National Park Zone","zone":"Green Zone","color":"#2fae5a","name":"MNP-12-1011","permit":"Southern Small Detached Reef (12-099)","source":"GBRMPA"}},{"type":"Feature","geometry":{"type":"Polygon","coordinates":[[[143.585,-13.1681],[143.585,-13.2016],[143.567,-13.2016],[143.567,-13.1665],[143.585,-13.1665],[143.585,-13.1681]],[[143.5737,-13.1925],[143.577,-13.1907],[143.5767,-13.1862],[143.5784,-13.1863],[143.5779,-13.1836],[143.5793,-13.1833],[143.5799,-13.1782],[143.5781,-13.1736],[143.575,-13.1775],[143.5737,-13.1925]]]},"properties":{"id":"gbrmpa-zone-536","type":"Marine National Park Zone","zone":"Green Zone","color":"#2fae5a","name":"MNP-13-1015","permit":"Night Island (13-031)","source":"GBRMPA"}},{"type":"Feature","geometry":{"type":"Polygon","coordinates":[[[143.1134,-12.34],[143.1037,-12.3426],[143.0988,-12.341],[143.0847,-12.3461],[143.0792,-12.3347],[143.0798,-12.3286],[143.1157,-12.338],[143.1134,-12.34]]]},"properties":{"id":"gbrmpa-zone-568","type":"Conservation Park Zone","zone":"Yellow Zone","color":"#e8c23f","name":"CP-12-4006","permit":"Glennie Inlet","source":"GBRMPA"}},{"type":"Feature","geometry":{"type":"Polygon","coordinates":[[[143.5601,-12.8132],[143.5601,-13.0504],[143.5087,-13.0725],[143.5126,-13.0615],[143.5128,-13.0581],[143.5106,-13.0547],[143.5125,-13.0483],[143.5071,-13.0412],[143.5063,-13.0373],[143.5077,-13.0324],[143.5122,-13.0259],[143.5126,-13.0159],[143.5146,-13.0091],[143.5098,-13.0009],[143.5113,-12.993],[143.5079,-12.9927],[143.5045,-12.9862],[143.5115,-12.9723],[143.513,-12.9619],[143.5088,-12.9593],[143.5016,-12.9584],[143.4995,-12.9562],[143.498,-12.9507],[143.5002,-12.9417],[143.4998,-12.9354],[143.503,-12.9264],[143.5089,-12.9185],[143.5112,-12.9068],[143.5148,-12.8985],[143.5333,-12.8695],[143.5309,-12.867],[143.5318,-12.8617],[143.5447,-12.8431],[143.5339,-12.8387],[143.5312,-12.8434],[143.5218,-12.8434],[143.5165,-12.8451],[143.5136,-12.8494],[143.5143,-12.851],[143.5021,-12.8588],[143.49,-12.8626],[143.482,-12.8626],[143.4759,-12.8644],[143.4654,-12.8623],[143.4553,-12.8551],[143.4497,-12.8486],[143.427,-12.8],[143.552,-12.8],[143.5601,-12.8132]],[[143.5458,-12.8866],[143.5486,-12.8854],[143.5465,-12.8846],[143.5458,-12.8866]],[[143.5492,-12.8857],[143.5494,-12.8862],[143.5502,-12.8857],[143.5492,-12.8857]]]},"properties":{"id":"gbrmpa-zone-553","type":"Marine National Park Zone","zone":"Green Zone","color":"#2fae5a","name":"MNP-12-1012","permit":"Orchid Point/Old Site","source":"GBRMPA"}},{"type":"Feature","geometry":{"type":"Polygon","coordinates":[[[143.8603,-12.4279],[143.8315,-12.4279],[143.8315,-12.401],[143.8603,-12.401],[143.8603,-12.4279]]]},"properties":{"id":"gbrmpa-zone-567","type":"Marine National Park Zone","zone":"Green Zone","color":"#2fae5a","name":"MNP-12-1007","permit":"Northern Small Detached Reef (12-067)","source":"GBRMPA"}},{"type":"Feature","geometry":{"type":"Polygon","coordinates":[[[143.1467,-12.2267],[143.1467,-12.2467],[143.1246,-12.2467],[143.1246,-12.2267],[143.1467,-12.2267]],[[143.1284,-12.2321],[143.1293,-12.2321],[143.1274,-12.2306],[143.1284,-12.2321]]]},"properties":{"id":"gbrmpa-zone-573","type":"Habitat Protection Zone","zone":"Dark Blue Zone","color":"#3f6fb0","name":"HP-12-5054","permit":"Pickard Reef (12-009)","source":"GBRMPA"}},{"type":"Feature","geometry":{"type":"Polygon","coordinates":[[[143.94,-13.6],[143.94,-13.66],[143.96,-13.67],[143.96,-13.68],[143.91,-13.78],[143.87,-13.81],[143.84,-13.84],[143.79,-13.84],[143.7802,-13.85],[143.77,-13.85],[143.77,-13.84],[143.73,-13.81],[143.73,-13.8],[143.75,-13.79],[143.79,-13.79],[143.87,-13.71],[143.88,-13.66],[143.89,-13.65],[143.89,-13.63],[143.84,-13.63],[143.83,-13.64],[143.83,-13.67],[143.8267,-13.6733],[143.8267,-13.7133],[143.7978,-13.7133],[143.78,-13.74],[143.75,-13.75],[143.74,-13.73],[143.77,-13.67],[143.77,-13.64],[143.78,-13.63],[143.91,-13.59],[143.93,-13.59],[143.94,-13.6]],[[143.7519,-13.8053],[143.7564,-13.8046],[143.7555,-13.8027],[143.7457,-13.8],[143.7407,-13.801],[143.7449,-13.8039],[143.7519,-13.8053]],[[143.7568,-13.7374],[143.7579,-13.7385],[143.7595,-13.7375],[143.7637,-13.7317],[143.7637,-13.728],[143.7588,-13.7328],[143.7568,-13.7374]],[[143.7689,-13.7131],[143.7732,-13.7112],[143.7755,-13.7079],[143.7689,-13.7131]]]},"properties":{"id":"gbrmpa-zone-493","type":"Habitat Protection Zone","zone":"Dark Blue Zone","color":"#3f6fb0","name":"HP-13-5084","permit":"Noddy Reef (13-079a, b and c), Magpie Reef (13-087), Lytton Reef (13-088), Ballerina Shoal (13-096) and unnamed reefs 13-078 and 13-084","source":"GBRMPA"}}]}