{"type":"FeatureCollection","meta":{"region":"QLD","tile":"t-14e140","built":"2026-08-25","sources":["OpenStreetMap (ODbL)","GBRMPA (CC BY)"]},"features":[{"type":"Feature","geometry":{"type":"Point","coordinates":[141.73318,-12.62782]},"properties":{"id":"osm-node3020491033","name":"Albatross Bay","kind":"anchorage","source":"OpenStreetMap","sourceRef":"node/3020491033","likelyAnchorage":true,"noAnchoring":false,"noAnchoringName":null,"notes":null,"fetchLandNM":[5.9,5.4,5,4.3,4.2,4.6,5.3,5.3,9.6,7.9,5.7,6.6,5.6,5.4,6.3,7.2,8.6,11.2,13.9,15,15,15,15,15,15,15,15,15,15,15,6,6,5.2,4.7,10.3,6.5],"fetchReefNM":[5.9,5.4,5,4.3,4.2,4.6,5.3,5.3,9.6,7.9,5.7,6.6,5.6,5.4,6.3,7.2,8.6,11.2,13.9,15,15,15,15,15,15,15,15,15,15,15,6,6,5.2,4.7,10.3,6.5]}},{"type":"Feature","geometry":{"type":"Point","coordinates":[141.67663,-13.37636]},"properties":{"id":"osm-node3020491054","name":"Archer Bay","kind":"anchorage","source":"OpenStreetMap","sourceRef":"node/3020491054","likelyAnchorage":true,"noAnchoring":false,"noAnchoringName":null,"notes":null,"fetchLandNM":[2,2.5,1.8,1,1,1,1.1,1.3,1.5,1.4,1.4,1.1,1.1,1,0.9,0.8,0.7,0.6,0.6,0.7,0.9,1.2,1.4,1.5,1,1,1.1,1.8,1.5,1.1,0.8,0.6,0.6,0.5,0.5,0.5],"fetchReefNM":[2,2.5,1.8,1,1,1,1.1,1.3,1.5,1.4,1.4,1.1,1.1,1,0.9,0.8,0.7,0.6,0.6,0.7,0.9,1.2,1.4,1.5,1,1,1.1,1.8,1.5,1.1,0.8,0.6,0.6,0.5,0.5,0.5]}},{"type":"Feature","geometry":{"type":"Point","coordinates":[141.67463,-12.49764]},"properties":{"id":"osm-node3020493299","name":"Pine River Bay","kind":"anchorage","source":"OpenStreetMap","sourceRef":"node/3020493299","likelyAnchorage":true,"noAnchoring":false,"noAnchoringName":null,"notes":null,"fetchLandNM":[1.8,1.6,1.6,1.5,1.5,1.9,3.4,4.2,2.8,1.5,1.3,1.3,1.3,1.4,15,14.8,2.2,2.1,1.9,1.9,2.2,2.4,1.9,1.5,1.2,1.3,1,0.9,0.9,0.9,0.9,1.1,1.3,2,2.3,2],"fetchReefNM":[1.8,1.6,1.6,1.5,1.5,1.9,3.4,4.2,2.8,1.5,1.3,1.3,1.3,1.4,15,14.8,2.2,2.1,1.9,1.9,2.2,2.4,1.9,1.5,1.2,1.3,1,0.9,0.9,0.9,0.9,1.1,1.3,2,2.3,2]}}]}