{"type":"FeatureCollection","meta":{"region":"QLD","tile":"t-14e144","built":"2026-08-25","sources":["OpenStreetMap (ODbL)","GBRMPA (CC BY)"]},"features":[{"type":"Feature","geometry":{"type":"Point","coordinates":[144.07994,-13.62301]},"properties":{"id":"gbrmpa-80006","name":"Creech Reef South-Easterly Wind","kind":"designated_anchorage","source":"GBRMPA","sourceRef":"80006","likelyAnchorage":true,"noAnchoring":false,"noAnchoringName":null,"notes":"  · Management area: Far Northern Management Area · Great Barrier Reef Marine Park Regulations 2019","fetchLandNM":[15,15,15,15,15,15,15,15,15,15,15,15,15,15,15,15,15,15,15,15,15,15,15,15,15,15,15,15,15,15,15,15,15,15,15,15],"fetchReefNM":[3.8,3.3,1.2,1.2,1.3,1.6,15,15,1,0.8,0.7,0.7,4.3,1.9,15,15,15,15,13.8,12.3,11.7,10,10.1,12.4,9.3,10.9,14.9,14.4,8.7,11.7,11.8,15,15,12.3,15,7.5]}}]}