{"type":"FeatureCollection","meta":{"region":"QLD","tile":"t-16e144","built":"2026-08-25","sources":["OpenStreetMap (ODbL)","GBRMPA (CC BY)"]},"features":[{"type":"Feature","geometry":{"type":"Point","coordinates":[145.34176,-15.68053]},"properties":{"id":"osm-node1123939243","name":"Amos Bay","kind":"anchorage","source":"OpenStreetMap","sourceRef":"node/1123939243","likelyAnchorage":true,"noAnchoring":false,"noAnchoringName":null,"notes":null,"fetchLandNM":[15,15,15,15,15,15,15,15,15,15,15,15,15,15,15,15,1,0.7,0.5,0.4,0.3,0.3,0.3,0.3,0.3,0.4,0.4,0.4,0.4,0.5,0.5,0.6,0.6,1.1,4.4,4.7],"fetchReefNM":[15,15,12.2,15,12.6,11.6,10.4,6.5,6.7,7.5,9.9,15,6.4,15,15,15,1,0.7,0.5,0.4,0.3,0.3,0.3,0.3,0.3,0.4,0.4,0.4,0.4,0.5,0.5,0.6,0.6,1.1,4.4,4.7]}},{"type":"Feature","geometry":{"type":"Point","coordinates":[144.35491,-14.22]},"properties":{"id":"osm-node3020491081","name":"Bathurst Bay","kind":"anchorage","source":"OpenStreetMap","sourceRef":"node/3020491081","likelyAnchorage":true,"noAnchoring":false,"noAnchoringName":null,"notes":null,"fetchLandNM":[15,15,15,15,15,15,11.7,8.4,7.4,6.6,6,5.5,5.1,4.5,4.1,4,4.3,4.4,1.9,5.2,5.6,5.9,6.5,6.8,6.7,7.9,4.6,4.5,15,4.4,5.2,6.6,15,15,15,7.1],"fetchReefNM":[15,15,14.9,15,15,15,10.8,8.4,7.4,6.6,6,5.5,5.1,4.5,4.1,4,4.3,4.4,1.9,5.2,5.6,5.9,6.5,6.8,6.7,7.9,4.6,4.5,15,4.4,5.2,6.6,10.9,10.6,15,7.1]}},{"type":"Feature","geometry":{"type":"Point","coordinates":[144.43418,-14.17878]},"properties":{"id":"gbrmpa-80010","name":"Bathurst Bay/Cape Melville South-Easterly Wind","kind":"designated_anchorage","source":"GBRMPA","sourceRef":"80010","likelyAnchorage":true,"noAnchoring":false,"noAnchoringName":null,"notes":"  · Management area: Far Northern Management Area · Great Barrier Reef Marine Park Regulations 2019","fetchLandNM":[15,15,15,15,15,15,3.3,15,3.3,3.1,3,2.9,2.9,3,3.1,3.5,3.8,4.2,4.9,5.4,6,7.8,10.1,11.5,12,9.8,10.7,9.1,9.8,15,15,7.3,15,15,15,15],"fetchReefNM":[15,12,11.9,15,15,15,3.3,15,3.3,3.1,3,2.9,2.9,3,3.1,3.5,3.8,4.2,4.9,5.4,6,7.8,10.1,11.5,12,9.8,10.7,9.1,9.8,15,12.1,7.3,15,15,14.6,12.9]}},{"type":"Feature","geometry":{"type":"Point","coordinates":[145.46073,-14.68069]},"properties":{"id":"osm-node10795310864","name":"Blue Lagoon","kind":"anchorage","source":"OpenStreetMap","sourceRef":"node/10795310864","likelyAnchorage":true,"noAnchoring":false,"noAnchoringName":null,"notes":null,"fetchLandNM":[0.1,0.1,0.1,0.1,0.1,0.1,0.1,0.1,0.1,0.1,0.1,0.1,0.1,0.1,15,0.8,15,15,15,1.2,1.2,15,0.9,0.9,1.1,15,15,0.2,0.1,0.1,0.1,0.1,0.1,0.1,0.1,0.1],"fetchReefNM":[0.1,0.1,0.1,0.1,0.1,0.1,0.1,0.1,0.1,0.1,0.1,0.1,0.1,0.1,0.8,0.8,0.9,1,1.3,1.2,1.2,1.4,0.9,0.9,1.1,1.1,1.3,0.2,0.1,0.1,0.1,0.1,0.1,0.1,0.1,0.1]}},{"type":"Feature","geometry":{"type":"Point","coordinates":[145.35905,-15.80564]},"properties":{"id":"osm-node3020491504","name":"Cedar Bay","kind":"anchorage","source":"OpenStreetMap","sourceRef":"node/3020491504","likelyAnchorage":true,"noAnchoring":false,"noAnchoringName":null,"notes":null,"fetchLandNM":[1.3,1.8,15,15,15,15,15,15,15,15,15,15,15,15,15,15,1.8,1.7,1.5,0.7,0.5,0.4,0.3,0.3,0.4,0.4,0.5,0.4,0.4,0.4,0.4,0.4,0.5,0.6,0.7,1],"fetchReefNM":[1.3,1.8,15,10.7,9.9,5.9,10.7,15,11,15,15,12.4,15,15,15,15,1.8,1.7,1.5,0.7,0.5,0.4,0.3,0.3,0.4,0.4,0.5,0.4,0.4,0.4,0.4,0.4,0.5,0.6,0.7,1]}},{"type":"Feature","geometry":{"type":"Point","coordinates":[145.26231,-15.46385]},"properties":{"id":"osm-node5104651455","name":"Cherry Tree Bay","kind":"anchorage","source":"OpenStreetMap","sourceRef":"node/5104651455","likelyAnchorage":true,"noAnchoring":false,"noAnchoringName":null,"notes":null,"fetchLandNM":[0.1,0.1,11.9,15,15,15,15,15,15,15,15,15,15,15,0.6,0.1,0.1,0.1,0.1,0.1,0.1,0.1,0.1,0.1,0.1,0.1,0.1,0.1,0.1,0.1,0.1,0.1,0.1,0.1,0.1,0.1],"fetchReefNM":[0.1,0.1,11.9,15,15,15,15,9.6,13,9.7,15,12.7,15,15,0.6,0.1,0.1,0.1,0.1,0.1,0.1,0.1,0.1,0.1,0.1,0.1,0.1,0.1,0.1,0.1,0.1,0.1,0.1,0.1,0.1,0.1]}},{"type":"Feature","geometry":{"type":"Point","coordinates":[145.43522,-15.99822]},"properties":{"id":"osm-node2128298675","name":"Cowie Bay","kind":"anchorage","source":"OpenStreetMap","sourceRef":"node/2128298675","likelyAnchorage":true,"noAnchoring":false,"noAnchoringName":null,"notes":null,"fetchLandNM":[0.2,15,15,15,15,15,15,15,15,15,15,15,13.5,1.1,0.2,0.1,0.1,0.1,0.1,0.1,0.1,0.1,0.1,0.1,0.1,0.1,0.1,0.1,0.1,0.1,0.1,0.1,0.1,0.1,0.1,0.1],"fetchReefNM":[0.2,15,15,14.5,10.7,10.3,15,15,15,15,15,15,13.3,1.1,0.2,0.1,0.1,0.1,0.1,0.1,0.1,0.1,0.1,0.1,0.1,0.1,0.1,0.1,0.1,0.1,0.1,0.1,0.1,0.1,0.1,0.1]}},{"type":"Feature","geometry":{"type":"Point","coordinates":[145.26641,-15.46694]},"properties":{"id":"osm-node1123939863","name":"Finch Bay","kind":"anchorage","source":"OpenStreetMap","sourceRef":"node/1123939863","likelyAnchorage":true,"noAnchoring":false,"noAnchoringName":null,"notes":null,"fetchLandNM":[4.4,5.1,12.3,15,15,15,15,15,15,15,15,15,15,15,15,0.3,0.3,0.3,0.3,0.4,0.4,0.3,0.3,0.3,0.2,0.2,0.2,0.2,0.2,0.2,0.3,0.4,0.3,2.6,3.1,3.7],"fetchReefNM":[4.4,5.1,12.3,15,15,15,15,9.4,12.6,9.1,15,12.5,15,15,15,0.3,0.3,0.3,0.3,0.4,0.4,0.3,0.3,0.3,0.2,0.2,0.2,0.2,0.2,0.2,0.3,0.4,0.3,2.6,3.1,3.7]}},{"type":"Feature","geometry":{"type":"Point","coordinates":[145.28667,-14.89099]},"properties":{"id":"osm-node3020492150","name":"Flattery Harbour","kind":"anchorage","source":"OpenStreetMap","sourceRef":"node/3020492150","likelyAnchorage":true,"noAnchoring":false,"noAnchoringName":null,"notes":null,"fetchLandNM":[15,15,15,15,14.8,15,15,15,15,15,15,15,15,15,4.6,4.5,4.1,4.4,4.1,3.3,2.8,2.6,2.5,2.6,2.7,2.7,2.9,3.2,3.9,4.2,4.3,4.5,15,15,15,15],"fetchReefNM":[15,15,8.4,6.5,14.8,15,15,14.4,11.3,10.9,15,12.2,15,11.8,4.6,4.5,4.1,4.4,4.1,3.3,2.8,2.6,2.5,2.6,2.7,2.7,2.9,3.2,3.9,4.2,4.3,4.5,15,15,15,15]}},{"type":"Feature","geometry":{"type":"Point","coordinates":[144.21748,-14.15048]},"properties":{"id":"gbrmpa-80009","name":"Flinders Island Group (Stokes Bay)","kind":"designated_anchorage","source":"GBRMPA","sourceRef":"80009","likelyAnchorage":true,"noAnchoring":false,"noAnchoringName":null,"notes":"  · Management area: Far Northern Management Area · Great Barrier Reef Marine Park Regulations 2019","fetchLandNM":[15,15,15,15,1.1,0.7,0.6,0.5,0.5,0.5,0.7,0.7,0.6,0.6,0.6,0.7,0.7,0.8,1,1.2,15,15,15,15,15,15,15,15,15,15,15,15,15,15,15,15],"fetchReefNM":[4.2,4.3,4.5,15,1.1,0.7,0.6,0.5,0.5,0.5,0.7,0.7,0.6,0.6,0.6,0.7,0.7,0.8,1,1.2,15,15,15,15,15,15,15,15,15,15,11.1,9.8,10.6,10,9.8,9.9]}},{"type":"Feature","geometry":{"type":"Point","coordinates":[144.25251,-14.13878]},"properties":{"id":"gbrmpa-80008","name":"Flinders Island Group (Wongal Beach)","kind":"designated_anchorage","source":"GBRMPA","sourceRef":"80008","likelyAnchorage":true,"noAnchoring":false,"noAnchoringName":null,"notes":"  · Management area: Far Northern Management Area · Great Barrier Reef Marine Park Regulations 2019","fetchLandNM":[15,5,15,15,15,15,4.8,15,15,15,13.9,13.4,0.5,0.5,0.5,0.4,0.4,0.4,0.5,0.4,0.4,0.4,0.4,0.4,0.4,0.7,0.6,0.7,0.9,1,0.9,15,15,15,15,15],"fetchReefNM":[3.6,4.7,14.4,15,13.6,14.3,4.8,15,15,15,13.9,13.4,0.5,0.5,0.5,0.4,0.4,0.4,0.5,0.4,0.4,0.4,0.4,0.4,0.4,0.7,0.6,0.7,0.9,1,0.9,11.5,10.5,4,3.7,3.6]}},{"type":"Feature","geometry":{"type":"Point","coordinates":[144.87418,-14.40878]},"properties":{"id":"gbrmpa-80011","name":"Ingram Island South-Easterly Wind","kind":"designated_anchorage","source":"GBRMPA","sourceRef":"80011","likelyAnchorage":true,"noAnchoring":false,"noAnchoringName":null,"notes":"  · Management area: Far Northern Management Area · Great Barrier Reef Marine Park Regulations 2019","fetchLandNM":[15,15,15,15,15,15,15,15,15,15,15,15,15,8.8,0.5,0.5,15,13.3,12.2,12.5,12.2,11.2,11.3,13.8,13.8,3.5,14.9,14.2,13.3,15,15,15,15,15,15,15],"fetchReefNM":[15,11.9,11.7,15,7.4,6.1,5.5,1.6,1.6,2.1,2.6,3.3,0.5,0.5,0.4,0.4,0.5,0.6,0.8,12.5,12.2,11.2,11.3,13.8,13.8,3.5,14.9,14.2,13.3,6.2,6.6,8,7.2,7.2,11.1,4.6]}},{"type":"Feature","geometry":{"type":"Point","coordinates":[145.45026,-14.66214]},"properties":{"id":"gbrmpa-80012","name":"Lizard Island","kind":"designated_anchorage","source":"GBRMPA","sourceRef":"80012","likelyAnchorage":true,"noAnchoring":false,"noAnchoringName":null,"notes":"  · Management area: Cairns/Cooktown management area · Great Barrier Reef Marine Park Regulations 2019","fetchLandNM":[0.7,0.3,0.3,0.3,0.3,0.2,0.2,0.3,0.3,0.2,0.2,0.2,0.2,0.2,0.2,0.2,0.2,0.2,0.2,0.2,0.2,0.3,0.5,0.4,15,15,14.4,15,15,15,15,15,15,15,15,15],"fetchReefNM":[0.7,0.3,0.3,0.3,0.3,0.2,0.2,0.3,0.3,0.2,0.2,0.2,0.2,0.2,0.2,0.2,0.2,0.2,0.2,0.2,0.2,0.3,0.5,0.4,0.6,0.5,0.3,0.2,0.2,0.2,0.2,0.2,0.2,0.2,0.3,0.4]}},{"type":"Feature","geometry":{"type":"Point","coordinates":[144.59827,-14.35027]},"properties":{"id":"osm-node3020493250","name":"Ninian Bay","kind":"anchorage","source":"OpenStreetMap","sourceRef":"node/3020493250","likelyAnchorage":true,"noAnchoring":false,"noAnchoringName":null,"notes":null,"fetchLandNM":[15,15,15,15,15,15,15,15,2.8,2.6,2.3,1.8,0.9,0.8,0.8,0.9,0.9,0.9,0.9,0.9,0.9,1,0.9,0.9,0.8,0.8,0.8,0.8,0.7,0.8,0.8,0.9,1,1.4,2.2,3.9],"fetchReefNM":[15,12.5,15,7.5,6.9,6.8,5.9,8,2.8,2.6,2.3,1.8,0.9,0.8,0.8,0.9,0.9,0.9,0.9,0.9,0.9,1,0.9,0.9,0.8,0.8,0.8,0.8,0.7,0.8,0.8,0.9,1,1.4,2.2,3.9]}},{"type":"Feature","geometry":{"type":"Point","coordinates":[144.50584,-14.11378]},"properties":{"id":"gbrmpa-80007","name":"Pipon Island South-Easterly Wind","kind":"designated_anchorage","source":"GBRMPA","sourceRef":"80007","likelyAnchorage":true,"noAnchoring":false,"noAnchoringName":null,"notes":"  · Management area: Far Northern Management Area · Great Barrier Reef Marine Park Regulations 2019","fetchLandNM":[15,15,15,15,15,15,15,15,15,1.1,1.1,1.1,15,15,0.6,8.2,4.6,3.2,3.2,3.2,3.2,2.5,15,15,15,13.8,15,15,14.7,15,15,15,15,15,15,15],"fetchReefNM":[7.2,7.4,15,12.4,12.8,12.2,13,15,9.4,0.8,0.7,0.6,0.5,0.5,0.5,0.5,0.6,3.2,3.2,3.2,3.2,2.5,15,15,15,13.8,15,15,14.5,15,15,15,15,10.3,8.2,15]}},{"type":"Feature","geometry":{"type":"Point","coordinates":[145.2758,-15.49151]},"properties":{"id":"osm-node5104446947","name":"Quarantine Bay","kind":"anchorage","source":"OpenStreetMap","sourceRef":"node/5104446947","likelyAnchorage":true,"noAnchoring":false,"noAnchoringName":null,"notes":null,"fetchLandNM":[6.4,12.2,13.7,15,15,15,15,15,15,15,15,15,0.3,0.3,0.3,0.3,0.2,0.2,0.1,0.1,0.1,0.1,0,0,0,0,0,0,0,0,0.1,0.1,0.1,0.1,0.4,5.5],"fetchReefNM":[6.4,12.2,13.7,15,15,15,9.6,13.1,8.7,13.6,12.9,15,0.3,0.3,0.3,0.3,0.2,0.2,0.1,0.1,0.1,0.1,0,0,0,0,0,0,0,0,0.1,0.1,0.1,0.1,0.4,5.5]}},{"type":"Feature","geometry":{"type":"Point","coordinates":[145.79539,-15.55813]},"properties":{"id":"gbrmpa-80013","name":"Ribbon Reef No.2 (15-075) Location","kind":"designated_anchorage","source":"GBRMPA","sourceRef":"80013","likelyAnchorage":true,"noAnchoring":false,"noAnchoringName":null,"notes":"The area within the 500 metre line of Ribbon Reef No. 5 (15‑038) · Management area: Cairns/Cooktown management area · Great Barrier Reef Marine Park Regulations 2019","fetchLandNM":[15,15,15,15,15,15,15,15,15,15,15,15,15,15,15,15,15,15,15,15,15,15,15,15,15,15,15,15,15,15,15,15,15,15,15,15],"fetchReefNM":[1.4,1.4,1.5,1.6,1.4,1.1,0.8,0.6,0.5,0.4,0.4,0.5,0.5,0.6,0.7,0.7,0.8,0.9,1.3,1.6,0.9,1,0.9,0.9,0.8,0.7,0.6,0.6,0.5,0.5,0.5,0.5,0.5,0.6,0.6,0.8]}},{"type":"Feature","geometry":{"type":"Point","coordinates":[145.78338,-15.36312]},"properties":{"id":"gbrmpa-80014","name":"Ribbon Reef No.5 (15-038) Location","kind":"designated_anchorage","source":"GBRMPA","sourceRef":"80014","likelyAnchorage":true,"noAnchoring":false,"noAnchoringName":null,"notes":"The area within the 500 metre line of Ribbon Reef No. 2 (15‑075a) · Management area: Cairns/Cooktown management area · Great Barrier Reef Marine Park Regulations 2019","fetchLandNM":[15,15,15,15,15,15,15,15,15,15,15,15,15,15,15,15,15,15,15,15,15,15,15,15,15,15,15,15,15,15,15,15,15,15,15,15],"fetchReefNM":[1.8,1.4,1.1,0.9,0.6,0.5,0.4,0.4,0.3,0.4,0.4,0.4,0.6,0.8,1,1.1,1.3,1.5,0.3,0.2,0.1,0.1,0.1,0.1,0.1,0.1,0.1,0.1,0.1,0.1,0.1,0.1,0.1,0.1,0.2,0.3]}},{"type":"Feature","geometry":{"type":"Point","coordinates":[144.21998,-14.1563]},"properties":{"id":"osm-node3020493917","name":"Stokes Bay","kind":"anchorage","source":"OpenStreetMap","sourceRef":"node/3020493917","likelyAnchorage":true,"noAnchoring":false,"noAnchoringName":null,"notes":null,"fetchLandNM":[15,15,6.6,0.7,0.5,0.5,0.6,0.5,0.5,0.4,0.4,0.3,0.3,0.3,0.3,0.3,0.3,0.3,0.4,0.4,0.8,15,15,15,15,15,15,15,15,15,15,15,15,15,15,15],"fetchReefNM":[4.5,4.6,4.9,0.7,0.5,0.5,0.6,0.5,0.5,0.4,0.4,0.3,0.3,0.3,0.3,0.3,0.3,0.3,0.4,0.4,0.8,15,15,15,15,15,15,15,15,15,11.4,10.2,10.9,10.4,10.2,10.3]}},{"type":"Feature","geometry":{"type":"Point","coordinates":[145.29275,-15.5498]},"properties":{"id":"osm-node1123939637","name":"Walker Bay","kind":"anchorage","source":"OpenStreetMap","sourceRef":"node/1123939637","likelyAnchorage":true,"noAnchoring":false,"noAnchoringName":null,"notes":null,"fetchLandNM":[11.8,15,15,15,15,15,15,15,15,15,15,0.6,0.6,0.6,0.6,0.6,0.6,0.6,0.6,0.6,0.7,0.6,0.6,0.6,0.6,0.6,0.7,0.7,0.7,0.8,1.5,1.8,1.9,2.3,2.7,3.1],"fetchReefNM":[11.8,15,15,15,11.6,10.9,7.6,15,11,10.8,15,0.6,0.6,0.6,0.6,0.6,0.6,0.6,0.6,0.6,0.7,0.6,0.6,0.6,0.6,0.6,0.7,0.7,0.7,0.8,1.5,1.8,1.9,2.3,2.7,3.1]}},{"type":"Feature","geometry":{"type":"Point","coordinates":[145.32238,-15.64573]},"properties":{"id":"osm-node1123939310","name":"Walsh Bay","kind":"anchorage","source":"OpenStreetMap","sourceRef":"node/1123939310","likelyAnchorage":true,"noAnchoring":false,"noAnchoringName":null,"notes":null,"fetchLandNM":[2.6,15,15,15,15,15,15,15,15,15,15,15,15,15,15,1.2,0.9,0.7,0.6,0.6,0.6,0.6,0.6,0.5,0.5,0.5,0.6,0.6,0.6,0.6,0.6,0.6,0.6,0.7,0.8,1],"fetchReefNM":[2.6,15,15,10.9,15,11.9,11,12.9,11.3,6.3,8.3,11.9,14.9,8.7,15,1.2,0.9,0.7,0.6,0.6,0.6,0.6,0.6,0.5,0.5,0.5,0.6,0.6,0.6,0.6,0.6,0.6,0.6,0.7,0.8,1]}},{"type":"Feature","geometry":{"type":"Point","coordinates":[145.3598,-15.9042]},"properties":{"id":"osm-node2128299294","name":"Weary Bay","kind":"anchorage","source":"OpenStreetMap","sourceRef":"node/2128299294","likelyAnchorage":true,"noAnchoring":false,"noAnchoringName":null,"notes":null,"fetchLandNM":[1.3,2.9,15,15,15,15,15,15,15,15,15,15,15,15,1.7,1.5,1.2,0.9,0.6,0.5,0.4,0.3,0.3,0.3,0.2,0.2,0.2,0.2,0.2,0.2,0.3,0.3,0.4,0.5,0.6,0.9],"fetchReefNM":[1.3,2.9,15,11.1,14.6,15,13.6,15,11.7,15,15,15,15,15,1.7,1.5,1.2,0.9,0.6,0.5,0.4,0.3,0.3,0.3,0.2,0.2,0.2,0.2,0.2,0.2,0.3,0.3,0.4,0.5,0.6,0.9]}}]}