{"type":"FeatureCollection","meta":{"region":"QLD","tile":"t-16e142","built":"2026-08-25","sources":["OpenStreetMap (ODbL)","GBRMPA (CC BY)"]},"features":[{"type":"Feature","geometry":{"type":"Point","coordinates":[143.69463,-14.06993]},"properties":{"id":"osm-node3020493550","name":"Port Stewart","kind":"anchorage","source":"OpenStreetMap","sourceRef":"node/3020493550","likelyAnchorage":true,"noAnchoring":false,"noAnchoringName":null,"notes":null,"fetchLandNM":[0.1,0.1,0.1,0.1,0.1,15,15,15,15,15,15,15,15,15,15,15,15,3.9,0,0,0,0,0,0,0,0,0,0.2,0.2,0.1,0.1,0.1,0.1,0.1,0.1,0.1],"fetchReefNM":[0.1,0.1,0.1,0.1,0.1,10.6,12.3,15,14.1,15,15,15,15,15,15,15,15,3.9,0,0,0,0,0,0,0,0,0,0.2,0.2,0.1,0.1,0.1,0.1,0.1,0.1,0.1]}},{"type":"Feature","geometry":{"type":"Point","coordinates":[143.9651,-14.33126]},"properties":{"id":"osm-node3020493568","name":"Princess Charlotte Bay","kind":"anchorage","source":"OpenStreetMap","sourceRef":"node/3020493568","likelyAnchorage":true,"noAnchoring":false,"noAnchoringName":null,"notes":null,"fetchLandNM":[15,15,15,15,15,15,15,15,13.7,13.3,12.3,11.3,10.3,10.2,9.9,9.6,9.6,9.5,9.3,9.5,9.7,10.2,10.5,10.6,11.1,11.5,12,12.8,13.5,15,15,15,15,15,15,15],"fetchReefNM":[15,12.2,15,15,15,15,15,15,13.7,13.3,12.3,11.3,10.3,10.2,9.9,9.6,9.6,9.5,9.3,9.5,9.7,10.2,10.5,10.6,11.1,11.5,12,12.8,13.5,15,15,15,15,15,15,15]}}]}