{"type":"FeatureCollection","meta":{"tile":"t-16e144","built":"2026-08-25"},"features":[{"type":"Feature","geometry":{"type":"Polygon","coordinates":[[[144.8761,-14.3038],[144.8761,-14.3377],[144.8412,-14.3377],[144.8412,-14.3038],[144.8761,-14.3038]],[[144.8499,-14.3192],[144.8527,-14.3183],[144.8498,-14.3186],[144.8499,-14.3192]]]},"properties":{"id":"gbrmpa-zone-593","type":"Marine National Park Zone","zone":"Green Zone","color":"#2fae5a","name":"MNP-14-1024","permit":"Stapleton Island Reef (14-054)","source":"GBRMPA"}},{"type":"Feature","geometry":{"type":"Polygon","coordinates":[[[145.4081,-15.7208],[145.3955,-15.7208],[145.3887,-15.7113],[145.3887,-15.7],[145.4081,-15.7],[145.4081,-15.7208]]]},"properties":{"id":"gbrmpa-zone-430","type":"Habitat Protection Zone","zone":"Dark Blue Zone","color":"#3f6fb0","name":"HP-15-5121","permit":"Gubbins Reef (15-063)","source":"GBRMPA"}},{"type":"Feature","geometry":{"type":"Polygon","coordinates":[[[145.61,-15.84],[145.61,-15.92],[145.5,-15.92],[145.5,-15.84],[145.61,-15.84]],[[145.5598,-15.8582],[145.5632,-15.8579],[145.5611,-15.8569],[145.5591,-15.8572],[145.5598,-15.8582]]]},"properties":{"id":"gbrmpa-zone-424","type":"Conservation Park Zone","zone":"Yellow Zone","color":"#e8c23f","name":"CP-15-4026","permit":"Pickersgill Reef (15-093)","source":"GBRMPA"}},{"type":"Feature","geometry":{"type":"Polygon","coordinates":[[[145.5004,-14.839],[145.5004,-14.802],[145.5331,-14.802],[145.5331,-14.839],[145.5004,-14.839]],[[145.5258,-14.8299],[145.5313,-14.8276],[145.5291,-14.8232],[145.5193,-14.8201],[145.5169,-14.8242],[145.5258,-14.8299]]]},"properties":{"id":"gbrmpa-zone-464","type":"Buffer Zone","zone":"Olive Green Zone","color":"#94a84f","name":"B-14-3006","permit":"South Direction Island (14-147) surrounds","source":"GBRMPA"}},{"type":"Feature","geometry":{"type":"Polygon","coordinates":[[[145.1154,-13.8],[145.1154,-14.1706],[144.9727,-14.1706],[144.9727,-14.238],[144.8328,-14.238],[144.8328,-14.297],[144.7934,-14.3371],[144.7934,-14.4],[144.775,-14.4],[144.725,-14.375],[144.675,-14.3],[144.65,-14.25],[144.625,-14.175],[144.625,-14.075],[144.6156,-14.0625],[144.5474,-14.0625],[144.5474,-13.925],[144.5499,-13.9216],[144.5499,-13.8],[145.1154,-13.8]],[[144.7786,-14.3173],[144.7798,-14.3168],[144.7797,-14.3147],[144.7786,-14.3173]],[[144.8816,-14.1985],[144.8853,-14.1983],[144.8824,-14.1978],[144.8816,-14.1985]],[[144.5754,-13.9595],[144.5756,-13.9577],[144.5748,-13.9584],[144.5754,-13.9595]]]},"properties":{"id":"gbrmpa-zone-487","type":"Marine National Park Zone","zone":"Green Zone","color":"#2fae5a","name":"MNP-13-1018","permit":"North and South Warden Reefs complex","source":"GBRMPA"}},{"type":"Feature","geometry":{"type":"Polygon","coordinates":[[[145.3016,-15.5432],[145.3052,-15.5523],[145.3024,-15.552],[145.3013,-15.5563],[145.298,-15.5593],[145.2888,-15.5606],[145.2836,-15.5557],[145.2797,-15.5451],[145.2722,-15.5423],[145.27,-15.5372],[145.2697,-15.5312],[145.2719,-15.5275],[145.2734,-15.5153],[145.2837,-15.4976],[145.3016,-15.5432]]]},"properties":{"id":"gbrmpa-zone-438","type":"Habitat Protection Zone","zone":"Dark Blue Zone","color":"#3f6fb0","name":"HP-15-5379","permit":"Walker Bay coastal area","source":"GBRMPA"}},{"type":"Feature","geometry":{"type":"Polygon","coordinates":[[[145.4499,-15.0165],[145.4536,-15.0222],[145.4536,-15.0282],[145.4497,-15.0324],[145.4421,-15.0324],[145.4321,-15.0276],[145.4292,-15.0217],[145.4308,-15.0162],[145.4394,-15.0129],[145.4499,-15.0165]],[[145.438,-15.0215],[145.4421,-15.02],[145.4377,-15.0185],[145.4352,-15.0201],[145.438,-15.0215]],[[145.4468,-15.0255],[145.4481,-15.0239],[145.447,-15.0226],[145.4468,-15.0255]]]},"properties":{"id":"gbrmpa-zone-458","type":"Habitat Protection Zone","zone":"Dark Blue Zone","color":"#3f6fb0","name":"HP-15-5113","permit":"Two Isles Reef (15-002)","source":"GBRMPA"}},{"type":"Feature","geometry":{"type":"Polygon","coordinates":[[[145.7585,-15.4056],[145.7793,-15.4056],[145.7793,-15.4147],[145.7585,-15.4148],[145.7585,-15.4056]],[[145.7746,-15.4135],[145.7787,-15.4105],[145.7787,-15.409],[145.7705,-15.4077],[145.7656,-15.4092],[145.7674,-15.4124],[145.7746,-15.4135]]]},"properties":{"id":"gbrmpa-zone-444","type":"Buffer Zone","zone":"Olive Green Zone","color":"#94a84f","name":"B-15-3007","permit":"Ribbon Reef No. 5 patches (15-042) and inter-reefal areas","source":"GBRMPA"}},{"type":"Feature","geometry":{"type":"Polygon","coordinates":[[[145.6485,-15.75],[145.6573,-15.7911],[145.6475,-15.7911],[145.6475,-15.8264],[145.6332,-15.7913],[145.6343,-15.7725],[145.6316,-15.7678],[145.6004,-15.7623],[145.5846,-15.7636],[145.5752,-15.7685],[145.5598,-15.7685],[145.5501,-15.7631],[145.5382,-15.7631],[145.5326,-15.7746],[145.5338,-15.7898],[145.5,-15.7898],[145.5,-15.75],[145.6485,-15.75]]]},"properties":{"id":"gbrmpa-zone-427","type":"Buffer Zone","zone":"Olive Green Zone","color":"#94a84f","name":"B-15-3009","permit":"Endeavour Reef (15-089) - northern inter-reefal area","source":"GBRMPA"}},{"type":"Feature","geometry":{"type":"Polygon","coordinates":[[[144.335,-14.084],[144.342,-14.087],[144.343,-14.094],[144.339,-14.102],[144.333,-14.106],[144.3203,-14.1108],[144.3137,-14.1108],[144.3072,-14.1077],[144.3072,-14.1058],[144.3145,-14.0994],[144.3201,-14.0915],[144.329,-14.084],[144.335,-14.084]],[[144.3301,-14.0894],[144.3321,-14.0867],[144.335,-14.0861],[144.3295,-14.0918],[144.3307,-14.0933],[144.3299,-14.0925],[144.3292,-14.0941],[144.3286,-14.0925],[144.328,-14.0938],[144.3313,-14.0952],[144.3304,-14.0943],[144.3333,-14.0948],[144.3346,-14.0928],[144.3339,-14.0938],[144.3383,-14.0958],[144.3324,-14.0952],[144.3347,-14.0984],[144.3277,-14.0947],[144.327,-14.096],[144.3286,-14.0976],[144.3255,-14.0966],[144.3245,-14.0987],[144.3256,-14.1021],[144.3303,-14.1047],[144.3364,-14.1016],[144.3394,-14.0961],[144.3402,-14.0892],[144.3382,-14.0865],[144.3339,-14.0853],[144.3311,-14.0867],[144.3301,-14.0894]]]},"properties":{"id":"gbrmpa-zone-473","type":"Marine National Park Zone","zone":"Green Zone","color":"#2fae5a","name":"MNP-14-1021","permit":"King Island Reef (14-018)","source":"GBRMPA"}},{"type":"Feature","geometry":{"type":"Polygon","coordinates":[[[145.9598,-16.08],[145.8883,-16.08],[145.8343,-15.9121],[145.9598,-15.9121],[145.9598,-16.08]]]},"properties":{"id":"gbrmpa-zone-421","type":"Buffer Zone","zone":"Olive Green Zone","color":"#94a84f","name":"B-15-3010","permit":"Offshore Agincourt Reefs","source":"GBRMPA"}},{"type":"Feature","geometry":{"type":"Polygon","coordinates":[[[143.7847,-14.2036],[143.81,-14.2301],[144.0379,-14.3251],[144.0379,-14.4488],[143.9115,-14.4488],[143.7384,-14.2987],[143.7333,-14.2753],[143.7308,-14.2756],[143.7293,-14.2651],[143.7251,-14.2536],[143.7244,-14.2549],[143.7235,-14.2539],[143.7082,-14.2237],[143.7847,-14.2036]],[[143.7788,-14.2237],[143.7798,-14.2219],[143.7752,-14.2144],[143.7731,-14.2193],[143.7788,-14.2237]],[[143.7745,-14.228],[143.7707,-14.2276],[143.7723,-14.2289],[143.7745,-14.228]],[[143.7946,-14.2254],[143.791,-14.2272],[143.7948,-14.2271],[143.7946,-14.2254]]]},"properties":{"id":"gbrmpa-zone-596","type":"Marine National Park Zone","zone":"Green Zone","color":"#2fae5a","name":"MNP-14-1023","permit":"Princess Charlotte Bay (offshore)","source":"GBRMPA"}},{"type":"Feature","geometry":{"type":"Polygon","coordinates":[[[145.7715,-15.491],[145.7715,-15.5329],[145.785,-15.5329],[145.807,-15.5117],[145.8143,-15.491],[145.837,-15.491],[145.837,-15.5888],[145.75,-15.5888],[145.75,-15.491],[145.7715,-15.491]],[[145.7864,-15.5857],[145.7907,-15.5857],[145.8029,-15.5654],[145.8029,-15.5551],[145.8089,-15.5472],[145.81,-15.5417],[145.8083,-15.5323],[145.7928,-15.5323],[145.7713,-15.5692],[145.7713,-15.5753],[145.7864,-15.5857]]]},"properties":{"id":"gbrmpa-zone-441","type":"Buffer Zone","zone":"Olive Green Zone","color":"#94a84f","name":"B-15-3008","permit":"Ribbon Reef No. 2 and 3 inter-reefal areas","source":"GBRMPA"}},{"type":"Feature","geometry":{"type":"Polygon","coordinates":[[[145.4024,-15.9173],[145.3893,-15.9173],[145.3893,-15.9059],[145.4024,-15.9059],[145.4024,-15.9173]]]},"properties":{"id":"gbrmpa-zone-422","type":"Habitat Protection Zone","zone":"Dark Blue Zone","color":"#3f6fb0","name":"HP-15-5123","permit":"Lake Reef (15-068)","source":"GBRMPA"}},{"type":"Feature","geometry":{"type":"Polygon","coordinates":[[[144.5146,-14.1219],[144.5131,-14.1225],[144.5135,-14.1219],[144.5146,-14.1219]]]},"properties":{"id":"gbrmpa-zone-754","type":"Commonwealth Islands Zone (GBRMPA)","zone":"Commonwealth Island Zone","color":"#b0b8bd","name":"U/N Island (14038102)","permit":null,"source":"GBRMPA"}},{"type":"Feature","geometry":{"type":"Polygon","coordinates":[[[144.0133,-14.1206],[144.0133,-14.1333],[143.9933,-14.14],[143.98,-14.1267],[143.9867,-14.12],[144.0133,-14.1206]],[[143.9943,-14.1294],[143.9957,-14.1273],[143.9928,-14.128],[143.9943,-14.1294]]]},"properties":{"id":"gbrmpa-zone-599","type":"Habitat Protection Zone","zone":"Dark Blue Zone","color":"#3f6fb0","name":"HP-14-5096","permit":"Wharton Reef (14-022)","source":"GBRMPA"}},{"type":"Feature","geometry":{"type":"Polygon","coordinates":[[[145.2828,-15.4916],[145.2831,-15.4708],[145.2956,-15.4708],[145.2956,-15.4916],[145.2828,-15.4916]]]},"properties":{"id":"gbrmpa-zone-442","type":"Habitat Protection Zone","zone":"Dark Blue Zone","color":"#3f6fb0","name":"HP-15-5117","permit":"Blackbird Patches (15-014a and b)","source":"GBRMPA"}},{"type":"Feature","geometry":{"type":"Polygon","coordinates":[[[144.6542,-14.334],[144.662,-14.3473],[144.662,-14.366],[144.6499,-14.366],[144.6521,-14.3649],[144.6509,-14.3576],[144.6478,-14.3556],[144.6471,-14.3515],[144.6438,-14.3481],[144.6417,-14.3531],[144.6381,-14.3562],[144.6321,-14.3576],[144.6282,-14.3606],[144.6224,-14.3621],[144.6176,-14.3612],[144.6125,-14.3576],[144.6089,-14.3585],[144.6059,-14.3629],[144.5961,-14.3653],[144.6157,-14.334],[144.6542,-14.334]],[[144.6498,-14.3451],[144.6481,-14.3419],[144.6461,-14.3423],[144.6498,-14.3451]],[[144.6511,-14.3449],[144.6535,-14.3471],[144.6524,-14.3445],[144.6511,-14.3449]]]},"properties":{"id":"gbrmpa-zone-591","type":"Conservation Park Zone","zone":"Yellow Zone","color":"#e8c23f","name":"CP-14-4015","permit":"Ninian Bay","source":"GBRMPA"}},{"type":"Feature","geometry":{"type":"Polygon","coordinates":[[[145.3762,-15.7634],[145.3762,-15.83],[145.382,-15.837],[145.382,-15.848],[145.3792,-15.8524],[145.3715,-15.8524],[145.3771,-15.8441],[145.3771,-15.8392],[145.373,-15.8333],[145.3633,-15.8338],[145.3587,-15.8312],[145.3568,-15.8247],[145.3565,-15.8137],[145.3549,-15.8098],[145.3526,-15.8084],[145.3521,-15.8054],[145.3564,-15.7901],[145.359,-15.784],[145.3637,-15.7787],[145.3688,-15.7634],[145.3762,-15.7634]]]},"properties":{"id":"gbrmpa-zone-425","type":"Marine National Park Zone","zone":"Green Zone","color":"#2fae5a","name":"MNP-15-1045","permit":"Cedar Bay (Obree Point to Rattlesnake Point)","source":"GBRMPA"}},{"type":"Feature","geometry":{"type":"Polygon","coordinates":[[[143.26,-11.79],[143.26,-11.81],[143.27,-11.81],[143.29,-11.85],[143.27,-11.85],[143.27,-11.87],[143.29,-11.88],[143.3,-11.88],[143.36,-11.9385],[143.36,-11.97],[143.4118,-11.97],[143.4105,-11.9719],[143.3563,-11.9899],[143.3331,-12.0112],[143.31,-12.0646],[143.3,-12.0746],[143.3,-12.1046],[143.31,-12.1245],[143.33,-12.1445],[143.37,-12.1646],[143.4,-12.1846],[143.4,-12.2146],[143.3199,-12.2346],[143.3123,-12.2346],[143.3123,-12.2278],[143.2706,-12.207],[143.2581,-12.207],[143.2581,-12.2325],[143.2731,-12.2585],[143.2989,-12.2839],[143.307,-12.2839],[143.373,-12.3862],[143.3586,-12.3977],[143.38,-12.43],[143.4684,-12.5386],[143.57,-12.5386],[143.57,-12.56],[143.5331,-12.575],[143.5039,-12.575],[143.5039,-12.5916],[143.5248,-12.6083],[143.5456,-12.6083],[143.5789,-12.5875],[143.614,-12.5875],[143.6141,-12.6958],[143.5664,-12.6958],[143.5664,-12.7041],[143.5748,-12.7166],[143.5998,-12.7291],[143.6414,-12.7291],[143.6414,-12.79],[143.71,-12.79],[143.71,-12.84],[143.68,-12.84],[143.68,-12.86],[143.7,-12.88],[143.72,-12.88],[143.72,-12.94],[143.74,-12.96],[143.74,-12.98],[143.7822,-13.0847],[143.8098,-13.1799],[143.7933,-13.18],[143.78,-13.1933],[143.78,-13.2],[143.7867,-13.2067],[143.8,-13.2067],[143.81,-13.1967],[143.81,-13.26],[143.84,-13.26],[143.84,-13.3698],[143.7363,-13.3798],[143.7186,-13.4269],[143.7121,-13.5048],[143.7247,-13.54],[143.7289,-13.6116],[143.8084,-13.6116],[143.9716,-13.56],[144.0432,-13.5148],[144.08,-13.57],[144.08,-13.6322],[144.0914,-13.65],[144.14,-13.65],[144.14,-13.68],[144.19,-13.71],[144.2,-13.71],[144.2671,-13.8106],[144.2671,-13.8583],[144.28,-13.9],[144.334,-13.9202],[144.334,-13.9497],[144.3438,-13.96],[144.37,-13.96],[144.37,-13.97],[144.43,-13.97],[144.43,-14],[144.5474,-14],[144.5474,-14.0625],[144.6156,-14.0625],[144.625,-14.075],[144.625,-14.175],[144.65,-14.25],[144.675,-14.3],[144.725,-14.375],[144.775,-14.4],[144.7934,-14.4],[144.8676,-14.4225],[144.8788,-14.4363],[144.8902,-14.4421],[144.9001,-14.4421],[144.9279,-14.4616],[144.9435,-14.4808],[144.9435,-14.5],[144.9471,-14.5101],[144.9604,-14.5328],[144.9831,-14.55],[145.004,-14.55],[145.24,-14.6292],[145.24,-14.67],[145.33,-14.74],[145.33,-14.8],[145.4,-14.9769],[145.46,-14.9769],[145.46,-15.0473],[145.4,-15.0473],[145.4,-15.0875],[145.3665,-15.0875],[145.3665,-15.1041],[145.4,-15.1041],[145.4,-15.252],[145.46,-15.252],[145.46,-15.38],[145.388,-15.38],[145.388,-15.6299],[145.4201,-15.6299],[145.4202,-15.6353],[145.4243,-15.6501],[145.5,-15.7129],[145.5,-15.92],[145.3792,-15.92],[145.3792,-15.8524],[145.382,-15.848],[145.382,-15.837],[145.3762,-15.83],[145.377,-15.755],[145.372,-15.72],[145.363,-15.697],[145.345,-15.676],[145.343,-15.662],[145.328,-15.6481],[145.328,-15.61],[145.338,-15.61],[145.338,-15.594],[145.3294,-15.594],[145.3287,-15.5922],[145.3267,-15.5932],[145.3204,-15.5892],[145.3192,-15.584],[145.3222,-15.5808],[145.319,-15.5794],[145.3173,-15.5751],[145.3228,-15.5707],[145.3189,-15.5696],[145.3176,-15.5662],[145.3108,-15.5605],[145.3079,-15.5542],[145.3052,-15.5523],[145.2823,-15.4941],[145.2828,-15.4916],[145.2956,-15.4916],[145.2956,-15.4708],[145.2831,-15.4708],[145.287,-15.3786],[145.2882,-15.3759],[145.2879,-15.37],[145.2854,-15.3646],[145.2956,-15.3506],[145.2982,-15.3424],[145.2873,-15.3349],[145.2863,-15.3306],[145.2837,-15.3294],[145.2835,-15.3236],[145.2854,-15.3185],[145.2923,-15.3097],[145.3122,-15.2916],[145.3307,-15.279],[145.3405,-15.2751],[145.3433,-15.2755],[145.344,-15.2777],[145.3502,-15.2763],[145.3545,-15.278],[145.3571,-15.2772],[145.3575,-15.2748],[145.3541,-15.2716],[145.3528,-15.2584],[145.3439,-15.2479],[145.3448,-15.2329],[145.343,-15.2293],[145.3386,-15.2268],[145.3357,-15.2208],[145.3498,-15.2208],[145.3498,-15.2083],[145.3294,-15.2083],[145.2986,-15.1458],[145.3331,-15.1458],[145.3331,-15.1292],[145.2903,-15.1292],[145.2663,-15.0805],[145.2884,-15.0446],[145.3323,-14.9985],[145.3827,-14.9985],[145.3693,-14.9185],[145.3,-14.9185],[145.3,-14.944],[145.2246,-14.8483],[145.2297,-14.8359],[145.2317,-14.836],[145.2168,-14.7675],[145.2168,-14.6956],[145.2096,-14.6926],[145.1133,-14.7279],[144.9117,-14.5491],[144.8486,-14.5257],[144.8486,-14.5188],[144.8412,-14.5188],[144.8412,-14.523],[144.766,-14.4951],[144.7113,-14.4713],[144.6418,-14.4379],[144.6418,-14.4001],[144.662,-14.378],[144.662,-14.3473],[144.6542,-14.334],[144.647,-14.334],[144.6344,-14.3042],[144.6011,-14.2485],[144.5261,-14.1485],[144.4968,-14.1485],[144.4882,-14.1402],[144.4818,-14.1387],[144.288,-14.23],[144.288,-14.1673],[144.2734,-14.1456],[144.2382,-14.124],[144.228,-14.124],[144.196,-14.1744],[144.196,-14.2479],[144.1198,-14.359],[143.81,-14.2301],[143.7847,-14.2036],[143.64,-13.78],[143.65,-13.78],[143.65,-13.74],[143.64,-13.73],[143.6446,-13.5533],[143.66,-13.5533],[143.6616,-13.5517],[143.6625,-13.5431],[143.6619,-13.5352],[143.66,-13.5333],[143.6452,-13.5333],[143.6463,-13.4981],[143.6509,-13.458],[143.6559,-13.4565],[143.6553,-13.4487],[143.6522,-13.4466],[143.656,-13.402],[143.61,-13.33],[143.61,-13.32],[143.6,-13.32],[143.5748,-13.2792],[143.5748,-13.2016],[143.585,-13.2016],[143.585,-13.1665],[143.567,-13.1665],[143.56,-13.148],[143.56,-13.12],[143.57,-13.11],[143.56,-13.1],[143.56,-13.07],[143.57,-13.06],[143.5601,-13.0504],[143.5601,-12.812],[143.552,-12.8],[143.427,-12.8],[143.4076,-12.7583],[143.43,-12.68],[143.44,-12.67],[143.45,-12.67],[143.46,-12.66],[143.45,-12.65],[143.44,-12.65],[143.45,-12.63],[143.4645,-12.63],[143.4645,-12.6217],[143.4498,-12.6078],[143.42,-12.59],[143.36,-12.56],[143.2999,-12.4966],[143.2999,-12.4138],[143.2156,-12.3091],[143.1246,-12.2771],[143.1246,-12.2467],[143.1467,-12.2467],[143.1467,-12.2267],[143.1246,-12.2267],[143.1246,-12.1505],[143.21,-12.01],[143.25,-12],[143.2768,-12],[143.2957,-11.9713],[143.2677,-11.9423],[143.26,-11.95],[143.26,-11.96],[143.25,-11.96],[143.2299,-11.9491],[143.2218,-11.9491],[143.2218,-11.9411],[143.2022,-11.9411],[143.1495,-11.9167],[143.1361,-11.9],[143.1206,-11.9],[143.1206,-11.8916],[143.1123,-11.8833],[143.0973,-11.8833],[143.1,-11.84],[143.1,-11.7],[143.2175,-11.742],[143.25,-11.75],[143.25,-11.76],[143.27,-11.79],[143.26,-11.79]],[[144.06,-13.88],[143.9107,-14.0386],[144.0228,-14.0803],[144.1309,-14.0803],[144.2474,-13.9796],[144.2474,-13.9141],[144.231,-13.8717],[144.18,-13.8717],[144.1619,-13.84],[144.06,-13.84],[144.06,-13.88]],[[143.78,-13.63],[143.77,-13.64],[143.77,-13.67],[143.74,-13.73],[143.75,-13.75],[143.78,-13.74],[143.7978,-13.7133],[143.8267,-13.7133],[143.8267,-13.6733],[143.83,-13.67],[143.83,-13.64],[143.84,-13.63],[143.89,-13.63],[143.89,-13.65],[143.88,-13.66],[143.87,-13.71],[143.79,-13.79],[143.75,-13.79],[143.73,-13.8],[143.73,-13.81],[143.77,-13.84],[143.77,-13.85],[143.7802,-13.85],[143.79,-13.84],[143.84,-13.84],[143.87,-13.81],[143.91,-13.78],[143.96,-13.68],[143.96,-13.67],[143.94,-13.66],[143.94,-13.6],[143.93,-13.59],[143.91,-13.59],[143.78,-13.63]],[[143.94,-13.77],[143.88,-13.86],[143.88,-13.88],[143.92,-13.88],[143.9037,-13.8963],[143.8919,-13.8963],[143.8812,-13.9088],[143.8912,-13.9187],[143.87,-13.94],[143.87,-13.98],[143.91,-13.99],[143.93,-13.98],[143.98,-13.95],[144,-13.92],[144.02,-13.92],[144.05,-13.85],[144.05,-13.81],[144.01,-13.779],[144.01,-13.75],[144,-13.74],[143.99,-13.74],[143.99,-13.72],[143.95,-13.74],[143.94,-13.76],[143.94,-13.77]],[[143.63,-13.08],[143.63,-13.13],[143.69,-13.13],[143.69,-13.12],[143.71,-13.12],[143.75,-13.11],[143.75,-13.08],[143.73,-13.04],[143.6948,-13.0291],[143.622,-13.0291],[143.6124,-13.0383],[143.6124,-13.0558],[143.63,-13.08]],[[143.77,-13.15],[143.74,-13.16],[143.73,-13.16],[143.73,-13.17],[143.72,-13.17],[143.66,-13.2],[143.66,-13.23],[143.6901,-13.2472],[143.6748,-13.2625],[143.6748,-13.275],[143.6789,-13.2832],[143.679,-13.2933],[143.6622,-13.2933],[143.6672,-13.3132],[143.68,-13.3133],[143.6867,-13.3067],[143.6867,-13.2958],[143.7039,-13.2958],[143.7164,-13.2833],[143.7164,-13.2622],[143.73,-13.27],[143.75,-13.27],[143.79,-13.23],[143.79,-13.21],[143.76,-13.21],[143.73,-13.22],[143.71,-13.21],[143.7201,-13.1899],[143.73,-13.18],[143.78,-13.18],[143.79,-13.17],[143.79,-13.16],[143.78,-13.15],[143.77,-13.15]],[[143.78,-13.3],[143.77,-13.32],[143.74,-13.33],[143.74,-13.3133],[143.7267,-13.3133],[143.72,-13.32],[143.72,-13.3333],[143.74,-13.3333],[143.74,-13.35],[143.75,-13.36],[143.78,-13.36],[143.82,-13.34],[143.82,-13.32],[143.8,-13.29],[143.79,-13.29],[143.78,-13.3]],[[144.2041,-14.0661],[144.2041,-14.0874],[144.2763,-14.0874],[144.2763,-14.0432],[144.2507,-14.0432],[144.2041,-14.0661]],[[143.5873,-12.8874],[143.5998,-12.9],[143.629,-12.8916],[143.6456,-12.875],[143.6456,-12.8625],[143.6623,-12.8625],[143.6623,-12.8333],[143.6248,-12.8333],[143.6206,-12.8375],[143.6206,-12.8458],[143.6289,-12.8541],[143.6289,-12.8625],[143.6206,-12.8708],[143.5873,-12.8708],[143.5873,-12.8874]],[[145.427,-15.716],[145.427,-15.764],[145.4488,-15.764],[145.476,-15.742],[145.4668,-15.7159],[145.427,-15.716]],[[143.68,-12.98],[143.6667,-12.9867],[143.66,-12.9933],[143.66,-13.0066],[143.6734,-13.0133],[143.7067,-13.0066],[143.7333,-13.0066],[143.7333,-12.9867],[143.6881,-12.98],[143.68,-12.98]],[[143.5289,-12.6458],[143.5164,-12.6583],[143.5164,-12.6666],[143.5206,-12.6708],[143.5289,-12.6708],[143.5331,-12.6666],[143.5331,-12.6541],[143.5748,-12.6541],[143.5956,-12.6333],[143.5956,-12.6208],[143.5873,-12.6208],[143.5748,-12.6291],[143.5498,-12.6291],[143.5456,-12.6333],[143.5289,-12.6333],[143.5289,-12.6458]],[[143.1867,-12.2467],[143.2,-12.2533],[143.2133,-12.2533],[143.2333,-12.2667],[143.2534,-12.2667],[143.2534,-12.2533],[143.2333,-12.2333],[143.1867,-12.2333],[143.1867,-12.2467]],[[143.46,-12.78],[143.46,-12.79],[143.5,-12.79],[143.49,-12.74],[143.47,-12.75],[143.46,-12.78]],[[143.2467,-12.1],[143.2667,-12.12],[143.28,-12.12],[143.28,-12.0933],[143.2733,-12.0733],[143.2544,-12.0733],[143.2467,-12.0866],[143.2467,-12.1]],[[143.6844,-13.3733],[143.6934,-13.4],[143.7133,-13.4],[143.72,-13.3933],[143.72,-13.3667],[143.6934,-13.36],[143.6846,-13.36],[143.6844,-13.3733]],[[143.7107,-13.6494],[143.7132,-13.67],[143.75,-13.67],[143.75,-13.6323],[143.7106,-13.6483],[143.7107,-13.6494]],[[144.3289,-14.0791],[144.304,-14.1041],[144.304,-14.1125],[144.3248,-14.1125],[144.3414,-14.1041],[144.3456,-14.0958],[144.3456,-14.0791],[144.3289,-14.0791]],[[143.5963,-12.7763],[143.6,-12.78],[143.63,-12.78],[143.63,-12.76],[143.59,-12.75],[143.59,-12.77],[143.5963,-12.7763]],[[144.523,-14.1045],[144.5066,-14.118],[144.5068,-14.1278],[144.5123,-14.1333],[144.5373,-14.1333],[144.5414,-14.1291],[144.5415,-14.1047],[144.523,-14.1045]],[[143.8249,-13.917],[143.8331,-13.9375],[143.8414,-13.9375],[143.8498,-13.9291],[143.8498,-13.9],[143.8248,-13.9],[143.8249,-13.917]],[[143.29,-12.023],[143.29,-12.05],[143.31,-12.05],[143.31,-12.01],[143.2984,-12.01],[143.29,-12.023]],[[143.5081,-12.5541],[143.5081,-12.5667],[143.5415,-12.5667],[143.554,-12.5583],[143.554,-12.5458],[143.5081,-12.5541]],[[144.7987,-14.4195],[144.7987,-14.4433],[144.8241,-14.4433],[144.8241,-14.4195],[144.7987,-14.4195]],[[143.38,-12.5267],[143.3867,-12.5333],[143.4067,-12.5333],[143.3888,-12.5],[143.38,-12.5],[143.38,-12.5267]],[[144.9014,-14.4948],[144.9014,-14.5162],[144.9273,-14.5162],[144.9273,-14.4948],[144.9014,-14.4948]],[[144.0133,-14.1206],[143.9867,-14.12],[143.98,-14.1267],[143.9933,-14.14],[144.0133,-14.1333],[144.0133,-14.1206]],[[143.6267,-12.9867],[143.6267,-12.98],[143.6,-12.98],[143.6,-12.9933],[143.6066,-13],[143.62,-13],[143.6267,-12.9867]],[[143.2618,-12.1322],[143.2675,-12.1411],[143.277,-12.1495],[143.2834,-12.1503],[143.288,-12.1469],[143.2887,-12.1414],[143.287,-12.1378],[143.2742,-12.1257],[143.2688,-12.1236],[143.2623,-12.1253],[143.2618,-12.1322]],[[143.8498,-13.9708],[143.8498,-13.95],[143.8279,-13.95],[143.8355,-13.975],[143.8414,-13.975],[143.8498,-13.9708]],[[143.7284,-13.8594],[143.7233,-13.8533],[143.7133,-13.8533],[143.7067,-13.86],[143.7067,-13.8689],[143.7143,-13.877],[143.7232,-13.877],[143.7284,-13.8717],[143.7284,-13.8594]],[[145.2667,-14.7267],[145.2867,-14.7267],[145.2867,-14.7067],[145.2667,-14.7067],[145.2667,-14.7267]],[[143.6,-12.8],[143.6,-12.82],[143.62,-12.82],[143.62,-12.8],[143.6,-12.8]],[[143.74,-13.1267],[143.74,-13.1467],[143.76,-13.1467],[143.76,-13.1333],[143.7534,-13.1267],[143.74,-13.1267]],[[145.3887,-15.7113],[145.3955,-15.7208],[145.4081,-15.7208],[145.4081,-15.7],[145.3887,-15.7],[145.3887,-15.7113]],[[145.4321,-15.0276],[145.4421,-15.0324],[145.4497,-15.0324],[145.4536,-15.0282],[145.4536,-15.0222],[145.4499,-15.0165],[145.4394,-15.0129],[145.4308,-15.0162],[145.4292,-15.0217],[145.4321,-15.0276]],[[143.6467,-12.9267],[143.6467,-12.94],[143.66,-12.94],[143.6667,-12.9333],[143.6667,-12.92],[143.6533,-12.92],[143.6467,-12.9267]],[[143.7593,-13.9533],[143.7637,-13.9462],[143.7637,-13.9351],[143.7594,-13.9313],[143.7563,-13.9313],[143.7485,-13.9355],[143.7444,-13.9399],[143.7444,-13.948],[143.7487,-13.9533],[143.7593,-13.9533]],[[143.6961,-13.854],[143.6961,-13.844],[143.693,-13.8389],[143.6886,-13.8348],[143.6842,-13.8348],[143.6802,-13.8374],[143.6771,-13.8417],[143.6771,-13.8467],[143.6823,-13.8546],[143.6881,-13.8577],[143.6948,-13.8563],[143.6961,-13.854]],[[143.2192,-12.139],[143.2201,-12.1399],[143.23,-12.13],[143.23,-12.12],[143.21,-12.12],[143.21,-12.13],[143.2192,-12.139]],[[143.2,-11.926],[143.2063,-11.9361],[143.218,-11.9361],[143.218,-11.926],[143.2091,-11.916],[143.2,-11.916],[143.2,-11.926]],[[145.3081,-14.7942],[145.3081,-14.7958],[145.3248,-14.7958],[145.3248,-14.7791],[145.3081,-14.7791],[145.3081,-14.7942]],[[145.3172,-15.4959],[145.3172,-15.5125],[145.3337,-15.5125],[145.3337,-15.4959],[145.3172,-15.4959]],[[144.8845,-14.4645],[144.8868,-14.4703],[144.8933,-14.4746],[144.8986,-14.4736],[144.9013,-14.47],[144.9011,-14.4614],[144.8982,-14.4537],[144.891,-14.454],[144.8859,-14.459],[144.8845,-14.4645]],[[143.6867,-12.94],[143.6734,-12.9533],[143.68,-12.96],[143.6934,-12.96],[143.6934,-12.9467],[143.6867,-12.94]],[[144.762,-14.484],[144.762,-14.468],[144.746,-14.468],[144.746,-14.484],[144.762,-14.484]],[[143.9195,-14.0812],[143.9195,-14.0752],[143.917,-14.0695],[143.9109,-14.0695],[143.9028,-14.0741],[143.9028,-14.0813],[143.9063,-14.0856],[143.9162,-14.0856],[143.9195,-14.0812]],[[145.1914,-14.6625],[145.1914,-14.675],[145.2081,-14.675],[145.2081,-14.6625],[145.1914,-14.6625]],[[145.1706,-14.6541],[145.1706,-14.6666],[145.1873,-14.6666],[145.1873,-14.6541],[145.1706,-14.6541]],[[143.604,-13.275],[143.5956,-13.2666],[143.5873,-13.2666],[143.5873,-13.275],[143.5956,-13.2833],[143.604,-13.2833],[143.604,-13.275]],[[145.424,-15.702],[145.424,-15.712],[145.444,-15.712],[145.444,-15.702],[145.424,-15.702]],[[143.6665,-13.1625],[143.6623,-13.1583],[143.6539,-13.1583],[143.6498,-13.1625],[143.6498,-13.1667],[143.6539,-13.1708],[143.6623,-13.1708],[143.6665,-13.1666],[143.6665,-13.1625]],[[145.2664,-14.8458],[145.2664,-14.8583],[145.28,-14.8583],[145.28,-14.846],[145.2664,-14.8458]],[[145.2789,-14.8083],[145.2789,-14.8208],[145.2914,-14.8208],[145.2914,-14.8083],[145.2789,-14.8083]],[[143.8623,-14.0708],[143.8623,-14.0583],[143.8498,-14.0583],[143.8498,-14.0708],[143.8623,-14.0708]],[[145.3468,-15.5368],[145.3533,-15.5423],[145.3579,-15.5423],[145.3579,-15.5268],[145.3468,-15.5268],[145.3468,-15.5368]],[[145.3893,-15.9059],[145.3893,-15.9173],[145.4024,-15.9173],[145.4024,-15.9059],[145.3893,-15.9059]],[[143.646,-13.156],[143.646,-13.144],[143.634,-13.144],[143.6373,-13.156],[143.646,-13.156]],[[143.6239,-13.158],[143.6239,-13.148],[143.6122,-13.148],[143.6122,-13.158],[143.6239,-13.158]],[[144.9149,-14.5444],[144.9177,-14.5472],[144.9212,-14.5472],[144.9249,-14.5433],[144.9249,-14.5402],[144.922,-14.5376],[144.9197,-14.5375],[144.9149,-14.5423],[144.9149,-14.5444]],[[143.6936,-13.6722],[143.6955,-13.6679],[143.6945,-13.6659],[143.6904,-13.6682],[143.6939,-13.6682],[143.6897,-13.6687],[143.6884,-13.6706],[143.6898,-13.6741],[143.6936,-13.6722]]]},"properties":{"id":"gbrmpa-zone-525","type":"General Use Zone","zone":"Light Blue Zone","color":"#7fc3dd","name":"GU-11-6002","permit":null,"source":"GBRMPA"}},{"type":"Feature","geometry":{"type":"Polygon","coordinates":[[[145.2903,-15.1292],[145.3386,-15.2268],[145.3336,-15.2289],[145.3317,-15.2314],[145.3295,-15.2382],[145.3298,-15.246],[145.3251,-15.2543],[145.3109,-15.2614],[145.2724,-15.2592],[145.268,-15.2567],[145.2592,-15.2451],[145.2556,-15.2301],[145.2503,-15.2213],[145.2487,-15.2129],[145.2413,-15.2034],[145.239,-15.1963],[145.2399,-15.1806],[145.2367,-15.1772],[145.2355,-15.1689],[145.2403,-15.1528],[145.2391,-15.1474],[145.2357,-15.1439],[145.2348,-15.1449],[145.2343,-15.14],[145.2382,-15.1387],[145.2462,-15.1156],[145.2599,-15.0955],[145.2663,-15.0805],[145.2903,-15.1292]]]},"properties":{"id":"gbrmpa-zone-456","type":"Conservation Park Zone","zone":"Yellow Zone","color":"#e8c23f","name":"CP-15-4020","permit":"Bedford Bay","source":"GBRMPA"}},{"type":"Feature","geometry":{"type":"Polygon","coordinates":[[[145.0222,-14.7823],[145.0236,-14.7852],[145.0223,-14.7904],[145.0266,-14.7948],[145.0256,-14.7955],[145.0214,-14.7907],[145.022,-14.7838],[145.0178,-14.7804],[145.0222,-14.7823]]]},"properties":{"id":"gbrmpa-zone-465","type":"Conservation Park Zone","zone":"Yellow Zone","color":"#e8c23f","name":"CP-14-4019","permit":"Starcke River mouth","source":"GBRMPA"}},{"type":"Feature","geometry":{"type":"Polygon","coordinates":[[[144.9976,-14.5394],[144.9944,-14.543],[144.9887,-14.543],[144.9861,-14.5414],[144.9877,-14.5399],[144.9963,-14.5402],[144.9939,-14.5385],[144.9961,-14.5364],[144.9976,-14.5394]]]},"properties":{"id":"gbrmpa-zone-665","type":"Commonwealth Islands Zone (GBRMPA)","zone":"Commonwealth Island Zone","color":"#b0b8bd","name":"Coquet Island (14097100)","permit":null,"source":"GBRMPA"}},{"type":"Feature","geometry":{"type":"Polygon","coordinates":[[[145.3337,-15.4959],[145.3337,-15.5125],[145.3172,-15.5125],[145.3172,-15.4959],[145.3337,-15.4959]],[[145.3239,-15.5023],[145.3252,-15.5027],[145.324,-15.5013],[145.3239,-15.5023]]]},"properties":{"id":"gbrmpa-zone-439","type":"Habitat Protection Zone","zone":"Dark Blue Zone","color":"#3f6fb0","name":"HP-15-5118","permit":"Dawson Reef (15-051)","source":"GBRMPA"}},{"type":"Feature","geometry":{"type":"Polygon","coordinates":[[[144.231,-13.8717],[144.2474,-13.9141],[144.2474,-13.9796],[144.1309,-14.0803],[144.0228,-14.0803],[143.9107,-14.0386],[144.06,-13.88],[144.07,-13.89],[144.17,-13.89],[144.18,-13.8717],[144.231,-13.8717]],[[143.9223,-14.0323],[143.9312,-14.0317],[143.9502,-14.0229],[143.9583,-14.0159],[143.9651,-14.0127],[143.9781,-14.0004],[143.9716,-14.0019],[143.9667,-14.0076],[143.9463,-14.0217],[143.9353,-14.0276],[143.924,-14.0304],[143.9223,-14.0323]],[[143.9949,-13.9821],[144.0009,-13.9767],[144.0053,-13.9703],[144.005,-13.9681],[144.0027,-13.9691],[143.9949,-13.9821]]]},"properties":{"id":"gbrmpa-zone-482","type":"Marine National Park Zone","zone":"Green Zone","color":"#2fae5a","name":"MNP-13-1019","permit":"Corbett Reef (14-016) and Grub Reef (14-003)","source":"GBRMPA"}},{"type":"Feature","geometry":{"type":"Polygon","coordinates":[[[144.517,-14.1297],[144.514,-14.1284],[144.5146,-14.1282],[144.517,-14.1297]]]},"properties":{"id":"gbrmpa-zone-751","type":"Commonwealth Islands Zone (GBRMPA)","zone":"Commonwealth Island Zone","color":"#b0b8bd","name":"U/N Island (14038105)","permit":null,"source":"GBRMPA"}},{"type":"Feature","geometry":{"type":"Polygon","coordinates":[[[145.3362,-15.6074],[145.3343,-15.6071],[145.3357,-15.6059],[145.3362,-15.6074]]]},"properties":{"id":"gbrmpa-zone-694","type":"Commonwealth Islands Zone (GBRMPA)","zone":"Commonwealth Island Zone","color":"#b0b8bd","name":"Rocky Island (15054100)","permit":null,"source":"GBRMPA"}},{"type":"Feature","geometry":{"type":"Polygon","coordinates":[[[145.3762,-15.7634],[145.3688,-15.7634],[145.3667,-15.7599],[145.3675,-15.749],[145.3654,-15.74],[145.3665,-15.7374],[145.3615,-15.7206],[145.3516,-15.7028],[145.3508,-15.698],[145.3459,-15.6951],[145.3386,-15.6839],[145.3356,-15.6831],[145.3334,-15.6751],[145.3347,-15.6715],[145.3322,-15.6671],[145.3335,-15.6633],[145.3308,-15.662],[145.343,-15.662],[145.345,-15.676],[145.363,-15.697],[145.372,-15.72],[145.377,-15.755],[145.3762,-15.7634]]]},"properties":{"id":"gbrmpa-zone-433","type":"Conservation Park Zone","zone":"Yellow Zone","color":"#e8c23f","name":"CP-15-4024","permit":"Forsberg Point to Obree Point","source":"GBRMPA"}},{"type":"Feature","geometry":{"type":"Polygon","coordinates":[[[145.4668,-15.7159],[145.476,-15.742],[145.4488,-15.764],[145.427,-15.764],[145.427,-15.716],[145.4668,-15.7159]],[[145.4426,-15.7507],[145.4439,-15.7542],[145.4462,-15.754],[145.4467,-15.7512],[145.4452,-15.7461],[145.4413,-15.7429],[145.4426,-15.7507]],[[145.4579,-15.731],[145.4593,-15.7294],[145.4579,-15.7291],[145.4579,-15.731]]]},"properties":{"id":"gbrmpa-zone-428","type":"Conservation Park Zone","zone":"Yellow Zone","color":"#e8c23f","name":"CP-15-4025","permit":"Hope Islands","source":"GBRMPA"}},{"type":"Feature","geometry":{"type":"Polygon","coordinates":[[[144.3248,-14.1125],[144.304,-14.1125],[144.304,-14.1041],[144.3289,-14.0791],[144.3456,-14.0791],[144.3456,-14.0958],[144.3414,-14.1041],[144.3248,-14.1125]],[[144.3203,-14.1108],[144.333,-14.106],[144.339,-14.102],[144.343,-14.094],[144.342,-14.087],[144.335,-14.084],[144.329,-14.084],[144.3201,-14.0915],[144.3145,-14.0994],[144.3072,-14.1058],[144.3072,-14.1077],[144.3137,-14.1108],[144.3203,-14.1108]]]},"properties":{"id":"gbrmpa-zone-474","type":"Buffer Zone","zone":"Olive Green Zone","color":"#94a84f","name":"B-14-3004","permit":"King Island Reef (14-018) surrounds","source":"GBRMPA"}},{"type":"Feature","geometry":{"type":"Polygon","coordinates":[[[145.49,-15.0473],[145.49,-15.13],[145.46,-15.13],[145.46,-15.252],[145.4,-15.252],[145.4,-15.0473],[145.49,-15.0473]],[[145.4244,-15.113],[145.4263,-15.1189],[145.4277,-15.1149],[145.4244,-15.113]],[[145.4195,-15.1134],[145.423,-15.1126],[145.418,-15.1102],[145.4179,-15.1125],[145.4195,-15.1134]]]},"properties":{"id":"gbrmpa-zone-457","type":"Marine National Park Zone","zone":"Green Zone","color":"#2fae5a","name":"MNP-15-1033","permit":"Three Islands Reef (15-005) and offshore Cape Bedford","source":"GBRMPA"}},{"type":"Feature","geometry":{"type":"Polygon","coordinates":[[[145.8883,-16.08],[145.87,-16.08],[145.85,-16.06],[145.7829,-16.06],[145.7829,-15.9467],[145.8158,-15.9121],[145.8343,-15.9121],[145.8883,-16.08]]]},"properties":{"id":"gbrmpa-zone-420","type":"Marine National Park Zone","zone":"Green Zone","color":"#2fae5a","name":"MNP-15-1046","permit":"Agincourt Reefs (15-096, 15-099a, b, c and d, 16-013 a, b and c)","source":"GBRMPA"}},{"type":"Feature","geometry":{"type":"Polygon","coordinates":[[[145.7715,-15.491],[145.8143,-15.491],[145.807,-15.5117],[145.785,-15.5329],[145.7715,-15.5329],[145.7715,-15.491]]]},"properties":{"id":"gbrmpa-zone-440","type":"Marine National Park Zone","zone":"Green Zone","color":"#2fae5a","name":"MNP-15-1039","permit":"Ribbon Reef No. 3 (15-050, 15-072 and 15-073)","source":"GBRMPA"}},{"type":"Feature","geometry":{"type":"Polygon","coordinates":[[[144.762,-14.484],[144.746,-14.484],[144.746,-14.468],[144.762,-14.468],[144.762,-14.484]]]},"properties":{"id":"gbrmpa-zone-583","type":"Habitat Protection Zone","zone":"Dark Blue Zone","color":"#3f6fb0","name":"HP-14-5102","permit":"Wooden Patch (14-069)","source":"GBRMPA"}},{"type":"Feature","geometry":{"type":"Polygon","coordinates":[[[145.28,-14.8583],[145.2664,-14.8583],[145.2664,-14.8458],[145.28,-14.846],[145.28,-14.8583]]]},"properties":{"id":"gbrmpa-zone-460","type":"Marine National Park Zone","zone":"Green Zone","color":"#2fae5a","name":"MNP-14-1032","permit":"Decapolis Reef (14-131)","source":"GBRMPA"}},{"type":"Feature","geometry":{"type":"Polygon","coordinates":[[[145.2081,-14.675],[145.1914,-14.675],[145.1914,-14.6625],[145.2081,-14.6625],[145.2081,-14.675]]]},"properties":{"id":"gbrmpa-zone-626","type":"Habitat Protection Zone","zone":"Dark Blue Zone","color":"#3f6fb0","name":"HP-14-5106","permit":"Gunga Shoal (14-117)","source":"GBRMPA"}},{"type":"Feature","geometry":{"type":"Polygon","coordinates":[[[145.338,-15.594],[145.338,-15.61],[145.328,-15.61],[145.328,-15.6481],[145.343,-15.662],[145.3308,-15.662],[145.3156,-15.6528],[145.3126,-15.6466],[145.3124,-15.6428],[145.3194,-15.6332],[145.318,-15.6234],[145.3143,-15.6128],[145.3166,-15.6063],[145.3203,-15.6072],[145.3193,-15.603],[145.3239,-15.6032],[145.3279,-15.6061],[145.3271,-15.6036],[145.3292,-15.6016],[145.327,-15.5993],[145.3294,-15.594],[145.338,-15.594]],[[145.3357,-15.6059],[145.3344,-15.6078],[145.3368,-15.6067],[145.3357,-15.6059]]]},"properties":{"id":"gbrmpa-zone-434","type":"Habitat Protection Zone","zone":"Dark Blue Zone","color":"#3f6fb0","name":"HP-15-5120","permit":"Archer Point/Walsh Bay coastal area","source":"GBRMPA"}},{"type":"Feature","geometry":{"type":"Polygon","coordinates":[[[144.5261,-14.1485],[144.6011,-14.2485],[144.6344,-14.3042],[144.647,-14.334],[144.6157,-14.334],[144.5961,-14.3653],[144.5889,-14.3635],[144.5862,-14.3594],[144.5852,-14.3535],[144.5866,-14.3304],[144.5882,-14.329],[144.5834,-14.3271],[144.5855,-14.3136],[144.5822,-14.3128],[144.5806,-14.3092],[144.5851,-14.2902],[144.5952,-14.2672],[144.5945,-14.2649],[144.5961,-14.2606],[144.5946,-14.259],[144.5917,-14.2592],[144.5899,-14.2552],[144.5826,-14.248],[144.5774,-14.2487],[144.5761,-14.2476],[144.575,-14.2435],[144.5778,-14.2349],[144.5743,-14.2353],[144.5663,-14.229],[144.558,-14.2288],[144.5529,-14.2154],[144.5445,-14.2098],[144.5384,-14.2004],[144.5358,-14.188],[144.5251,-14.1778],[144.5238,-14.17],[144.5162,-14.1668],[144.5075,-14.168],[144.5004,-14.1662],[144.5004,-14.1485],[144.5261,-14.1485]],[[144.5374,-14.1842],[144.5382,-14.1838],[144.5378,-14.1828],[144.5374,-14.1842]],[[144.5771,-14.2322],[144.5784,-14.232],[144.5773,-14.2314],[144.5771,-14.2322]]]},"properties":{"id":"gbrmpa-zone-597","type":"Marine National Park Zone","zone":"Green Zone","color":"#2fae5a","name":"MNP-14-1022","permit":"Cape Melville - Ninian Bay","source":"GBRMPA"}},{"type":"Feature","geometry":{"type":"Polygon","coordinates":[[[145.6548,-15.3686],[145.5909,-15.3897],[145.516,-15.3665],[145.516,-15.3376],[145.6548,-15.3376],[145.6548,-15.3686]]]},"properties":{"id":"gbrmpa-zone-448","type":"Preservation Zone","zone":"Pink Zone","color":"#e58fb0","name":"P-15-13","permit":"Williamson Reef (15-039)","source":"GBRMPA"}},{"type":"Feature","geometry":{"type":"Polygon","coordinates":[[[145.931,-15.3555],[145.9187,-15.3555],[145.9187,-15.1087],[146.0446,-15.1087],[146.1422,-15.3555],[145.931,-15.3555]]]},"properties":{"id":"gbrmpa-zone-454","type":"Marine National Park Zone","zone":"Green Zone","color":"#2fae5a","name":"MNP-15-1034","permit":"Offshore Ribbon Reef No. 6 - adjacent to Marine Park boundary","source":"GBRMPA"}},{"type":"Feature","geometry":{"type":"Polygon","coordinates":[[[144.2763,-14.0432],[144.2763,-14.0874],[144.2041,-14.0874],[144.2041,-14.0661],[144.2507,-14.0432],[144.2763,-14.0432]],[[144.2622,-14.0549],[144.2659,-14.057],[144.2647,-14.0593],[144.2658,-14.0594],[144.2684,-14.0545],[144.2676,-14.0511],[144.2615,-14.0508],[144.2622,-14.0549]],[[144.2558,-14.0736],[144.2579,-14.0737],[144.2578,-14.0725],[144.2543,-14.0706],[144.2532,-14.0715],[144.2558,-14.0736]],[[144.2549,-14.0754],[144.2538,-14.0768],[144.2565,-14.0781],[144.2549,-14.0754]]]},"properties":{"id":"gbrmpa-zone-477","type":"Marine National Park Zone","zone":"Green Zone","color":"#2fae5a","name":"MNP-14-1020","permit":"Clack Reef (14-017)","source":"GBRMPA"}},{"type":"Feature","geometry":{"type":"Polygon","coordinates":[[[145.5213,-14.734],[145.5213,-14.7524],[145.5004,-14.7524],[145.5004,-14.734],[145.5213,-14.734]],[[145.5073,-14.7446],[145.5144,-14.7467],[145.5156,-14.7456],[145.5145,-14.7432],[145.509,-14.7405],[145.5073,-14.7446]]]},"properties":{"id":"gbrmpa-zone-623","type":"Scientific Research Zone","zone":"Orange Zone","color":"#e0822e","name":"SR-14-2005","permit":"North Direction Island Reef (14-143)","source":"GBRMPA"}},{"type":"Feature","geometry":{"type":"Polygon","coordinates":[[[145.2914,-14.8208],[145.2789,-14.8208],[145.2789,-14.8083],[145.2914,-14.8083],[145.2914,-14.8208]]]},"properties":{"id":"gbrmpa-zone-463","type":"Habitat Protection Zone","zone":"Dark Blue Zone","color":"#3f6fb0","name":"HP-14-5111","permit":"Sim Reef (14-128)","source":"GBRMPA"}},{"type":"Feature","geometry":{"type":"Polygon","coordinates":[[[145.4506,-14.6469],[145.4505,-14.6557],[145.4543,-14.6615],[145.4509,-14.6655],[145.4486,-14.6649],[145.4446,-14.6675],[145.4425,-14.6717],[145.4461,-14.6747],[145.4484,-14.6817],[145.4619,-14.6794],[145.4625,-14.6822],[145.4655,-14.6814],[145.4715,-14.6867],[145.468,-14.6814],[145.4712,-14.6768],[145.4841,-14.676],[145.4841,-14.71],[145.43,-14.71],[145.43,-14.6658],[145.4361,-14.6469],[145.4506,-14.6469]],[[145.4466,-14.6897],[145.4417,-14.6917],[145.4446,-14.6961],[145.4505,-14.6942],[145.4501,-14.6908],[145.4466,-14.6897]],[[145.4536,-14.6993],[145.4515,-14.7008],[145.4517,-14.7033],[145.4582,-14.7044],[145.4566,-14.7002],[145.4536,-14.6993]],[[145.4653,-14.6924],[145.4677,-14.6918],[145.4657,-14.6915],[145.4653,-14.6924]],[[145.4429,-14.6664],[145.4442,-14.6668],[145.4436,-14.666],[145.4429,-14.6664]],[[145.4427,-14.6665],[145.4426,-14.6666],[145.4427,-14.6666],[145.4427,-14.6665]]]},"properties":{"id":"gbrmpa-zone-629","type":"Scientific Research Zone","zone":"Orange Zone","color":"#e0822e","name":"SR-14-2004","permit":"Lizard Island Reef (14-116a, c and d): including Palfrey, South and Seabird Islands","source":"GBRMPA"}},{"type":"Feature","geometry":{"type":"Polygon","coordinates":[[[145.456,-15.4999],[145.456,-15.5553],[145.4702,-15.5553],[145.4702,-15.5999],[145.4201,-15.5999],[145.4201,-15.6299],[145.388,-15.6299],[145.388,-15.4999],[145.456,-15.4999]]]},"properties":{"id":"gbrmpa-zone-437","type":"Marine National Park Zone","zone":"Green Zone","color":"#2fae5a","name":"MNP-15-1040","permit":"Offshore Archer Point","source":"GBRMPA"}},{"type":"Feature","geometry":{"type":"Polygon","coordinates":[[[144.5415,-14.1047],[144.5414,-14.1291],[144.5373,-14.1333],[144.5123,-14.1333],[144.5068,-14.1278],[144.5066,-14.118],[144.523,-14.1045],[144.5415,-14.1047]],[[144.5253,-14.1207],[144.5296,-14.1184],[144.5304,-14.1198],[144.5285,-14.12],[144.5282,-14.1216],[144.5315,-14.1246],[144.5329,-14.1224],[144.5324,-14.1175],[144.5258,-14.1117],[144.5238,-14.119],[144.5253,-14.1207]],[[144.5146,-14.1219],[144.5135,-14.1219],[144.5131,-14.1225],[144.5146,-14.1219]],[[144.517,-14.1297],[144.5146,-14.1282],[144.514,-14.1284],[144.517,-14.1297]]]},"properties":{"id":"gbrmpa-zone-600","type":"Habitat Protection Zone","zone":"Dark Blue Zone","color":"#3f6fb0","name":"HP-14-5095","permit":"Pipon Island Reef (14-038)","source":"GBRMPA"}},{"type":"Feature","geometry":{"type":"Polygon","coordinates":[[[144.8241,-14.4195],[144.8241,-14.4433],[144.7987,-14.4433],[144.7987,-14.4195],[144.8241,-14.4195]],[[144.8085,-14.4379],[144.8123,-14.4385],[144.8154,-14.4364],[144.8136,-14.4343],[144.8168,-14.4349],[144.8186,-14.4302],[144.8165,-14.4255],[144.8085,-14.4279],[144.8042,-14.4329],[144.8085,-14.4379]]]},"properties":{"id":"gbrmpa-zone-586","type":"Habitat Protection Zone","zone":"Dark Blue Zone","color":"#3f6fb0","name":"HP-14-5100","permit":"Bewick Island Reef (14-065)","source":"GBRMPA"}},{"type":"Feature","geometry":{"type":"Polygon","coordinates":[[[144.8486,-14.5188],[144.8486,-14.5257],[144.8412,-14.523],[144.8412,-14.5188],[144.8486,-14.5188]],[[144.8447,-14.5217],[144.8452,-14.5212],[144.844,-14.5207],[144.8447,-14.5217]]]},"properties":{"id":"gbrmpa-zone-637","type":"Habitat Protection Zone","zone":"Dark Blue Zone","color":"#3f6fb0","name":"HP-14-5104","permit":"Sand Islet Reef (14-093)","source":"GBRMPA"}},{"type":"Feature","geometry":{"type":"Polygon","coordinates":[[[144.1952,-14.2662],[144.1981,-14.2672],[144.1964,-14.274],[144.2005,-14.2757],[144.1973,-14.2919],[144.201,-14.2954],[144.2018,-14.3011],[144.1998,-14.3061],[144.1983,-14.3226],[144.1941,-14.3355],[144.1945,-14.3382],[144.1969,-14.3397],[144.1936,-14.3391],[144.1837,-14.3548],[144.1698,-14.3724],[144.1678,-14.3769],[144.1689,-14.3808],[144.1577,-14.3847],[144.1504,-14.3899],[144.147,-14.3957],[144.1474,-14.3999],[144.1448,-14.4055],[144.1418,-14.4056],[144.1401,-14.4028],[144.1369,-14.4014],[144.1309,-14.4022],[144.1237,-14.4088],[144.1057,-14.4354],[144.0949,-14.445],[144.0597,-14.4659],[144.0371,-14.474],[144.0318,-14.4808],[144.0137,-14.4814],[143.9824,-14.4885],[143.9601,-14.485],[143.9468,-14.4961],[143.9406,-14.4947],[143.9365,-14.487],[143.9305,-14.4835],[143.8943,-14.4842],[143.8725,-14.4783],[143.8456,-14.4627],[143.8035,-14.4293],[143.7814,-14.4014],[143.7574,-14.3616],[143.7437,-14.3299],[143.7365,-14.2991],[143.7384,-14.2987],[143.9115,-14.4488],[144.0379,-14.4488],[144.0379,-14.3251],[144.1198,-14.359],[144.196,-14.2479],[144.196,-14.2607],[144.1932,-14.265],[144.1952,-14.2662]]]},"properties":{"id":"gbrmpa-zone-595","type":"Habitat Protection Zone","zone":"Dark Blue Zone","color":"#3f6fb0","name":"HP-14-5097","permit":"Princess Charlotte Bay coastal area","source":"GBRMPA"}},{"type":"Feature","geometry":{"type":"Polygon","coordinates":[[[145.6316,-15.7678],[145.6343,-15.7725],[145.6332,-15.7913],[145.6475,-15.8264],[145.6475,-15.84],[145.5,-15.84],[145.5,-15.7898],[145.5338,-15.7898],[145.5326,-15.7746],[145.5382,-15.7631],[145.5501,-15.7631],[145.5598,-15.7685],[145.5752,-15.7685],[145.5846,-15.7636],[145.6004,-15.7623],[145.6316,-15.7678]]]},"properties":{"id":"gbrmpa-zone-426","type":"Marine National Park Zone","zone":"Green Zone","color":"#2fae5a","name":"MNP-15-1044","permit":"Endeavour Reef (15-089)","source":"GBRMPA"}},{"type":"Feature","geometry":{"type":"Polygon","coordinates":[[[145.7575,-15.3016],[145.7357,-15.3016],[145.7357,-15.2635],[145.7454,-15.252],[145.7479,-15.2565],[145.7558,-15.2597],[145.7598,-15.2738],[145.7596,-15.2803],[145.7628,-15.2929],[145.7575,-15.3016]]]},"properties":{"id":"gbrmpa-zone-449","type":"Preservation Zone","zone":"Pink Zone","color":"#e58fb0","name":"P-15-12","permit":"Ribbon Reef No. 6 (15-032)","source":"GBRMPA"}},{"type":"Feature","geometry":{"type":"Polygon","coordinates":[[[145.6573,-15.7911],[145.6485,-15.75],[145.5831,-15.75],[145.5831,-15.6656],[145.7532,-15.6656],[145.7532,-15.7912],[145.6573,-15.7911]]]},"properties":{"id":"gbrmpa-zone-432","type":"Marine National Park Zone","zone":"Green Zone","color":"#2fae5a","name":"MNP-15-1042","permit":"Endeavour Reef (15-089)/Irene Reef (15-084) inter-reefal area","source":"GBRMPA"}},{"type":"Feature","geometry":{"type":"Polygon","coordinates":[[[145.4,-15.0875],[145.4,-15.1041],[145.3665,-15.1041],[145.3665,-15.0875],[145.4,-15.0875]],[[145.3732,-15.0908],[145.379,-15.0967],[145.3835,-15.0961],[145.3849,-15.0942],[145.3836,-15.0923],[145.3732,-15.0908]],[[145.3716,-15.0909],[145.3725,-15.0912],[145.3725,-15.0898],[145.3716,-15.0909]]]},"properties":{"id":"gbrmpa-zone-455","type":"Habitat Protection Zone","zone":"Dark Blue Zone","color":"#3f6fb0","name":"HP-15-5114","permit":"Low Wooded Isle Reef (15-003)","source":"GBRMPA"}},{"type":"Feature","geometry":{"type":"Polygon","coordinates":[[[145.2667,-14.7267],[145.2667,-14.7067],[145.2867,-14.7067],[145.2867,-14.7267],[145.2667,-14.7267]]]},"properties":{"id":"gbrmpa-zone-624","type":"Habitat Protection Zone","zone":"Dark Blue Zone","color":"#3f6fb0","name":"HP-14-5108","permit":"Crompton Shoals (14-121)","source":"GBRMPA"}},{"type":"Feature","geometry":{"type":"Polygon","coordinates":[[[144.9797,-14.4877],[145.004,-14.5],[145.004,-14.55],[144.9831,-14.55],[144.9604,-14.5328],[144.9471,-14.5101],[144.9435,-14.5],[144.9435,-14.4877],[144.9797,-14.4877]],[[144.9727,-14.496],[144.9588,-14.498],[144.958,-14.5004],[144.954,-14.499],[144.9504,-14.5001],[144.9532,-14.501],[144.9541,-14.504],[144.9576,-14.5062],[144.9556,-14.5031],[144.9577,-14.5031],[144.9668,-14.5085],[144.9715,-14.5099],[144.9721,-14.5086],[144.9794,-14.5127],[144.9804,-14.5112],[144.9829,-14.5122],[144.9897,-14.5099],[144.9883,-14.5063],[144.99,-14.5056],[144.9893,-14.5014],[144.9835,-14.4982],[144.984,-14.4968],[144.9806,-14.4936],[144.9754,-14.4933],[144.9727,-14.496]],[[144.9796,-14.5222],[144.9649,-14.5241],[144.9693,-14.5272],[144.9758,-14.5278],[144.9807,-14.5248],[144.9813,-14.5232],[144.9796,-14.5222]],[[144.9965,-14.5395],[144.9877,-14.5399],[144.9861,-14.5414],[144.9887,-14.543],[144.9944,-14.543],[144.9977,-14.5385],[144.9961,-14.5364],[144.994,-14.5381],[144.9965,-14.5395]]]},"properties":{"id":"gbrmpa-zone-581","type":"Conservation Park Zone","zone":"Yellow Zone","color":"#e8c23f","name":"CP-14-4016","permit":"Howick Group","source":"GBRMPA"}},{"type":"Feature","geometry":{"type":"Polygon","coordinates":[[[145.451,-14.6396],[145.451,-14.6468],[145.4361,-14.6469],[145.43,-14.6658],[145.43,-14.71],[145.4841,-14.71],[145.4841,-14.676],[145.5004,-14.676],[145.5004,-14.875],[145.46,-14.875],[145.46,-14.9769],[145.4,-14.9769],[145.33,-14.8],[145.3539,-14.8],[145.3902,-14.7498],[145.3799,-14.7399],[145.33,-14.74],[145.24,-14.67],[145.24,-14.6292],[145.451,-14.6292],[145.451,-14.6396]],[[145.2548,-14.6497],[145.2496,-14.6507],[145.2485,-14.6528],[145.2494,-14.6565],[145.2518,-14.6542],[145.2555,-14.6536],[145.2551,-14.6567],[145.2485,-14.657],[145.2486,-14.6593],[145.2498,-14.6592],[145.249,-14.6576],[145.253,-14.6587],[145.2569,-14.6561],[145.257,-14.6531],[145.2548,-14.6497]],[[145.4788,-14.8603],[145.4802,-14.8593],[145.4773,-14.8559],[145.4747,-14.8567],[145.4788,-14.8603]],[[145.3713,-14.7146],[145.374,-14.7131],[145.3736,-14.7115],[145.3713,-14.7146]],[[145.3747,-14.7103],[145.3769,-14.7088],[145.3765,-14.7068],[145.3747,-14.7103]],[[145.3678,-14.72],[145.3699,-14.7188],[145.3706,-14.7167],[145.3678,-14.72]],[[145.3649,-14.723],[145.3666,-14.723],[145.3673,-14.7212],[145.3649,-14.723]],[[145.376,-14.6975],[145.3771,-14.6974],[145.379,-14.6958],[145.376,-14.6975]],[[145.49,-14.852],[145.4911,-14.8524],[145.4904,-14.8504],[145.49,-14.852]]]},"properties":{"id":"gbrmpa-zone-632","type":"Marine National Park Zone","zone":"Green Zone","color":"#2fae5a","name":"MNP-14-1029","permit":"Nymph Reef (14-115), Eyrie Reef (14-118) and Rocky Islets Reef (14-132a) and surrounds","source":"GBRMPA"}},{"type":"Feature","geometry":{"type":"Polygon","coordinates":[[[145.3038,-13.6081],[145.654,-14.3088],[145.5188,-14.4627],[145.5099,-14.4851],[145.5087,-14.4976],[145.5276,-14.5194],[145.5368,-14.5243],[145.5591,-14.5273],[145.5667,-14.5476],[145.58,-14.5664],[145.5985,-14.5831],[145.6129,-14.6262],[145.6418,-14.6832],[145.6801,-14.7492],[145.6801,-14.9063],[145.6688,-14.9063],[145.6688,-14.972],[145.6916,-14.972],[145.7023,-14.9522],[145.7295,-14.9522],[145.7295,-15.0236],[145.75,-15.0236],[145.75,-15.19],[145.73,-15.19],[145.58,-15.26],[145.5,-15.26],[145.5,-15.3897],[145.5909,-15.3897],[145.6548,-15.3686],[145.7844,-15.3306],[145.9187,-15.3306],[145.9187,-15.3555],[146.1422,-15.3555],[146.2684,-15.6734],[146.1513,-15.6734],[146.3263,-16.0793],[146.4301,-16.0793],[146.5092,-16.2775],[146.2188,-16.2775],[146.2188,-16.3771],[146.1743,-16.3771],[145.9808,-16.08],[145.9598,-16.08],[145.9598,-15.9121],[145.8158,-15.9121],[145.7829,-15.9467],[145.7829,-16.06],[145.85,-16.06],[145.87,-16.08],[145.88,-16.08],[145.88,-16.1542],[145.8871,-16.164],[145.8055,-16.2793],[145.8522,-16.3102],[145.9261,-16.3102],[145.9504,-16.3296],[145.86,-16.42],[145.86,-16.46],[145.84,-16.48],[145.7235,-16.48],[145.6802,-16.4532],[145.6674,-16.4532],[145.6674,-16.354],[145.6412,-16.3023],[145.61,-16.1665],[145.61,-15.84],[145.6475,-15.84],[145.6475,-15.7911],[145.7532,-15.7912],[145.7532,-15.6656],[145.5831,-15.6656],[145.5831,-15.75],[145.5,-15.75],[145.5,-15.7129],[145.4243,-15.6501],[145.4202,-15.6353],[145.4201,-15.5999],[145.4702,-15.5999],[145.4702,-15.5553],[145.456,-15.5553],[145.456,-15.38],[145.46,-15.38],[145.46,-15.13],[145.49,-15.13],[145.49,-15.0473],[145.46,-15.0473],[145.46,-14.875],[145.5004,-14.875],[145.5004,-14.839],[145.5331,-14.839],[145.5331,-14.802],[145.5004,-14.802],[145.5004,-14.7524],[145.5213,-14.7524],[145.5213,-14.734],[145.5004,-14.734],[145.5004,-14.676],[145.4841,-14.676],[145.4841,-14.6626],[145.4578,-14.6396],[145.451,-14.6396],[145.451,-14.6292],[145.24,-14.6292],[145.004,-14.55],[145.004,-14.5],[144.9797,-14.4877],[144.9435,-14.4877],[144.9435,-14.4808],[144.9279,-14.4616],[144.9001,-14.4421],[144.8902,-14.4421],[144.8788,-14.4363],[144.8676,-14.4225],[144.7934,-14.4],[144.7934,-14.3371],[144.8328,-14.297],[144.8328,-14.238],[144.9727,-14.238],[144.9727,-14.1706],[145.1154,-14.1706],[145.1154,-13.8],[144.5499,-13.8],[144.5499,-13.9216],[144.5474,-13.925],[144.5474,-14],[144.43,-14],[144.43,-13.97],[144.37,-13.97],[144.37,-13.96],[144.3438,-13.96],[144.334,-13.9497],[144.334,-13.9202],[144.28,-13.9],[144.2671,-13.8583],[144.2671,-13.8443],[144.3239,-13.8443],[144.3239,-13.7958],[144.2671,-13.7958],[144.2671,-13.8106],[144.2,-13.71],[144.19,-13.71],[144.14,-13.68],[144.14,-13.65],[144.0914,-13.65],[144.08,-13.6322],[144.08,-13.57],[144.0432,-13.5148],[144.0798,-13.4834],[144.0798,-13.45],[144.36,-13.45],[144.36,-13.3084],[145.1548,-13.3084],[145.3038,-13.6081]],[[145.75,-15.491],[145.75,-15.5888],[145.837,-15.5888],[145.837,-15.491],[145.75,-15.491]],[[144.9051,-14.4116],[144.9216,-14.432],[144.9632,-14.4443],[144.978,-14.4443],[144.9894,-14.4367],[144.9962,-14.4281],[144.995,-14.4133],[144.9907,-14.4057],[144.98,-14.3983],[144.9686,-14.3983],[144.9466,-14.395],[144.9414,-14.3917],[144.9279,-14.3898],[144.9071,-14.3898],[144.901,-14.3926],[144.8956,-14.3992],[144.8955,-14.4055],[144.9051,-14.4116]],[[145.3786,-14.4427],[145.3786,-14.4761],[145.44,-14.4761],[145.44,-14.4107],[145.4141,-14.4107],[145.3786,-14.4391],[145.3786,-14.4427]],[[144.8412,-14.3038],[144.8412,-14.3377],[144.8761,-14.3377],[144.8761,-14.3038],[144.8412,-14.3038]],[[145.7585,-15.4056],[145.7585,-15.4148],[145.7793,-15.4147],[145.7793,-15.4009],[145.7674,-15.3837],[145.7585,-15.3837],[145.7585,-15.4056]],[[145.4831,-14.645],[145.4831,-14.6583],[145.4998,-14.6583],[145.4998,-14.645],[145.4831,-14.645]],[[144.44,-13.9785],[144.4442,-13.9762],[144.4448,-13.9741],[144.4423,-13.9739],[144.44,-13.9785]],[[144.882,-14.4151],[144.8796,-14.4157],[144.8792,-14.4183],[144.8813,-14.4179],[144.882,-14.4151]],[[145.6387,-16.1125],[145.6406,-16.112],[145.6393,-16.1107],[145.636,-16.1114],[145.6387,-16.1125]],[[144.0988,-13.6256],[144.1015,-13.6228],[144.0986,-13.624],[144.0988,-13.6256]],[[144.504,-13.9816],[144.5067,-13.9792],[144.5052,-13.979],[144.504,-13.9816]],[[144.8884,-14.4339],[144.8875,-14.4323],[144.8828,-14.4304],[144.8884,-14.4339]],[[145.6432,-16.048],[145.6458,-16.0472],[145.6464,-16.0454],[145.6432,-16.048]],[[144.2672,-13.7747],[144.2682,-13.7739],[144.2672,-13.7714],[144.2672,-13.7747]],[[145.4747,-14.8943],[145.4769,-14.8935],[145.4772,-14.892],[145.4747,-14.8943]],[[145.6341,-15.6179],[145.6376,-15.6179],[145.6352,-15.617],[145.6341,-15.6179]],[[144.2128,-13.7169],[144.2145,-13.7161],[144.2139,-13.7142],[144.2128,-13.7169]],[[145.5295,-15.5117],[145.5275,-15.5106],[145.5281,-15.5119],[145.5295,-15.5117]],[[145.6883,-15.1381],[145.6896,-15.1383],[145.6903,-15.1371],[145.6883,-15.1381]],[[145.5329,-15.2436],[145.5346,-15.2438],[145.5336,-15.2428],[145.5329,-15.2436]],[[145.5835,-14.7805],[145.5843,-14.7807],[145.584,-14.7789],[145.5835,-14.7805]],[[144.9532,-14.4776],[144.9546,-14.4771],[144.9532,-14.4769],[144.9532,-14.4776]],[[144.9549,-14.3199],[144.9554,-14.3204],[144.956,-14.3187],[144.9549,-14.3199]],[[144.8915,-14.435],[144.8893,-14.4339],[144.8903,-14.4349],[144.8915,-14.435]],[[145.5682,-15.0041],[145.5696,-15.0038],[145.569,-15.0035],[145.5682,-15.0041]],[[144.881,-14.4286],[144.8806,-14.4291],[144.8818,-14.4298],[144.881,-14.4286]],[[144.8944,-14.4361],[144.8923,-14.4349],[144.8926,-14.4357],[144.8944,-14.4361]],[[145.5587,-14.8789],[145.559,-14.8794],[145.5597,-14.8785],[145.5587,-14.8789]],[[145.5285,-15.0445],[145.5291,-15.045],[145.5295,-15.044],[145.5285,-15.0445]]]},"properties":{"id":"gbrmpa-zone-532","type":"Habitat Protection Zone","zone":"Dark Blue Zone","color":"#3f6fb0","name":"HP-13-5080","permit":"Port Stewart to Port Douglas mid-shelf and offshore areas","source":"GBRMPA"}},{"type":"Feature","geometry":{"type":"Polygon","coordinates":[[[145.3979,-15.4999],[145.388,-15.4999],[145.388,-15.38],[145.456,-15.38],[145.456,-15.4999],[145.3979,-15.4999]]]},"properties":{"id":"gbrmpa-zone-446","type":"Conservation Park Zone","zone":"Yellow Zone","color":"#e8c23f","name":"CP-15-4022","permit":"Boulder Reef (15-012) and Egret Reef (15-013)","source":"GBRMPA"}},{"type":"Feature","geometry":{"type":"Polygon","coordinates":[[[145.5975,-14.5818],[145.58,-14.5664],[145.5667,-14.5476],[145.5591,-14.5273],[145.5901,-14.498],[145.6371,-14.5512],[145.5975,-14.5818]]]},"properties":{"id":"gbrmpa-zone-638","type":"Preservation Zone","zone":"Pink Zone","color":"#e58fb0","name":"P-14-10","permit":"Carter Reef (14-137)","source":"GBRMPA"}},{"type":"Feature","geometry":{"type":"Polygon","coordinates":[[[144.9466,-14.395],[144.9686,-14.3983],[144.98,-14.3983],[144.9907,-14.4057],[144.995,-14.4133],[144.9962,-14.4281],[144.9894,-14.4367],[144.978,-14.4443],[144.9632,-14.4443],[144.9216,-14.432],[144.9051,-14.4116],[144.8955,-14.4055],[144.8956,-14.3992],[144.901,-14.3926],[144.9071,-14.3898],[144.9279,-14.3898],[144.9414,-14.3917],[144.9466,-14.395]],[[144.901,-14.4002],[144.9028,-14.4006],[144.9038,-14.3999],[144.901,-14.4002]]]},"properties":{"id":"gbrmpa-zone-589","type":"Marine National Park Zone","zone":"Green Zone","color":"#2fae5a","name":"MNP-14-1026","permit":"Combe Reef (14-063)","source":"GBRMPA"}},{"type":"Feature","geometry":{"type":"Polygon","coordinates":[[[145.3357,-15.2208],[145.3294,-15.2083],[145.3498,-15.2083],[145.3498,-15.2208],[145.3357,-15.2208]]]},"properties":{"id":"gbrmpa-zone-451","type":"Habitat Protection Zone","zone":"Dark Blue Zone","color":"#3f6fb0","name":"HP-15-5116","permit":"Petty Patch (15-011)","source":"GBRMPA"}},{"type":"Feature","geometry":{"type":"Polygon","coordinates":[[[145.44,-14.4112],[145.44,-14.4761],[145.3786,-14.4761],[145.3786,-14.4391],[145.3838,-14.4349],[145.3838,-14.4717],[145.42,-14.4717],[145.432,-14.448],[145.432,-14.4174],[145.4058,-14.4174],[145.4141,-14.4107],[145.44,-14.4112]]]},"properties":{"id":"gbrmpa-zone-588","type":"Marine National Park Zone","zone":"Green Zone","color":"#2fae5a","name":"MNP-14-1027","permit":"Hilder Reef (14-085) surrounds","source":"GBRMPA"}},{"type":"Feature","geometry":{"type":"Polygon","coordinates":[[[145.7793,-15.4056],[145.7585,-15.4056],[145.7585,-15.3837],[145.7674,-15.3837],[145.7793,-15.4009],[145.7793,-15.4056]]]},"properties":{"id":"gbrmpa-zone-445","type":"Marine National Park Zone","zone":"Green Zone","color":"#2fae5a","name":"MNP-15-1037","permit":"Ribbon Reef No. 5 patches north (unnamed reefs 15-040 and 15-041)","source":"GBRMPA"}},{"type":"Feature","geometry":{"type":"Polygon","coordinates":[[[145.4578,-14.6396],[145.4841,-14.6626],[145.4841,-14.676],[145.4756,-14.6759],[145.4776,-14.6699],[145.4769,-14.6671],[145.4734,-14.6644],[145.4741,-14.6611],[145.4699,-14.6598],[145.4671,-14.6549],[145.4581,-14.6476],[145.4546,-14.6462],[145.4531,-14.6484],[145.451,-14.6468],[145.451,-14.6396],[145.4578,-14.6396]]]},"properties":{"id":"gbrmpa-zone-631","type":"Conservation Park Zone","zone":"Yellow Zone","color":"#e8c23f","name":"CP-14-4018","permit":"Lizard Island Reef (14-116b): Mermaid Bay to Pigeon Point","source":"GBRMPA"}},{"type":"Feature","geometry":{"type":"Polygon","coordinates":[[[145.1133,-14.7279],[145.1132,-14.7479],[145.0729,-14.7478],[145.0729,-14.692],[145.1133,-14.7279]],[[145.0834,-14.7367],[145.0849,-14.7368],[145.0842,-14.7357],[145.0834,-14.7367]],[[145.1001,-14.7315],[145.1011,-14.7318],[145.1014,-14.7311],[145.1001,-14.7315]]]},"properties":{"id":"gbrmpa-zone-625","type":"Habitat Protection Zone","zone":"Dark Blue Zone","color":"#3f6fb0","name":"HP-14-5107","permit":"Pethebridge Islets Reefs (14-122a and b)","source":"GBRMPA"}},{"type":"Feature","geometry":{"type":"Polygon","coordinates":[[[145.2246,-14.8483],[145.3,-14.944],[145.3,-14.9628],[145.2915,-14.9626],[145.2817,-14.9551],[145.2726,-14.9371],[145.2662,-14.9316],[145.2645,-14.9271],[145.2476,-14.9144],[145.2429,-14.909],[145.2405,-14.9023],[145.2422,-14.9013],[145.2382,-14.9003],[145.2317,-14.892],[145.22,-14.8832],[145.2183,-14.868],[145.2246,-14.8483]]]},"properties":{"id":"gbrmpa-zone-459","type":"Habitat Protection Zone","zone":"Dark Blue Zone","color":"#3f6fb0","name":"HP-14-5112","permit":"Flattery Harbour coastal area","source":"GBRMPA"}},{"type":"Feature","geometry":{"type":"Polygon","coordinates":[[[145.5343,-14.523],[145.5276,-14.5194],[145.5087,-14.4976],[145.5099,-14.4851],[145.5146,-14.4731],[145.5209,-14.4695],[145.535,-14.4701],[145.565,-14.506],[145.566,-14.5159],[145.5582,-14.5216],[145.5343,-14.523]]]},"properties":{"id":"gbrmpa-zone-582","type":"Scientific Research Zone","zone":"Orange Zone","color":"#e0822e","name":"SR-14-2001","permit":"Day Reef (14-089)","source":"GBRMPA"}},{"type":"Feature","geometry":{"type":"Polygon","coordinates":[[[145.6165,-14.6156],[145.6099,-14.6174],[145.604,-14.5997],[145.6234,-14.5997],[145.6261,-14.6132],[145.6254,-14.6194],[145.6227,-14.619],[145.6198,-14.6158],[145.6165,-14.6156]]]},"properties":{"id":"gbrmpa-zone-634","type":"Conservation Park Zone","zone":"Yellow Zone","color":"#e8c23f","name":"CP-14-4017","permit":"Yonge Reef (14-138) - lee side","source":"GBRMPA"}},{"type":"Feature","geometry":{"type":"Polygon","coordinates":[[[144.8426,-14.6057],[144.8108,-14.5899],[144.8032,-14.5911],[144.788,-14.5857],[144.7877,-14.5554],[144.781,-14.5405],[144.7512,-14.5399],[144.7461,-14.5455],[144.7301,-14.548],[144.7152,-14.5472],[144.7082,-14.5506],[144.6871,-14.5438],[144.6801,-14.5233],[144.6716,-14.5053],[144.6437,-14.4615],[144.6437,-14.4519],[144.7691,-14.5138],[144.8657,-14.5535],[144.9174,-14.5878],[144.9167,-14.6054],[144.8822,-14.6026],[144.8426,-14.6057]]]},"properties":{"id":"gbrmpa-zone-585","type":"Preservation Zone","zone":"Pink Zone","color":"#e58fb0","name":"P-14-9","permit":"Wakooka Creek to Dead Dog Creek","source":"GBRMPA"}},{"type":"Feature","geometry":{"type":"Polygon","coordinates":[[[145.1873,-14.6666],[145.1706,-14.6666],[145.1706,-14.6541],[145.1873,-14.6541],[145.1873,-14.6666]]]},"properties":{"id":"gbrmpa-zone-628","type":"Habitat Protection Zone","zone":"Dark Blue Zone","color":"#3f6fb0","name":"HP-14-5105","permit":"Covered Reef (14-111)","source":"GBRMPA"}},{"type":"Feature","geometry":{"type":"Polygon","coordinates":[[[145.3579,-15.5268],[145.3579,-15.5423],[145.3533,-15.5423],[145.3468,-15.5368],[145.3468,-15.5268],[145.3579,-15.5268]],[[145.3515,-15.5309],[145.3517,-15.5298],[145.3503,-15.5288],[145.3515,-15.5309]]]},"properties":{"id":"gbrmpa-zone-436","type":"Habitat Protection Zone","zone":"Dark Blue Zone","color":"#3f6fb0","name":"HP-15-5119","permit":"Cowlishaw Reef (15-052)","source":"GBRMPA"}},{"type":"Feature","geometry":{"type":"Polygon","coordinates":[[[145.5193,-14.8201],[145.5291,-14.8232],[145.5313,-14.8276],[145.5258,-14.8299],[145.5169,-14.8242],[145.5193,-14.8201]],[[145.5205,-14.8246],[145.5248,-14.8282],[145.5294,-14.8271],[145.5284,-14.8239],[145.5207,-14.8215],[145.518,-14.8241],[145.5205,-14.8246]]]},"properties":{"id":"gbrmpa-zone-462","type":"Marine National Park Zone","zone":"Green Zone","color":"#2fae5a","name":"MNP-14-1031","permit":"South Direction Island Reef (14-147a and b)","source":"GBRMPA"}},{"type":"Feature","geometry":{"type":"Polygon","coordinates":[[[145.3902,-14.7498],[145.3539,-14.8],[145.33,-14.8],[145.33,-14.74],[145.3799,-14.7399],[145.3902,-14.7498]],[[145.3573,-14.756],[145.3608,-14.7563],[145.358,-14.7551],[145.3573,-14.756]],[[145.3402,-14.7805],[145.3413,-14.7802],[145.3391,-14.7787],[145.3402,-14.7805]],[[145.3452,-14.7544],[145.348,-14.7553],[145.3457,-14.7533],[145.3452,-14.7544]],[[145.3386,-14.7555],[145.3377,-14.7546],[145.3361,-14.7553],[145.3386,-14.7555]],[[145.3514,-14.755],[145.3539,-14.7559],[145.3515,-14.7539],[145.3514,-14.755]]]},"properties":{"id":"gbrmpa-zone-622","type":"Habitat Protection Zone","zone":"Dark Blue Zone","color":"#3f6fb0","name":"HP-14-5109","permit":"Martin Reef (14-123) and Linnet Reef (14-126)","source":"GBRMPA"}},{"type":"Feature","geometry":{"type":"Polygon","coordinates":[[[145.3331,-15.1292],[145.3331,-15.1458],[145.2986,-15.1458],[145.2903,-15.1292],[145.3331,-15.1292]]]},"properties":{"id":"gbrmpa-zone-453","type":"Habitat Protection Zone","zone":"Dark Blue Zone","color":"#3f6fb0","name":"HP-15-5115","permit":"Conical Rock Reef (15-006)","source":"GBRMPA"}},{"type":"Feature","geometry":{"type":"Polygon","coordinates":[[[144.9273,-14.4948],[144.9273,-14.5162],[144.9014,-14.5162],[144.9014,-14.4948],[144.9273,-14.4948]],[[144.9144,-14.5031],[144.9101,-14.5037],[144.9128,-14.5091],[144.9171,-14.5096],[144.9192,-14.5055],[144.9144,-14.5031]]]},"properties":{"id":"gbrmpa-zone-639","type":"Habitat Protection Zone","zone":"Dark Blue Zone","color":"#3f6fb0","name":"HP-14-5103","permit":"Newton Island Reef (14-099)","source":"GBRMPA"}},{"type":"Feature","geometry":{"type":"Polygon","coordinates":[[[145.287,-15.3786],[145.283,-15.4909],[145.2823,-15.4941],[145.2775,-15.4954],[145.274,-15.4886],[145.2713,-15.4734],[145.2679,-15.4717],[145.2643,-15.4727],[145.2633,-15.466],[145.2614,-15.4643],[145.2623,-15.462],[145.2593,-15.459],[145.2547,-15.4575],[145.2493,-15.4596],[145.2418,-15.4601],[145.239,-15.4498],[145.2392,-15.4435],[145.2505,-15.4134],[145.2717,-15.389],[145.2765,-15.3844],[145.2825,-15.3826],[145.287,-15.3786]]]},"properties":{"id":"gbrmpa-zone-447","type":"Conservation Park Zone","zone":"Yellow Zone","color":"#e8c23f","name":"CP-15-4021","permit":"Endeavour River mouth","source":"GBRMPA"}},{"type":"Feature","geometry":{"type":"Polygon","coordinates":[[[144.662,-14.366],[144.662,-14.378],[144.6418,-14.4001],[144.6418,-14.4379],[144.7113,-14.4713],[144.766,-14.4951],[144.9117,-14.5491],[145.0729,-14.692],[145.0729,-14.7478],[145.1132,-14.7479],[145.1133,-14.7279],[145.2096,-14.6926],[145.2168,-14.6956],[145.2168,-14.7675],[145.2313,-14.8336],[145.2307,-14.8321],[145.2241,-14.8304],[145.2218,-14.8368],[145.2196,-14.8374],[145.192,-14.8371],[145.1784,-14.8433],[145.1736,-14.8424],[145.1694,-14.8388],[145.158,-14.8369],[145.1517,-14.8335],[145.1489,-14.8357],[145.1439,-14.8327],[145.1374,-14.8337],[145.1207,-14.826],[145.1168,-14.8279],[145.1176,-14.8263],[145.106,-14.8196],[145.0983,-14.8093],[145.09,-14.803],[145.085,-14.8047],[145.0797,-14.8041],[145.0743,-14.7993],[145.0671,-14.7977],[145.055,-14.8018],[145.0522,-14.7989],[145.0454,-14.7996],[145.0385,-14.7961],[145.0249,-14.7942],[145.022,-14.7893],[145.0236,-14.7852],[145.0222,-14.7823],[145.0078,-14.7766],[145.0047,-14.7733],[145.002,-14.7608],[145.0072,-14.7603],[145.0088,-14.7569],[145.0043,-14.7521],[145.0011,-14.7518],[144.996,-14.7546],[144.9907,-14.7513],[144.9886,-14.7528],[144.9821,-14.7495],[144.9786,-14.7504],[144.9701,-14.7483],[144.9618,-14.7395],[144.9598,-14.7395],[144.9591,-14.7373],[144.9548,-14.7358],[144.9538,-14.7368],[144.9509,-14.7277],[144.9514,-14.7206],[144.9482,-14.6981],[144.952,-14.6858],[144.9506,-14.678],[144.9479,-14.6723],[144.9446,-14.6699],[144.9425,-14.6642],[144.9358,-14.6663],[144.9257,-14.6646],[144.9221,-14.6513],[144.9244,-14.6406],[144.9111,-14.6227],[144.9112,-14.6206],[144.9125,-14.621],[144.9107,-14.6183],[144.911,-14.6152],[144.9019,-14.6112],[144.8984,-14.6118],[144.8929,-14.6097],[144.8833,-14.6105],[144.8811,-14.6135],[144.8667,-14.6119],[144.8389,-14.6146],[144.8321,-14.6127],[144.8302,-14.6074],[144.8283,-14.6063],[144.8268,-14.6075],[144.8183,-14.6078],[144.8181,-14.6093],[144.8164,-14.6086],[144.8092,-14.5989],[144.8066,-14.6004],[144.7977,-14.5999],[144.7937,-14.5969],[144.782,-14.5938],[144.7773,-14.5761],[144.7778,-14.5563],[144.775,-14.5556],[144.7746,-14.5468],[144.7735,-14.5462],[144.7699,-14.5481],[144.7685,-14.5512],[144.7614,-14.5527],[144.7542,-14.5486],[144.7488,-14.5546],[144.735,-14.557],[144.7208,-14.5578],[144.7104,-14.556],[144.7102,-14.557],[144.707,-14.5562],[144.7052,-14.5587],[144.6955,-14.5565],[144.6918,-14.5534],[144.6835,-14.5528],[144.6754,-14.5398],[144.6711,-14.5246],[144.6681,-14.5227],[144.6649,-14.5117],[144.6622,-14.5126],[144.6553,-14.5038],[144.6432,-14.4992],[144.6433,-14.4975],[144.6384,-14.4952],[144.6352,-14.4912],[144.6259,-14.4864],[144.6222,-14.4787],[144.6188,-14.4772],[144.6184,-14.464],[144.6224,-14.4524],[144.6217,-14.4449],[144.6186,-14.4417],[144.6222,-14.434],[144.6209,-14.4308],[144.6237,-14.4202],[144.6261,-14.4181],[144.6324,-14.399],[144.6451,-14.3728],[144.6494,-14.3728],[144.6499,-14.366],[144.662,-14.366]],[[144.6581,-14.483],[144.6716,-14.5053],[144.6801,-14.5233],[144.6871,-14.5438],[144.7082,-14.5506],[144.7152,-14.5472],[144.7301,-14.548],[144.7461,-14.5455],[144.7512,-14.5399],[144.781,-14.5405],[144.7877,-14.5554],[144.788,-14.5857],[144.8032,-14.5911],[144.8108,-14.5899],[144.8426,-14.6057],[144.8822,-14.6026],[144.9167,-14.6054],[144.9174,-14.5878],[144.8657,-14.5535],[144.7691,-14.5138],[144.6437,-14.4519],[144.6437,-14.4615],[144.6581,-14.483]],[[144.9244,-14.6041],[144.9332,-14.6125],[144.9358,-14.6127],[144.9279,-14.6036],[144.9244,-14.6041]],[[144.7654,-14.5066],[144.7682,-14.5084],[144.7689,-14.5057],[144.7679,-14.5021],[144.7651,-14.5011],[144.763,-14.504],[144.7634,-14.506],[144.7654,-14.5066]],[[144.8886,-14.5642],[144.8897,-14.5646],[144.8905,-14.5612],[144.8845,-14.5585],[144.8852,-14.562],[144.8886,-14.5642]],[[145.2017,-14.7337],[145.2004,-14.7339],[145.2017,-14.7363],[145.197,-14.7352],[145.205,-14.7369],[145.2049,-14.7351],[145.2017,-14.7337]],[[145.1887,-14.7359],[145.1894,-14.7349],[145.1866,-14.7326],[145.1838,-14.7328],[145.1852,-14.7348],[145.1887,-14.7359]],[[145.2064,-14.7023],[145.2028,-14.7022],[145.2041,-14.7045],[145.2067,-14.7038],[145.2064,-14.7023]],[[144.867,-14.5483],[144.8705,-14.549],[144.8675,-14.5462],[144.867,-14.5483]],[[144.6958,-14.4739],[144.6989,-14.4744],[144.6973,-14.4728],[144.6958,-14.4739]],[[144.6205,-14.4413],[144.622,-14.4417],[144.6225,-14.4397],[144.6205,-14.4413]],[[145.1923,-14.7144],[145.1946,-14.7128],[145.1929,-14.7126],[145.1923,-14.7144]],[[144.9058,-14.5534],[144.9076,-14.555],[144.907,-14.5536],[144.9058,-14.5534]],[[144.9026,-14.5535],[144.9043,-14.5533],[144.9036,-14.5525],[144.9026,-14.5535]],[[144.925,-14.5723],[144.926,-14.5721],[144.9255,-14.5709],[144.925,-14.5723]],[[144.6977,-14.4763],[144.699,-14.4766],[144.6992,-14.4757],[144.6977,-14.4763]],[[145.2009,-14.7203],[145.2005,-14.7211],[145.202,-14.7207],[145.2009,-14.7203]]]},"properties":{"id":"gbrmpa-zone-590","type":"Marine National Park Zone","zone":"Green Zone","color":"#2fae5a","name":"MNP-14-1025","permit":"Barrow Point to Lookout Point","source":"GBRMPA"}},{"type":"Feature","geometry":{"type":"Polygon","coordinates":[[[145.6468,-14.66],[145.6388,-14.6575],[145.6351,-14.6539],[145.6318,-14.6382],[145.6414,-14.6294],[145.6481,-14.6272],[145.6586,-14.6359],[145.6608,-14.6444],[145.6597,-14.6515],[145.6553,-14.6561],[145.6468,-14.66]]]},"properties":{"id":"gbrmpa-zone-633","type":"Marine National Park Zone","zone":"Green Zone","color":"#2fae5a","name":"MNP-14-1028","permit":"No Name Reef (14-139)","source":"GBRMPA"}},{"type":"Feature","geometry":{"type":"Polygon","coordinates":[[[145.6688,-14.9331],[145.6688,-14.9063],[145.6801,-14.9063],[145.6801,-14.7492],[145.6418,-14.6832],[145.6516,-14.6698],[145.648,-14.6696],[145.6419,-14.6651],[145.6588,-14.6567],[145.6663,-14.66],[145.6693,-14.6634],[145.6726,-14.6737],[145.6761,-14.6786],[145.6818,-14.6807],[145.6854,-14.6926],[145.6991,-14.7026],[145.7036,-14.7096],[145.7076,-14.7368],[145.7093,-14.742],[145.7151,-14.7497],[145.7214,-14.7796],[145.7282,-14.8197],[145.7343,-14.845],[145.736,-14.8692],[145.7338,-14.8864],[145.728,-14.9051],[145.7209,-14.9204],[145.7144,-14.9258],[145.7073,-14.9284],[145.6998,-14.9284],[145.6966,-14.9329],[145.6919,-14.933],[145.6873,-14.9362],[145.6774,-14.9375],[145.6747,-14.9367],[145.6726,-14.9331],[145.6688,-14.9331]]]},"properties":{"id":"gbrmpa-zone-627","type":"Marine National Park Zone","zone":"Green Zone","color":"#2fae5a","name":"MNP-14-1030","permit":"Ribbon Reef No. 10 (14-146)","source":"GBRMPA"}},{"type":"Feature","geometry":{"type":"Polygon","coordinates":[[[144.9011,-14.4614],[144.9013,-14.47],[144.8986,-14.4736],[144.8933,-14.4746],[144.8868,-14.4703],[144.8845,-14.4645],[144.8859,-14.459],[144.891,-14.454],[144.8982,-14.4537],[144.9011,-14.4614]],[[144.8925,-14.4636],[144.8905,-14.4642],[144.8949,-14.4665],[144.8945,-14.4642],[144.8925,-14.4636]]]},"properties":{"id":"gbrmpa-zone-584","type":"Habitat Protection Zone","zone":"Dark Blue Zone","color":"#3f6fb0","name":"HP-14-5101","permit":"Watson Island Reef (14-068)","source":"GBRMPA"}},{"type":"Feature","geometry":{"type":"Polygon","coordinates":[[[145.2229,-14.8365],[145.2197,-14.8383],[145.2042,-14.8392],[145.1977,-14.8378],[145.22,-14.8373],[145.2218,-14.8368],[145.2241,-14.8304],[145.2259,-14.8304],[145.2229,-14.8365]]]},"properties":{"id":"gbrmpa-zone-461","type":"Conservation Park Zone","zone":"Yellow Zone","color":"#e8c23f","name":"CP-14-4114","permit":"Lookout Point coastal area","source":"GBRMPA"}},{"type":"Feature","geometry":{"type":"Polygon","coordinates":[[[145.728,-15.252],[145.7096,-15.252],[145.7096,-15.2319],[145.736,-15.2319],[145.736,-15.244],[145.728,-15.252]]]},"properties":{"id":"gbrmpa-zone-450","type":"Preservation Zone","zone":"Pink Zone","color":"#e58fb0","name":"P-15-11","permit":"Camel Head Reef (15-029)","source":"GBRMPA"}},{"type":"Feature","geometry":{"type":"Polygon","coordinates":[[[144.9212,-14.5472],[144.9177,-14.5472],[144.9149,-14.5444],[144.9149,-14.5423],[144.9197,-14.5375],[144.922,-14.5376],[144.9249,-14.5402],[144.9249,-14.5433],[144.9212,-14.5472]]]},"properties":{"id":"gbrmpa-zone-636","type":"Habitat Protection Zone","zone":"Dark Blue Zone","color":"#3f6fb0","name":"HP-14-5378","permit":"Miles Reef (14-098a and b)","source":"GBRMPA"}},{"type":"Feature","geometry":{"type":"Polygon","coordinates":[[[145.4281,-14.4174],[145.432,-14.4174],[145.432,-14.448],[145.42,-14.4717],[145.3838,-14.4717],[145.3838,-14.4349],[145.4058,-14.4174],[145.4281,-14.4174]]]},"properties":{"id":"gbrmpa-zone-587","type":"Preservation Zone","zone":"Pink Zone","color":"#e58fb0","name":"P-14-8","permit":"Hilder Reef (14-085)","source":"GBRMPA"}},{"type":"Feature","geometry":{"type":"Polygon","coordinates":[[[145.4998,-14.645],[145.4998,-14.6583],[145.4831,-14.6583],[145.4831,-14.645],[145.4998,-14.645]],[[145.4887,-14.6482],[145.4881,-14.6485],[145.4892,-14.6489],[145.4887,-14.6482]]]},"properties":{"id":"gbrmpa-zone-630","type":"Scientific Research Zone","zone":"Orange Zone","color":"#e0822e","name":"SR-14-2003","permit":"MacGillivray Reef (14-114)","source":"GBRMPA"}},{"type":"Feature","geometry":{"type":"Polygon","coordinates":[[[145.4045,-15.941],[145.4046,-15.92],[145.61,-15.92],[145.61,-16.1665],[145.6412,-16.3023],[145.6674,-16.354],[145.6674,-16.4532],[145.5791,-16.4533],[145.5423,-16.4142],[145.5423,-16.3392],[145.5595,-16.3392],[145.5595,-16.279],[145.5679,-16.279],[145.5679,-16.2664],[145.5595,-16.2664],[145.5595,-16.0809],[145.481,-16.0809],[145.4751,-16.0805],[145.4767,-16.077],[145.4751,-16.0744],[145.4714,-16.0771],[145.4691,-16.0757],[145.463,-16.0649],[145.4629,-16.0406],[145.4643,-16.0375],[145.4555,-16.0321],[145.4539,-16.0291],[145.4508,-16.0212],[145.4501,-16.0102],[145.4344,-15.9994],[145.4344,-15.9902],[145.4313,-15.9892],[145.4276,-15.9823],[145.4268,-15.9767],[145.4282,-15.9733],[145.4251,-15.9715],[145.4227,-15.9659],[145.4146,-15.9577],[145.4143,-15.9519],[145.4093,-15.9476],[145.4088,-15.945],[145.4051,-15.9441],[145.4038,-15.9423],[145.4045,-15.941]],[[145.566,-16.383],[145.5661,-16.383],[145.5661,-16.383],[145.566,-16.383]],[[145.5661,-16.3823],[145.5661,-16.3823],[145.5661,-16.3823],[145.5661,-16.3823]],[[145.5662,-16.383],[145.5663,-16.383],[145.5662,-16.383],[145.5662,-16.383]],[[145.5661,-16.3817],[145.5661,-16.3817],[145.5661,-16.3817],[145.5661,-16.3817]],[[145.5662,-16.3827],[145.5662,-16.3828],[145.5662,-16.3827],[145.5662,-16.3827]],[[145.566,-16.3822],[145.5661,-16.3823],[145.5661,-16.3822],[145.566,-16.3822]],[[145.5661,-16.3824],[145.566,-16.3824],[145.5661,-16.3824],[145.5661,-16.3824]],[[145.566,-16.3821],[145.566,-16.3821],[145.566,-16.3822],[145.566,-16.3821]],[[145.5678,-16.3834],[145.5679,-16.3834],[145.5678,-16.3834],[145.5678,-16.3834]],[[145.5642,-16.3896],[145.5642,-16.3896],[145.5643,-16.3896],[145.5642,-16.3896]],[[145.5678,-16.3834],[145.5677,-16.3834],[145.5678,-16.3834],[145.5678,-16.3834]],[[145.566,-16.3816],[145.5661,-16.3816],[145.5661,-16.3816],[145.566,-16.3816]],[[145.5677,-16.383],[145.5677,-16.383],[145.5677,-16.3829],[145.5677,-16.383]],[[145.5673,-16.3821],[145.5673,-16.3822],[145.5673,-16.3822],[145.5673,-16.3821]],[[145.5659,-16.3827],[145.566,-16.3827],[145.566,-16.3826],[145.5659,-16.3827]],[[145.5653,-16.3907],[145.5654,-16.3907],[145.5654,-16.3907],[145.5653,-16.3907]],[[145.5675,-16.3832],[145.5676,-16.3833],[145.5675,-16.3832],[145.5675,-16.3832]],[[145.5645,-16.3896],[145.5645,-16.3896],[145.5645,-16.3895],[145.5645,-16.3896]],[[145.5678,-16.3831],[145.5679,-16.3831],[145.5679,-16.383],[145.5678,-16.3831]],[[145.5643,-16.3897],[145.5642,-16.3897],[145.5643,-16.3898],[145.5643,-16.3897]],[[145.5657,-16.3921],[145.5656,-16.3922],[145.5657,-16.3922],[145.5657,-16.3921]],[[145.5677,-16.383],[145.5677,-16.3831],[145.5678,-16.383],[145.5677,-16.383]],[[145.5653,-16.3903],[145.5654,-16.3904],[145.5654,-16.3903],[145.5653,-16.3903]],[[145.566,-16.3819],[145.566,-16.3819],[145.566,-16.382],[145.566,-16.3819]],[[145.5668,-16.3916],[145.5669,-16.3916],[145.5668,-16.3915],[145.5668,-16.3916]],[[145.5653,-16.3908],[145.5653,-16.3909],[145.5653,-16.3909],[145.5653,-16.3908]],[[145.5652,-16.3907],[145.5652,-16.3908],[145.5653,-16.3908],[145.5652,-16.3907]],[[145.5645,-16.3899],[145.5644,-16.3899],[145.5644,-16.39],[145.5645,-16.3899]],[[145.5664,-16.3916],[145.5665,-16.3918],[145.5665,-16.3917],[145.5664,-16.3916]],[[145.5663,-16.3833],[145.5663,-16.3833],[145.5662,-16.3831],[145.5663,-16.3833]],[[145.5658,-16.3906],[145.5659,-16.3907],[145.5659,-16.3906],[145.5658,-16.3906]],[[145.5693,-16.3842],[145.5695,-16.3843],[145.5693,-16.3841],[145.5693,-16.3842]],[[145.5643,-16.3895],[145.5644,-16.3895],[145.5643,-16.3894],[145.5643,-16.3895]],[[145.5648,-16.3887],[145.5648,-16.3888],[145.5649,-16.3888],[145.5648,-16.3887]],[[145.566,-16.3828],[145.566,-16.3829],[145.566,-16.383],[145.566,-16.3828]],[[145.5652,-16.3885],[145.5651,-16.3886],[145.5653,-16.3886],[145.5652,-16.3885]],[[145.5648,-16.389],[145.565,-16.3891],[145.5649,-16.3889],[145.5648,-16.389]],[[145.5706,-16.3862],[145.5708,-16.3862],[145.5707,-16.386],[145.5706,-16.3862]],[[145.5666,-16.3915],[145.5665,-16.3915],[145.5665,-16.3917],[145.5666,-16.3915]],[[145.5651,-16.3897],[145.5649,-16.3896],[145.565,-16.3898],[145.5651,-16.3897]],[[145.5677,-16.3832],[145.5678,-16.3833],[145.568,-16.3832],[145.5677,-16.3832]],[[145.5689,-16.3841],[145.5688,-16.3842],[145.5691,-16.3842],[145.5689,-16.3841]],[[145.565,-16.3893],[145.5652,-16.3896],[145.5653,-16.3893],[145.565,-16.3893]],[[145.566,-16.3815],[145.5661,-16.3815],[145.5662,-16.3811],[145.566,-16.3815]],[[145.5663,-16.3815],[145.5663,-16.3822],[145.5664,-16.3815],[145.5663,-16.3815]],[[145.5653,-16.3883],[145.5655,-16.388],[145.5653,-16.3878],[145.5653,-16.3883]],[[145.5671,-16.3917],[145.567,-16.3917],[145.5672,-16.392],[145.5671,-16.3917]],[[145.5665,-16.3911],[145.5666,-16.3909],[145.5663,-16.3908],[145.5665,-16.3911]],[[145.5647,-16.3894],[145.5651,-16.3895],[145.5647,-16.3891],[145.5647,-16.3894]],[[145.5672,-16.3823],[145.5674,-16.3824],[145.5669,-16.3816],[145.5672,-16.3823]],[[145.5656,-16.388],[145.5658,-16.3885],[145.5662,-16.3884],[145.5656,-16.388]],[[145.571,-16.3898],[145.5715,-16.3903],[145.5714,-16.39],[145.571,-16.3898]],[[145.5679,-16.3834],[145.5675,-16.3836],[145.5683,-16.3838],[145.5679,-16.3834]],[[145.566,-16.3923],[145.5659,-16.3918],[145.5656,-16.3917],[145.566,-16.3923]],[[145.5609,-16.385],[145.5607,-16.3837],[145.559,-16.3836],[145.5609,-16.385]],[[145.5679,-16.3837],[145.5656,-16.3867],[145.5667,-16.3885],[145.565,-16.3889],[145.5678,-16.3918],[145.5661,-16.3925],[145.5694,-16.3932],[145.5716,-16.3892],[145.5704,-16.3853],[145.5679,-16.3837]]]},"properties":{"id":"gbrmpa-zone-738","type":"Marine National Park Zone","zone":"Green Zone","color":"#2fae5a","name":"MNP-15-1047","permit":"Daintree coastal area, Low Isles Reef (16-028) and lagoonal areas","source":"GBRMPA"}},{"type":"Feature","geometry":{"type":"Polygon","coordinates":[[[145.7454,-15.252],[145.7357,-15.2635],[145.7357,-15.3016],[145.7645,-15.3016],[145.7686,-15.3037],[145.7738,-15.3143],[145.7724,-15.3184],[145.7659,-15.3211],[145.7496,-15.3408],[145.6548,-15.3686],[145.6548,-15.3376],[145.516,-15.3376],[145.516,-15.3665],[145.5909,-15.3897],[145.5,-15.3897],[145.5,-15.26],[145.58,-15.26],[145.73,-15.19],[145.7403,-15.19],[145.7441,-15.1976],[145.7539,-15.2024],[145.7537,-15.2092],[145.7492,-15.2144],[145.75,-15.2224],[145.7519,-15.2251],[145.7513,-15.2303],[145.7454,-15.2353],[145.7454,-15.252]],[[145.728,-15.252],[145.736,-15.244],[145.736,-15.2319],[145.7096,-15.2319],[145.7096,-15.252],[145.728,-15.252]]]},"properties":{"id":"gbrmpa-zone-452","type":"Marine National Park Zone","zone":"Green Zone","color":"#2fae5a","name":"MNP-15-1035","permit":"Lark Reef (15-033), Ribbon Reef No. 7 (15-026) and surrounds","source":"GBRMPA"}},{"type":"Feature","geometry":{"type":"Polygon","coordinates":[[[145.444,-15.712],[145.424,-15.712],[145.424,-15.702],[145.444,-15.702],[145.444,-15.712]]]},"properties":{"id":"gbrmpa-zone-429","type":"Habitat Protection Zone","zone":"Dark Blue Zone","color":"#3f6fb0","name":"HP-15-5122","permit":"Stonor Patch (15-060) and Ottaway Patch (15-062)","source":"GBRMPA"}},{"type":"Feature","geometry":{"type":"Polygon","coordinates":[[[145.3792,-15.8524],[145.3792,-15.92],[145.4046,-15.92],[145.4045,-15.941],[145.3935,-15.9402],[145.3849,-15.9311],[145.381,-15.924],[145.3785,-15.924],[145.3748,-15.9268],[145.3694,-15.9249],[145.3666,-15.9221],[145.3629,-15.9227],[145.363,-15.9196],[145.3577,-15.9111],[145.3564,-15.8948],[145.3621,-15.874],[145.3715,-15.8524],[145.3792,-15.8524]]]},"properties":{"id":"gbrmpa-zone-423","type":"Conservation Park Zone","zone":"Yellow Zone","color":"#e8c23f","name":"CP-15-4027","permit":"Weary Bay","source":"GBRMPA"}},{"type":"Feature","geometry":{"type":"Polygon","coordinates":[[[145.3091,-14.7958],[145.3081,-14.7791],[145.3248,-14.7791],[145.3248,-14.7958],[145.3091,-14.7958]]]},"properties":{"id":"gbrmpa-zone-621","type":"Habitat Protection Zone","zone":"Dark Blue Zone","color":"#3f6fb0","name":"HP-14-5110","permit":"Maxwell Reef (14-125)","source":"GBRMPA"}},{"type":"Feature","geometry":{"type":"Polygon","coordinates":[[[145.6165,-14.6156],[145.6198,-14.6158],[145.6227,-14.619],[145.6254,-14.6194],[145.6261,-14.6132],[145.6234,-14.5997],[145.6198,-14.5997],[145.6102,-14.5855],[145.6088,-14.578],[145.6167,-14.5695],[145.6327,-14.5878],[145.6343,-14.596],[145.6321,-14.6009],[145.6384,-14.6225],[145.6317,-14.6274],[145.625,-14.6256],[145.621,-14.6235],[145.6165,-14.6156]]]},"properties":{"id":"gbrmpa-zone-635","type":"Scientific Research Zone","zone":"Orange Zone","color":"#e0822e","name":"SR-14-2002","permit":"Yonge Reef (14-138)","source":"GBRMPA"}},{"type":"Feature","geometry":{"type":"Polygon","coordinates":[[[144.2394,-14.1247],[144.2734,-14.1456],[144.288,-14.1673],[144.288,-14.23],[144.4818,-14.1387],[144.4882,-14.1402],[144.4968,-14.1485],[144.5004,-14.1485],[144.5004,-14.1662],[144.495,-14.1646],[144.4913,-14.1659],[144.4852,-14.1904],[144.4808,-14.1964],[144.4781,-14.2037],[144.4699,-14.2148],[144.4658,-14.2264],[144.458,-14.2371],[144.4443,-14.2508],[144.4367,-14.256],[144.436,-14.2583],[144.4266,-14.2641],[144.4064,-14.27],[144.4042,-14.2721],[144.397,-14.2726],[144.3913,-14.2759],[144.3822,-14.2863],[144.3752,-14.2908],[144.3597,-14.2908],[144.3598,-14.2928],[144.3543,-14.2981],[144.3394,-14.3062],[144.3371,-14.3047],[144.3261,-14.3083],[144.3124,-14.3084],[144.297,-14.3014],[144.2925,-14.2977],[144.29,-14.2979],[144.2847,-14.3032],[144.2709,-14.2958],[144.2665,-14.2952],[144.261,-14.2901],[144.254,-14.2734],[144.2441,-14.2639],[144.2394,-14.2623],[144.2368,-14.2681],[144.2304,-14.2684],[144.223,-14.2619],[144.2213,-14.2573],[144.2153,-14.2536],[144.2143,-14.256],[144.2118,-14.2562],[144.2093,-14.2623],[144.2061,-14.2624],[144.2031,-14.2595],[144.196,-14.2607],[144.196,-14.1744],[144.228,-14.124],[144.2394,-14.1247]],[[144.2668,-14.1601],[144.2565,-14.1637],[144.2559,-14.1619],[144.25,-14.1605],[144.2492,-14.1636],[144.2522,-14.1721],[144.2504,-14.175],[144.2511,-14.176],[144.2432,-14.1732],[144.232,-14.1752],[144.2311,-14.1846],[144.2401,-14.1917],[144.2563,-14.1935],[144.2615,-14.1966],[144.2724,-14.196],[144.2769,-14.1984],[144.2789,-14.1961],[144.2829,-14.196],[144.2771,-14.1774],[144.2757,-14.1621],[144.2728,-14.1587],[144.2668,-14.1601]],[[144.2343,-14.1322],[144.2301,-14.1334],[144.2266,-14.1433],[144.2282,-14.1533],[144.2128,-14.1702],[144.2097,-14.1833],[144.2117,-14.1821],[144.2155,-14.1744],[144.2182,-14.1753],[144.2206,-14.1739],[144.221,-14.1671],[144.2255,-14.1686],[144.2311,-14.162],[144.2391,-14.1633],[144.2409,-14.1574],[144.2465,-14.1506],[144.2538,-14.1499],[144.2563,-14.1516],[144.2602,-14.1494],[144.268,-14.1497],[144.2679,-14.148],[144.2598,-14.1429],[144.2529,-14.1466],[144.2465,-14.1416],[144.2424,-14.143],[144.241,-14.1392],[144.2376,-14.138],[144.2365,-14.135],[144.2355,-14.136],[144.2391,-14.1309],[144.2367,-14.1299],[144.2343,-14.1322]],[[144.2751,-14.2189],[144.2725,-14.2224],[144.2679,-14.2229],[144.2648,-14.225],[144.2605,-14.2245],[144.253,-14.2197],[144.2449,-14.2211],[144.2462,-14.223],[144.2533,-14.2255],[144.2574,-14.2324],[144.263,-14.2332],[144.2657,-14.2367],[144.2703,-14.2386],[144.2758,-14.2353],[144.2781,-14.2294],[144.2776,-14.2179],[144.2758,-14.2164],[144.2751,-14.2189]],[[144.2254,-14.205],[144.2211,-14.2076],[144.2178,-14.2164],[144.2085,-14.2223],[144.2021,-14.2307],[144.213,-14.2205],[144.2225,-14.2191],[144.2302,-14.2144],[144.2311,-14.2097],[144.2287,-14.2061],[144.2254,-14.205]],[[144.3491,-14.2554],[144.347,-14.2545],[144.3457,-14.2567],[144.348,-14.2575],[144.3491,-14.2554]],[[144.2484,-14.2106],[144.2522,-14.2113],[144.2526,-14.21],[144.2506,-14.2089],[144.2484,-14.2106]],[[144.3533,-14.2535],[144.3509,-14.2551],[144.3543,-14.2542],[144.3549,-14.2515],[144.3533,-14.2535]],[[144.3572,-14.2735],[144.3586,-14.2723],[144.3578,-14.2706],[144.3564,-14.2714],[144.3572,-14.2735]]]},"properties":{"id":"gbrmpa-zone-598","type":"Conservation Park Zone","zone":"Yellow Zone","color":"#e8c23f","name":"CP-14-4010","permit":"Bathurst Bay and Flinders Island Group","source":"GBRMPA"}},{"type":"Feature","geometry":{"type":"Polygon","coordinates":[[[145.7864,-15.5857],[145.7713,-15.5753],[145.7713,-15.5692],[145.7928,-15.5323],[145.8083,-15.5323],[145.81,-15.5417],[145.8089,-15.5472],[145.8029,-15.5551],[145.8029,-15.5654],[145.7907,-15.5857],[145.7864,-15.5857]]]},"properties":{"id":"gbrmpa-zone-435","type":"Marine National Park Zone","zone":"Green Zone","color":"#2fae5a","name":"MNP-15-1041","permit":"Ribbon Reef No. 2 (15-075)","source":"GBRMPA"}},{"type":"Feature","geometry":{"type":"Polygon","coordinates":[[[145.7325,-14.4654],[146.0011,-14.9985],[146.0446,-15.1087],[145.9187,-15.1087],[145.9187,-15.3306],[145.7844,-15.3306],[145.7496,-15.3408],[145.7659,-15.3211],[145.7724,-15.3184],[145.7738,-15.3143],[145.7686,-15.3037],[145.7645,-15.3016],[145.7575,-15.3016],[145.7628,-15.2929],[145.7596,-15.2803],[145.7598,-15.2738],[145.7558,-15.2597],[145.7479,-15.2565],[145.7454,-15.252],[145.7454,-15.2353],[145.7513,-15.2303],[145.7519,-15.2251],[145.75,-15.2224],[145.7492,-15.2144],[145.7537,-15.2092],[145.7539,-15.2024],[145.7441,-15.1976],[145.7403,-15.19],[145.75,-15.19],[145.75,-15.0236],[145.7295,-15.0236],[145.7295,-14.9522],[145.7023,-14.9522],[145.6916,-14.972],[145.6688,-14.972],[145.6688,-14.9331],[145.6726,-14.9331],[145.6747,-14.9367],[145.6805,-14.9377],[145.6873,-14.9362],[145.6919,-14.933],[145.6966,-14.9329],[145.6998,-14.9284],[145.7073,-14.9284],[145.7144,-14.9258],[145.7209,-14.9204],[145.728,-14.9051],[145.7338,-14.8864],[145.736,-14.8692],[145.7343,-14.845],[145.7151,-14.7497],[145.7093,-14.742],[145.7076,-14.7368],[145.7036,-14.7096],[145.6991,-14.7026],[145.6854,-14.6926],[145.6818,-14.6807],[145.6761,-14.6786],[145.6726,-14.6737],[145.6693,-14.6634],[145.6663,-14.66],[145.6588,-14.6567],[145.6419,-14.6651],[145.648,-14.6696],[145.6516,-14.6698],[145.6418,-14.6832],[145.6129,-14.6262],[145.6099,-14.6174],[145.6165,-14.6156],[145.621,-14.6235],[145.625,-14.6256],[145.6317,-14.6274],[145.6384,-14.6225],[145.6321,-14.6009],[145.6343,-14.596],[145.6327,-14.5878],[145.6167,-14.5695],[145.6088,-14.578],[145.6102,-14.5855],[145.6198,-14.5997],[145.604,-14.5997],[145.5975,-14.5818],[145.6371,-14.5512],[145.5901,-14.498],[145.5591,-14.5273],[145.5343,-14.523],[145.5582,-14.5216],[145.566,-14.5159],[145.565,-14.506],[145.535,-14.4701],[145.5209,-14.4695],[145.5146,-14.4731],[145.5188,-14.4627],[145.654,-14.3088],[145.7325,-14.4654]],[[145.6457,-14.6273],[145.6318,-14.6382],[145.6351,-14.6539],[145.6388,-14.6575],[145.6468,-14.66],[145.6553,-14.6561],[145.6597,-14.6515],[145.6608,-14.6444],[145.6586,-14.6359],[145.6539,-14.6307],[145.6481,-14.6272],[145.6457,-14.6273]]]},"properties":{"id":"gbrmpa-zone-592","type":"Buffer Zone","zone":"Olive Green Zone","color":"#94a84f","name":"B-14-3005","permit":"Offshore deep water areas from Day Reef to bottom of Ribbon Reef No. 6","source":"GBRMPA"}},{"type":"Feature","geometry":{"type":"Polygon","coordinates":[[[145.7746,-15.4135],[145.7674,-15.4124],[145.7656,-15.4092],[145.7705,-15.4077],[145.7787,-15.409],[145.7787,-15.4105],[145.7746,-15.4135]]]},"properties":{"id":"gbrmpa-zone-443","type":"Marine National Park Zone","zone":"Green Zone","color":"#2fae5a","name":"MNP-15-1038","permit":"Ribbon Reef No. 5 patches south (unnamed reef 15-042)","source":"GBRMPA"}}]}