{"type":"FeatureCollection","meta":{"tile":"t-16e142","built":"2026-08-25"},"features":[{"type":"Feature","geometry":{"type":"Polygon","coordinates":[[[143.9162,-14.0856],[143.9063,-14.0856],[143.9028,-14.0813],[143.9028,-14.0741],[143.9109,-14.0695],[143.917,-14.0695],[143.9195,-14.0752],[143.9195,-14.0812],[143.9162,-14.0856]]]},"properties":{"id":"gbrmpa-zone-475","type":"Habitat Protection Zone","zone":"Dark Blue Zone","color":"#3f6fb0","name":"HP-14-5094","permit":"Eden Reef (14-008)","source":"GBRMPA"}},{"type":"Feature","geometry":{"type":"Polygon","coordinates":[[[144.1952,-14.2662],[144.1981,-14.2672],[144.1964,-14.274],[144.2005,-14.2757],[144.1973,-14.2919],[144.201,-14.2954],[144.2018,-14.3011],[144.1998,-14.3061],[144.1983,-14.3226],[144.1941,-14.3355],[144.1945,-14.3382],[144.1969,-14.3397],[144.1936,-14.3391],[144.1837,-14.3548],[144.1698,-14.3724],[144.1678,-14.3769],[144.1689,-14.3808],[144.1577,-14.3847],[144.1504,-14.3899],[144.147,-14.3957],[144.1474,-14.3999],[144.1448,-14.4055],[144.1418,-14.4056],[144.1401,-14.4028],[144.1369,-14.4014],[144.1309,-14.4022],[144.1237,-14.4088],[144.1057,-14.4354],[144.0949,-14.445],[144.0597,-14.4659],[144.0371,-14.474],[144.0318,-14.4808],[144.0137,-14.4814],[143.9824,-14.4885],[143.9601,-14.485],[143.9468,-14.4961],[143.9406,-14.4947],[143.9365,-14.487],[143.9305,-14.4835],[143.8943,-14.4842],[143.8725,-14.4783],[143.8456,-14.4627],[143.8035,-14.4293],[143.7814,-14.4014],[143.7574,-14.3616],[143.7437,-14.3299],[143.7365,-14.2991],[143.7384,-14.2987],[143.9115,-14.4488],[144.0379,-14.4488],[144.0379,-14.3251],[144.1198,-14.359],[144.196,-14.2479],[144.196,-14.2607],[144.1932,-14.265],[144.1952,-14.2662]]]},"properties":{"id":"gbrmpa-zone-595","type":"Habitat Protection Zone","zone":"Dark Blue Zone","color":"#3f6fb0","name":"HP-14-5097","permit":"Princess Charlotte Bay coastal area","source":"GBRMPA"}},{"type":"Feature","geometry":{"type":"Polygon","coordinates":[[[143.26,-11.79],[143.26,-11.81],[143.27,-11.81],[143.29,-11.85],[143.27,-11.85],[143.27,-11.87],[143.29,-11.88],[143.3,-11.88],[143.36,-11.9385],[143.36,-11.97],[143.4118,-11.97],[143.4105,-11.9719],[143.3563,-11.9899],[143.3331,-12.0112],[143.31,-12.0646],[143.3,-12.0746],[143.3,-12.1046],[143.31,-12.1245],[143.33,-12.1445],[143.37,-12.1646],[143.4,-12.1846],[143.4,-12.2146],[143.3199,-12.2346],[143.3123,-12.2346],[143.3123,-12.2278],[143.2706,-12.207],[143.2581,-12.207],[143.2581,-12.2325],[143.2731,-12.2585],[143.2989,-12.2839],[143.307,-12.2839],[143.373,-12.3862],[143.3586,-12.3977],[143.38,-12.43],[143.4684,-12.5386],[143.57,-12.5386],[143.57,-12.56],[143.5331,-12.575],[143.5039,-12.575],[143.5039,-12.5916],[143.5248,-12.6083],[143.5456,-12.6083],[143.5789,-12.5875],[143.614,-12.5875],[143.6141,-12.6958],[143.5664,-12.6958],[143.5664,-12.7041],[143.5748,-12.7166],[143.5998,-12.7291],[143.6414,-12.7291],[143.6414,-12.79],[143.71,-12.79],[143.71,-12.84],[143.68,-12.84],[143.68,-12.86],[143.7,-12.88],[143.72,-12.88],[143.72,-12.94],[143.74,-12.96],[143.74,-12.98],[143.7822,-13.0847],[143.8098,-13.1799],[143.7933,-13.18],[143.78,-13.1933],[143.78,-13.2],[143.7867,-13.2067],[143.8,-13.2067],[143.81,-13.1967],[143.81,-13.26],[143.84,-13.26],[143.84,-13.3698],[143.7363,-13.3798],[143.7186,-13.4269],[143.7121,-13.5048],[143.7247,-13.54],[143.7289,-13.6116],[143.8084,-13.6116],[143.9716,-13.56],[144.0432,-13.5148],[144.08,-13.57],[144.08,-13.6322],[144.0914,-13.65],[144.14,-13.65],[144.14,-13.68],[144.19,-13.71],[144.2,-13.71],[144.2671,-13.8106],[144.2671,-13.8583],[144.28,-13.9],[144.334,-13.9202],[144.334,-13.9497],[144.3438,-13.96],[144.37,-13.96],[144.37,-13.97],[144.43,-13.97],[144.43,-14],[144.5474,-14],[144.5474,-14.0625],[144.6156,-14.0625],[144.625,-14.075],[144.625,-14.175],[144.65,-14.25],[144.675,-14.3],[144.725,-14.375],[144.775,-14.4],[144.7934,-14.4],[144.8676,-14.4225],[144.8788,-14.4363],[144.8902,-14.4421],[144.9001,-14.4421],[144.9279,-14.4616],[144.9435,-14.4808],[144.9435,-14.5],[144.9471,-14.5101],[144.9604,-14.5328],[144.9831,-14.55],[145.004,-14.55],[145.24,-14.6292],[145.24,-14.67],[145.33,-14.74],[145.33,-14.8],[145.4,-14.9769],[145.46,-14.9769],[145.46,-15.0473],[145.4,-15.0473],[145.4,-15.0875],[145.3665,-15.0875],[145.3665,-15.1041],[145.4,-15.1041],[145.4,-15.252],[145.46,-15.252],[145.46,-15.38],[145.388,-15.38],[145.388,-15.6299],[145.4201,-15.6299],[145.4202,-15.6353],[145.4243,-15.6501],[145.5,-15.7129],[145.5,-15.92],[145.3792,-15.92],[145.3792,-15.8524],[145.382,-15.848],[145.382,-15.837],[145.3762,-15.83],[145.377,-15.755],[145.372,-15.72],[145.363,-15.697],[145.345,-15.676],[145.343,-15.662],[145.328,-15.6481],[145.328,-15.61],[145.338,-15.61],[145.338,-15.594],[145.3294,-15.594],[145.3287,-15.5922],[145.3267,-15.5932],[145.3204,-15.5892],[145.3192,-15.584],[145.3222,-15.5808],[145.319,-15.5794],[145.3173,-15.5751],[145.3228,-15.5707],[145.3189,-15.5696],[145.3176,-15.5662],[145.3108,-15.5605],[145.3079,-15.5542],[145.3052,-15.5523],[145.2823,-15.4941],[145.2828,-15.4916],[145.2956,-15.4916],[145.2956,-15.4708],[145.2831,-15.4708],[145.287,-15.3786],[145.2882,-15.3759],[145.2879,-15.37],[145.2854,-15.3646],[145.2956,-15.3506],[145.2982,-15.3424],[145.2873,-15.3349],[145.2863,-15.3306],[145.2837,-15.3294],[145.2835,-15.3236],[145.2854,-15.3185],[145.2923,-15.3097],[145.3122,-15.2916],[145.3307,-15.279],[145.3405,-15.2751],[145.3433,-15.2755],[145.344,-15.2777],[145.3502,-15.2763],[145.3545,-15.278],[145.3571,-15.2772],[145.3575,-15.2748],[145.3541,-15.2716],[145.3528,-15.2584],[145.3439,-15.2479],[145.3448,-15.2329],[145.343,-15.2293],[145.3386,-15.2268],[145.3357,-15.2208],[145.3498,-15.2208],[145.3498,-15.2083],[145.3294,-15.2083],[145.2986,-15.1458],[145.3331,-15.1458],[145.3331,-15.1292],[145.2903,-15.1292],[145.2663,-15.0805],[145.2884,-15.0446],[145.3323,-14.9985],[145.3827,-14.9985],[145.3693,-14.9185],[145.3,-14.9185],[145.3,-14.944],[145.2246,-14.8483],[145.2297,-14.8359],[145.2317,-14.836],[145.2168,-14.7675],[145.2168,-14.6956],[145.2096,-14.6926],[145.1133,-14.7279],[144.9117,-14.5491],[144.8486,-14.5257],[144.8486,-14.5188],[144.8412,-14.5188],[144.8412,-14.523],[144.766,-14.4951],[144.7113,-14.4713],[144.6418,-14.4379],[144.6418,-14.4001],[144.662,-14.378],[144.662,-14.3473],[144.6542,-14.334],[144.647,-14.334],[144.6344,-14.3042],[144.6011,-14.2485],[144.5261,-14.1485],[144.4968,-14.1485],[144.4882,-14.1402],[144.4818,-14.1387],[144.288,-14.23],[144.288,-14.1673],[144.2734,-14.1456],[144.2382,-14.124],[144.228,-14.124],[144.196,-14.1744],[144.196,-14.2479],[144.1198,-14.359],[143.81,-14.2301],[143.7847,-14.2036],[143.64,-13.78],[143.65,-13.78],[143.65,-13.74],[143.64,-13.73],[143.6446,-13.5533],[143.66,-13.5533],[143.6616,-13.5517],[143.6625,-13.5431],[143.6619,-13.5352],[143.66,-13.5333],[143.6452,-13.5333],[143.6463,-13.4981],[143.6509,-13.458],[143.6559,-13.4565],[143.6553,-13.4487],[143.6522,-13.4466],[143.656,-13.402],[143.61,-13.33],[143.61,-13.32],[143.6,-13.32],[143.5748,-13.2792],[143.5748,-13.2016],[143.585,-13.2016],[143.585,-13.1665],[143.567,-13.1665],[143.56,-13.148],[143.56,-13.12],[143.57,-13.11],[143.56,-13.1],[143.56,-13.07],[143.57,-13.06],[143.5601,-13.0504],[143.5601,-12.812],[143.552,-12.8],[143.427,-12.8],[143.4076,-12.7583],[143.43,-12.68],[143.44,-12.67],[143.45,-12.67],[143.46,-12.66],[143.45,-12.65],[143.44,-12.65],[143.45,-12.63],[143.4645,-12.63],[143.4645,-12.6217],[143.4498,-12.6078],[143.42,-12.59],[143.36,-12.56],[143.2999,-12.4966],[143.2999,-12.4138],[143.2156,-12.3091],[143.1246,-12.2771],[143.1246,-12.2467],[143.1467,-12.2467],[143.1467,-12.2267],[143.1246,-12.2267],[143.1246,-12.1505],[143.21,-12.01],[143.25,-12],[143.2768,-12],[143.2957,-11.9713],[143.2677,-11.9423],[143.26,-11.95],[143.26,-11.96],[143.25,-11.96],[143.2299,-11.9491],[143.2218,-11.9491],[143.2218,-11.9411],[143.2022,-11.9411],[143.1495,-11.9167],[143.1361,-11.9],[143.1206,-11.9],[143.1206,-11.8916],[143.1123,-11.8833],[143.0973,-11.8833],[143.1,-11.84],[143.1,-11.7],[143.2175,-11.742],[143.25,-11.75],[143.25,-11.76],[143.27,-11.79],[143.26,-11.79]],[[144.06,-13.88],[143.9107,-14.0386],[144.0228,-14.0803],[144.1309,-14.0803],[144.2474,-13.9796],[144.2474,-13.9141],[144.231,-13.8717],[144.18,-13.8717],[144.1619,-13.84],[144.06,-13.84],[144.06,-13.88]],[[143.78,-13.63],[143.77,-13.64],[143.77,-13.67],[143.74,-13.73],[143.75,-13.75],[143.78,-13.74],[143.7978,-13.7133],[143.8267,-13.7133],[143.8267,-13.6733],[143.83,-13.67],[143.83,-13.64],[143.84,-13.63],[143.89,-13.63],[143.89,-13.65],[143.88,-13.66],[143.87,-13.71],[143.79,-13.79],[143.75,-13.79],[143.73,-13.8],[143.73,-13.81],[143.77,-13.84],[143.77,-13.85],[143.7802,-13.85],[143.79,-13.84],[143.84,-13.84],[143.87,-13.81],[143.91,-13.78],[143.96,-13.68],[143.96,-13.67],[143.94,-13.66],[143.94,-13.6],[143.93,-13.59],[143.91,-13.59],[143.78,-13.63]],[[143.94,-13.77],[143.88,-13.86],[143.88,-13.88],[143.92,-13.88],[143.9037,-13.8963],[143.8919,-13.8963],[143.8812,-13.9088],[143.8912,-13.9187],[143.87,-13.94],[143.87,-13.98],[143.91,-13.99],[143.93,-13.98],[143.98,-13.95],[144,-13.92],[144.02,-13.92],[144.05,-13.85],[144.05,-13.81],[144.01,-13.779],[144.01,-13.75],[144,-13.74],[143.99,-13.74],[143.99,-13.72],[143.95,-13.74],[143.94,-13.76],[143.94,-13.77]],[[143.63,-13.08],[143.63,-13.13],[143.69,-13.13],[143.69,-13.12],[143.71,-13.12],[143.75,-13.11],[143.75,-13.08],[143.73,-13.04],[143.6948,-13.0291],[143.622,-13.0291],[143.6124,-13.0383],[143.6124,-13.0558],[143.63,-13.08]],[[143.77,-13.15],[143.74,-13.16],[143.73,-13.16],[143.73,-13.17],[143.72,-13.17],[143.66,-13.2],[143.66,-13.23],[143.6901,-13.2472],[143.6748,-13.2625],[143.6748,-13.275],[143.6789,-13.2832],[143.679,-13.2933],[143.6622,-13.2933],[143.6672,-13.3132],[143.68,-13.3133],[143.6867,-13.3067],[143.6867,-13.2958],[143.7039,-13.2958],[143.7164,-13.2833],[143.7164,-13.2622],[143.73,-13.27],[143.75,-13.27],[143.79,-13.23],[143.79,-13.21],[143.76,-13.21],[143.73,-13.22],[143.71,-13.21],[143.7201,-13.1899],[143.73,-13.18],[143.78,-13.18],[143.79,-13.17],[143.79,-13.16],[143.78,-13.15],[143.77,-13.15]],[[143.78,-13.3],[143.77,-13.32],[143.74,-13.33],[143.74,-13.3133],[143.7267,-13.3133],[143.72,-13.32],[143.72,-13.3333],[143.74,-13.3333],[143.74,-13.35],[143.75,-13.36],[143.78,-13.36],[143.82,-13.34],[143.82,-13.32],[143.8,-13.29],[143.79,-13.29],[143.78,-13.3]],[[144.2041,-14.0661],[144.2041,-14.0874],[144.2763,-14.0874],[144.2763,-14.0432],[144.2507,-14.0432],[144.2041,-14.0661]],[[143.5873,-12.8874],[143.5998,-12.9],[143.629,-12.8916],[143.6456,-12.875],[143.6456,-12.8625],[143.6623,-12.8625],[143.6623,-12.8333],[143.6248,-12.8333],[143.6206,-12.8375],[143.6206,-12.8458],[143.6289,-12.8541],[143.6289,-12.8625],[143.6206,-12.8708],[143.5873,-12.8708],[143.5873,-12.8874]],[[145.427,-15.716],[145.427,-15.764],[145.4488,-15.764],[145.476,-15.742],[145.4668,-15.7159],[145.427,-15.716]],[[143.68,-12.98],[143.6667,-12.9867],[143.66,-12.9933],[143.66,-13.0066],[143.6734,-13.0133],[143.7067,-13.0066],[143.7333,-13.0066],[143.7333,-12.9867],[143.6881,-12.98],[143.68,-12.98]],[[143.5289,-12.6458],[143.5164,-12.6583],[143.5164,-12.6666],[143.5206,-12.6708],[143.5289,-12.6708],[143.5331,-12.6666],[143.5331,-12.6541],[143.5748,-12.6541],[143.5956,-12.6333],[143.5956,-12.6208],[143.5873,-12.6208],[143.5748,-12.6291],[143.5498,-12.6291],[143.5456,-12.6333],[143.5289,-12.6333],[143.5289,-12.6458]],[[143.1867,-12.2467],[143.2,-12.2533],[143.2133,-12.2533],[143.2333,-12.2667],[143.2534,-12.2667],[143.2534,-12.2533],[143.2333,-12.2333],[143.1867,-12.2333],[143.1867,-12.2467]],[[143.46,-12.78],[143.46,-12.79],[143.5,-12.79],[143.49,-12.74],[143.47,-12.75],[143.46,-12.78]],[[143.2467,-12.1],[143.2667,-12.12],[143.28,-12.12],[143.28,-12.0933],[143.2733,-12.0733],[143.2544,-12.0733],[143.2467,-12.0866],[143.2467,-12.1]],[[143.6844,-13.3733],[143.6934,-13.4],[143.7133,-13.4],[143.72,-13.3933],[143.72,-13.3667],[143.6934,-13.36],[143.6846,-13.36],[143.6844,-13.3733]],[[143.7107,-13.6494],[143.7132,-13.67],[143.75,-13.67],[143.75,-13.6323],[143.7106,-13.6483],[143.7107,-13.6494]],[[144.3289,-14.0791],[144.304,-14.1041],[144.304,-14.1125],[144.3248,-14.1125],[144.3414,-14.1041],[144.3456,-14.0958],[144.3456,-14.0791],[144.3289,-14.0791]],[[143.5963,-12.7763],[143.6,-12.78],[143.63,-12.78],[143.63,-12.76],[143.59,-12.75],[143.59,-12.77],[143.5963,-12.7763]],[[144.523,-14.1045],[144.5066,-14.118],[144.5068,-14.1278],[144.5123,-14.1333],[144.5373,-14.1333],[144.5414,-14.1291],[144.5415,-14.1047],[144.523,-14.1045]],[[143.8249,-13.917],[143.8331,-13.9375],[143.8414,-13.9375],[143.8498,-13.9291],[143.8498,-13.9],[143.8248,-13.9],[143.8249,-13.917]],[[143.29,-12.023],[143.29,-12.05],[143.31,-12.05],[143.31,-12.01],[143.2984,-12.01],[143.29,-12.023]],[[143.5081,-12.5541],[143.5081,-12.5667],[143.5415,-12.5667],[143.554,-12.5583],[143.554,-12.5458],[143.5081,-12.5541]],[[144.7987,-14.4195],[144.7987,-14.4433],[144.8241,-14.4433],[144.8241,-14.4195],[144.7987,-14.4195]],[[143.38,-12.5267],[143.3867,-12.5333],[143.4067,-12.5333],[143.3888,-12.5],[143.38,-12.5],[143.38,-12.5267]],[[144.9014,-14.4948],[144.9014,-14.5162],[144.9273,-14.5162],[144.9273,-14.4948],[144.9014,-14.4948]],[[144.0133,-14.1206],[143.9867,-14.12],[143.98,-14.1267],[143.9933,-14.14],[144.0133,-14.1333],[144.0133,-14.1206]],[[143.6267,-12.9867],[143.6267,-12.98],[143.6,-12.98],[143.6,-12.9933],[143.6066,-13],[143.62,-13],[143.6267,-12.9867]],[[143.2618,-12.1322],[143.2675,-12.1411],[143.277,-12.1495],[143.2834,-12.1503],[143.288,-12.1469],[143.2887,-12.1414],[143.287,-12.1378],[143.2742,-12.1257],[143.2688,-12.1236],[143.2623,-12.1253],[143.2618,-12.1322]],[[143.8498,-13.9708],[143.8498,-13.95],[143.8279,-13.95],[143.8355,-13.975],[143.8414,-13.975],[143.8498,-13.9708]],[[143.7284,-13.8594],[143.7233,-13.8533],[143.7133,-13.8533],[143.7067,-13.86],[143.7067,-13.8689],[143.7143,-13.877],[143.7232,-13.877],[143.7284,-13.8717],[143.7284,-13.8594]],[[145.2667,-14.7267],[145.2867,-14.7267],[145.2867,-14.7067],[145.2667,-14.7067],[145.2667,-14.7267]],[[143.6,-12.8],[143.6,-12.82],[143.62,-12.82],[143.62,-12.8],[143.6,-12.8]],[[143.74,-13.1267],[143.74,-13.1467],[143.76,-13.1467],[143.76,-13.1333],[143.7534,-13.1267],[143.74,-13.1267]],[[145.3887,-15.7113],[145.3955,-15.7208],[145.4081,-15.7208],[145.4081,-15.7],[145.3887,-15.7],[145.3887,-15.7113]],[[145.4321,-15.0276],[145.4421,-15.0324],[145.4497,-15.0324],[145.4536,-15.0282],[145.4536,-15.0222],[145.4499,-15.0165],[145.4394,-15.0129],[145.4308,-15.0162],[145.4292,-15.0217],[145.4321,-15.0276]],[[143.6467,-12.9267],[143.6467,-12.94],[143.66,-12.94],[143.6667,-12.9333],[143.6667,-12.92],[143.6533,-12.92],[143.6467,-12.9267]],[[143.7593,-13.9533],[143.7637,-13.9462],[143.7637,-13.9351],[143.7594,-13.9313],[143.7563,-13.9313],[143.7485,-13.9355],[143.7444,-13.9399],[143.7444,-13.948],[143.7487,-13.9533],[143.7593,-13.9533]],[[143.6961,-13.854],[143.6961,-13.844],[143.693,-13.8389],[143.6886,-13.8348],[143.6842,-13.8348],[143.6802,-13.8374],[143.6771,-13.8417],[143.6771,-13.8467],[143.6823,-13.8546],[143.6881,-13.8577],[143.6948,-13.8563],[143.6961,-13.854]],[[143.2192,-12.139],[143.2201,-12.1399],[143.23,-12.13],[143.23,-12.12],[143.21,-12.12],[143.21,-12.13],[143.2192,-12.139]],[[143.2,-11.926],[143.2063,-11.9361],[143.218,-11.9361],[143.218,-11.926],[143.2091,-11.916],[143.2,-11.916],[143.2,-11.926]],[[145.3081,-14.7942],[145.3081,-14.7958],[145.3248,-14.7958],[145.3248,-14.7791],[145.3081,-14.7791],[145.3081,-14.7942]],[[145.3172,-15.4959],[145.3172,-15.5125],[145.3337,-15.5125],[145.3337,-15.4959],[145.3172,-15.4959]],[[144.8845,-14.4645],[144.8868,-14.4703],[144.8933,-14.4746],[144.8986,-14.4736],[144.9013,-14.47],[144.9011,-14.4614],[144.8982,-14.4537],[144.891,-14.454],[144.8859,-14.459],[144.8845,-14.4645]],[[143.6867,-12.94],[143.6734,-12.9533],[143.68,-12.96],[143.6934,-12.96],[143.6934,-12.9467],[143.6867,-12.94]],[[144.762,-14.484],[144.762,-14.468],[144.746,-14.468],[144.746,-14.484],[144.762,-14.484]],[[143.9195,-14.0812],[143.9195,-14.0752],[143.917,-14.0695],[143.9109,-14.0695],[143.9028,-14.0741],[143.9028,-14.0813],[143.9063,-14.0856],[143.9162,-14.0856],[143.9195,-14.0812]],[[145.1914,-14.6625],[145.1914,-14.675],[145.2081,-14.675],[145.2081,-14.6625],[145.1914,-14.6625]],[[145.1706,-14.6541],[145.1706,-14.6666],[145.1873,-14.6666],[145.1873,-14.6541],[145.1706,-14.6541]],[[143.604,-13.275],[143.5956,-13.2666],[143.5873,-13.2666],[143.5873,-13.275],[143.5956,-13.2833],[143.604,-13.2833],[143.604,-13.275]],[[145.424,-15.702],[145.424,-15.712],[145.444,-15.712],[145.444,-15.702],[145.424,-15.702]],[[143.6665,-13.1625],[143.6623,-13.1583],[143.6539,-13.1583],[143.6498,-13.1625],[143.6498,-13.1667],[143.6539,-13.1708],[143.6623,-13.1708],[143.6665,-13.1666],[143.6665,-13.1625]],[[145.2664,-14.8458],[145.2664,-14.8583],[145.28,-14.8583],[145.28,-14.846],[145.2664,-14.8458]],[[145.2789,-14.8083],[145.2789,-14.8208],[145.2914,-14.8208],[145.2914,-14.8083],[145.2789,-14.8083]],[[143.8623,-14.0708],[143.8623,-14.0583],[143.8498,-14.0583],[143.8498,-14.0708],[143.8623,-14.0708]],[[145.3468,-15.5368],[145.3533,-15.5423],[145.3579,-15.5423],[145.3579,-15.5268],[145.3468,-15.5268],[145.3468,-15.5368]],[[145.3893,-15.9059],[145.3893,-15.9173],[145.4024,-15.9173],[145.4024,-15.9059],[145.3893,-15.9059]],[[143.646,-13.156],[143.646,-13.144],[143.634,-13.144],[143.6373,-13.156],[143.646,-13.156]],[[143.6239,-13.158],[143.6239,-13.148],[143.6122,-13.148],[143.6122,-13.158],[143.6239,-13.158]],[[144.9149,-14.5444],[144.9177,-14.5472],[144.9212,-14.5472],[144.9249,-14.5433],[144.9249,-14.5402],[144.922,-14.5376],[144.9197,-14.5375],[144.9149,-14.5423],[144.9149,-14.5444]],[[143.6936,-13.6722],[143.6955,-13.6679],[143.6945,-13.6659],[143.6904,-13.6682],[143.6939,-13.6682],[143.6897,-13.6687],[143.6884,-13.6706],[143.6898,-13.6741],[143.6936,-13.6722]]]},"properties":{"id":"gbrmpa-zone-525","type":"General Use Zone","zone":"Light Blue Zone","color":"#7fc3dd","name":"GU-11-6002","permit":null,"source":"GBRMPA"}},{"type":"Feature","geometry":{"type":"Polygon","coordinates":[[[144.0133,-14.1206],[144.0133,-14.1333],[143.9933,-14.14],[143.98,-14.1267],[143.9867,-14.12],[144.0133,-14.1206]],[[143.9943,-14.1294],[143.9957,-14.1273],[143.9928,-14.128],[143.9943,-14.1294]]]},"properties":{"id":"gbrmpa-zone-599","type":"Habitat Protection Zone","zone":"Dark Blue Zone","color":"#3f6fb0","name":"HP-14-5096","permit":"Wharton Reef (14-022)","source":"GBRMPA"}},{"type":"Feature","geometry":{"type":"Polygon","coordinates":[[[143.8623,-14.0708],[143.8498,-14.0708],[143.8498,-14.0583],[143.8623,-14.0583],[143.8623,-14.0708]]]},"properties":{"id":"gbrmpa-zone-476","type":"Habitat Protection Zone","zone":"Dark Blue Zone","color":"#3f6fb0","name":"HP-14-5093","permit":"Fahey Reef (14-006)","source":"GBRMPA"}},{"type":"Feature","geometry":{"type":"Polygon","coordinates":[[[143.7847,-14.2036],[143.81,-14.2301],[144.0379,-14.3251],[144.0379,-14.4488],[143.9115,-14.4488],[143.7384,-14.2987],[143.7333,-14.2753],[143.7308,-14.2756],[143.7293,-14.2651],[143.7251,-14.2536],[143.7244,-14.2549],[143.7235,-14.2539],[143.7082,-14.2237],[143.7847,-14.2036]],[[143.7788,-14.2237],[143.7798,-14.2219],[143.7752,-14.2144],[143.7731,-14.2193],[143.7788,-14.2237]],[[143.7745,-14.228],[143.7707,-14.2276],[143.7723,-14.2289],[143.7745,-14.228]],[[143.7946,-14.2254],[143.791,-14.2272],[143.7948,-14.2271],[143.7946,-14.2254]]]},"properties":{"id":"gbrmpa-zone-596","type":"Marine National Park Zone","zone":"Green Zone","color":"#2fae5a","name":"MNP-14-1023","permit":"Princess Charlotte Bay (offshore)","source":"GBRMPA"}},{"type":"Feature","geometry":{"type":"Polygon","coordinates":[[[143.7384,-14.2987],[143.7365,-14.2991],[143.7336,-14.286],[143.7316,-14.2851],[143.7308,-14.2756],[143.7333,-14.2753],[143.7384,-14.2987]]]},"properties":{"id":"gbrmpa-zone-594","type":"Conservation Park Zone","zone":"Yellow Zone","color":"#e8c23f","name":"CP-14-4014","permit":"Running Creek","source":"GBRMPA"}},{"type":"Feature","geometry":{"type":"Polygon","coordinates":[[[143.6665,-13.8561],[143.7847,-14.2036],[143.7082,-14.2237],[143.6996,-14.1963],[143.6985,-14.1876],[143.7022,-14.1527],[143.7004,-14.1402],[143.702,-14.1382],[143.701,-14.1324],[143.7028,-14.127],[143.7,-14.1192],[143.6979,-14.1186],[143.6974,-14.1139],[143.6988,-14.1135],[143.6969,-14.1121],[143.6953,-14.1062],[143.6956,-14.0979],[143.6943,-14.0956],[143.6926,-14.096],[143.691,-14.0913],[143.6937,-14.088],[143.6942,-14.0738],[143.6918,-14.0701],[143.6932,-14.0676],[143.6923,-14.0649],[143.69,-14.063],[143.6849,-14.0467],[143.6808,-14.0152],[143.6753,-14.0067],[143.6706,-14.0062],[143.6649,-14.0019],[143.6625,-14.0025],[143.6526,-13.9894],[143.6427,-13.9854],[143.6437,-13.9842],[143.642,-13.9819],[143.6349,-13.9762],[143.6297,-13.9751],[143.6261,-13.9675],[143.6231,-13.9655],[143.6167,-13.9493],[143.6128,-13.9304],[143.6112,-13.9303],[143.6086,-13.9197],[143.6029,-13.9103],[143.6021,-13.9113],[143.6003,-13.9094],[143.6008,-13.9036],[143.5992,-13.9009],[143.6003,-13.8819],[143.59,-13.8561],[143.6665,-13.8561]],[[143.6953,-14.0766],[143.6964,-14.0768],[143.6966,-14.0693],[143.694,-14.0633],[143.6953,-14.0766]]]},"properties":{"id":"gbrmpa-zone-483","type":"Conservation Park Zone","zone":"Yellow Zone","color":"#e8c23f","name":"CP-13-4009","permit":"Port Stewart coastal area","source":"GBRMPA"}},{"type":"Feature","geometry":{"type":"Polygon","coordinates":[[[144.231,-13.8717],[144.2474,-13.9141],[144.2474,-13.9796],[144.1309,-14.0803],[144.0228,-14.0803],[143.9107,-14.0386],[144.06,-13.88],[144.07,-13.89],[144.17,-13.89],[144.18,-13.8717],[144.231,-13.8717]],[[143.9223,-14.0323],[143.9312,-14.0317],[143.9502,-14.0229],[143.9583,-14.0159],[143.9651,-14.0127],[143.9781,-14.0004],[143.9716,-14.0019],[143.9667,-14.0076],[143.9463,-14.0217],[143.9353,-14.0276],[143.924,-14.0304],[143.9223,-14.0323]],[[143.9949,-13.9821],[144.0009,-13.9767],[144.0053,-13.9703],[144.005,-13.9681],[144.0027,-13.9691],[143.9949,-13.9821]]]},"properties":{"id":"gbrmpa-zone-482","type":"Marine National Park Zone","zone":"Green Zone","color":"#2fae5a","name":"MNP-13-1019","permit":"Corbett Reef (14-016) and Grub Reef (14-003)","source":"GBRMPA"}}]}