{"type":"FeatureCollection","meta":{"tile":"t-18e146","built":"2026-08-25"},"features":[{"type":"Feature","geometry":{"type":"Polygon","coordinates":[[[146,-16.33],[145.98,-16.31],[145.98,-16.3],[145.99,-16.29],[146.02,-16.29],[146.02,-16.31],[146,-16.33]]]},"properties":{"id":"gbrmpa-zone-378","type":"Habitat Protection Zone","zone":"Dark Blue Zone","color":"#3f6fb0","name":"HP-16-5125","permit":"Linden Bank (16-033)","source":"GBRMPA"}},{"type":"Feature","geometry":{"type":"Polygon","coordinates":[[[146.2235,-16.9358],[146.2235,-16.9462],[146.1926,-16.9462],[146.1926,-16.93],[146.2235,-16.93],[146.2235,-16.9358]]]},"properties":{"id":"gbrmpa-zone-401","type":"Marine National Park Zone","zone":"Green Zone","color":"#2fae5a","name":"MNP-16-1060","permit":"Briggs Reef (16-074)","source":"GBRMPA"}},{"type":"Feature","geometry":{"type":"Polygon","coordinates":[[[146.1664,-17.5749],[146.1581,-17.5749],[146.1581,-17.5666],[146.1664,-17.5666],[146.1664,-17.5749]]]},"properties":{"id":"gbrmpa-zone-384","type":"Habitat Protection Zone","zone":"Dark Blue Zone","color":"#3f6fb0","name":"HP-17-5139","permit":"Meaburn Rock (17-036)","source":"GBRMPA"}},{"type":"Feature","geometry":{"type":"Polygon","coordinates":[[[146.3606,-17.5595],[146.3407,-17.5397],[146.3407,-17.482],[146.4014,-17.5098],[146.4893,-17.5098],[146.4893,-17.4857],[146.5728,-17.4857],[146.5728,-17.5595],[146.3606,-17.5595]]]},"properties":{"id":"gbrmpa-zone-387","type":"Marine National Park Zone","zone":"Green Zone","color":"#2fae5a","name":"MNP-17-1067","permit":"Feather Reef (17-034) and Nathan Reef (17-035)","source":"GBRMPA"}},{"type":"Feature","geometry":{"type":"Polygon","coordinates":[[[146.1702,-17.8801],[146.1702,-17.91],[146.1994,-17.9922],[146.1913,-17.9922],[146.1913,-18.0571],[146.1098,-18.0354],[146.1098,-17.9781],[146.1014,-17.9781],[146.1009,-17.967],[146.0976,-17.969],[146.0944,-17.967],[146.0914,-17.9542],[146.0981,-17.9278],[146.0974,-17.9084],[146.0983,-17.8972],[146.1011,-17.8863],[146.1003,-17.8849],[146.1022,-17.8851],[146.106,-17.876],[146.1702,-17.876],[146.1702,-17.8801]],[[146.1393,-17.9361],[146.1358,-17.9362],[146.1453,-17.944],[146.1468,-17.9486],[146.1468,-17.9872],[146.178,-17.9872],[146.1786,-17.9678],[146.1741,-17.9626],[146.1747,-17.9582],[146.1733,-17.956],[146.176,-17.9522],[146.1748,-17.948],[146.1658,-17.9433],[146.163,-17.9389],[146.1568,-17.9371],[146.1524,-17.9283],[146.1465,-17.9271],[146.143,-17.9308],[146.1438,-17.9347],[146.1393,-17.9361]],[[146.152,-17.9978],[146.149,-17.9995],[146.1476,-17.9979],[146.1474,-18.0003],[146.1429,-18.002],[146.1421,-18.0044],[146.1507,-18.0099],[146.1528,-18.0084],[146.1544,-18.0098],[146.1545,-18.0072],[146.1513,-18.0061],[146.1509,-18.0014],[146.153,-17.9998],[146.152,-17.9978]],[[146.1754,-18.0377],[146.173,-18.0379],[146.1722,-18.0398],[146.1772,-18.0424],[146.1812,-18.0422],[146.1809,-18.0381],[146.1754,-18.0377]],[[146.1663,-18.029],[146.169,-18.0287],[146.1691,-18.026],[146.1686,-18.0244],[146.1657,-18.0235],[146.1637,-18.0264],[146.1663,-18.029]],[[146.1382,-17.9807],[146.1339,-17.9816],[146.1385,-17.9837],[146.1392,-17.9812],[146.1382,-17.9807]],[[146.1434,-17.9544],[146.1405,-17.9565],[146.1428,-17.9564],[146.1434,-17.9544]],[[146.1805,-17.9701],[146.1805,-17.9674],[146.1797,-17.9687],[146.1805,-17.9701]],[[146.1423,-17.9498],[146.1414,-17.9505],[146.1416,-17.9518],[146.1423,-17.9498]],[[146.1408,-17.9788],[146.14,-17.9785],[146.1403,-17.9795],[146.1408,-17.9788]],[[146.1365,-17.9254],[146.1372,-17.9256],[146.137,-17.9247],[146.1365,-17.9254]]]},"properties":{"id":"gbrmpa-zone-301","type":"Conservation Park Zone","zone":"Yellow Zone","color":"#e8c23f","name":"CP-17-4045","permit":"Mission Beach","source":"GBRMPA"}},{"type":"Feature","geometry":{"type":"Polygon","coordinates":[[[146.0775,-17.991],[146.1098,-17.9911],[146.1098,-18.0354],[146.1,-18.0328],[146.0499,-18.0328],[146.0513,-18.0303],[146.0547,-18.0302],[146.064,-18.0067],[146.0757,-17.9906],[146.0775,-17.991]]]},"properties":{"id":"gbrmpa-zone-295","type":"Habitat Protection Zone","zone":"Dark Blue Zone","color":"#3f6fb0","name":"HP-17-5142","permit":"Tully Heads coastal area","source":"GBRMPA"}},{"type":"Feature","geometry":{"type":"Polygon","coordinates":[[[146.1763,-17.7298],[146.1763,-17.741],[146.1698,-17.768],[146.1587,-17.768],[146.1378,-17.7441],[146.1206,-17.744],[146.1206,-17.7298],[146.1763,-17.7298]],[[146.157,-17.7382],[146.1632,-17.7378],[146.1581,-17.7368],[146.157,-17.7382]],[[146.1604,-17.7469],[146.1618,-17.7448],[146.1606,-17.7446],[146.1604,-17.7469]]]},"properties":{"id":"gbrmpa-zone-381","type":"Marine National Park Zone","zone":"Green Zone","color":"#2fae5a","name":"MNP-17-1069","permit":"South Barnard Islands","source":"GBRMPA"}},{"type":"Feature","geometry":{"type":"Polygon","coordinates":[[[146.2042,-16.8207],[146.16,-16.8207],[146.16,-16.78],[146.2042,-16.78],[146.2042,-16.8207]]]},"properties":{"id":"gbrmpa-zone-358","type":"Conservation Park Zone","zone":"Yellow Zone","color":"#e8c23f","name":"CP-16-4036","permit":"Thetford Reef (16-068)","source":"GBRMPA"}},{"type":"Feature","geometry":{"type":"Polygon","coordinates":[[[146.0196,-17.3456],[146.0338,-17.3607],[146.0288,-17.3586],[146.0196,-17.3456]]]},"properties":{"id":"gbrmpa-zone-390","type":"Conservation Park Zone","zone":"Yellow Zone","color":"#e8c23f","name":"CP-17-4043","permit":"Bramston Beach (Rocky Point)","source":"GBRMPA"}},{"type":"Feature","geometry":{"type":"Polygon","coordinates":[[[146.5574,-17.2854],[146.5054,-17.2854],[146.4795,-17.2676],[146.4556,-17.2676],[146.4364,-17.2596],[146.3899,-17.2596],[146.3899,-17.0681],[146.4476,-17],[146.485,-17],[146.485,-17.09],[146.44,-17.09],[146.44,-17.1598],[146.5574,-17.1598],[146.5574,-17.2854]]]},"properties":{"id":"gbrmpa-zone-398","type":"Marine National Park Zone","zone":"Green Zone","color":"#2fae5a","name":"MNP-16-1061","permit":"Hedley Reef (17-014), Stevens Reef (17-005) and surrounds","source":"GBRMPA"}},{"type":"Feature","geometry":{"type":"Polygon","coordinates":[[[146.5269,-18.1286],[146.5041,-18.1244],[146.4894,-18.1106],[146.4894,-18.0642],[146.5048,-18.034],[146.56,-17.981],[146.58,-17.981],[146.58,-17.9598],[146.6393,-17.9598],[146.6393,-18.0422],[146.5764,-18.1041],[146.5269,-18.1286]]]},"properties":{"id":"gbrmpa-zone-298","type":"Habitat Protection Zone","zone":"Dark Blue Zone","color":"#3f6fb0","name":"HP-17-5141","permit":"Otter Reef (18-018)","source":"GBRMPA"}},{"type":"Feature","geometry":{"type":"Polygon","coordinates":[[[146.2235,-16.9358],[146.2235,-16.93],[146.1836,-16.93],[146.1836,-16.8999],[146.31,-16.8999],[146.31,-16.9358],[146.2235,-16.9358]]]},"properties":{"id":"gbrmpa-zone-353","type":"Conservation Park Zone","zone":"Yellow Zone","color":"#e8c23f","name":"CP-16-4038","permit":"Elford Reef (16-073)","source":"GBRMPA"}},{"type":"Feature","geometry":{"type":"Polygon","coordinates":[[[146.2873,-16.8041],[146.2581,-16.8041],[146.2581,-16.775],[146.2873,-16.775],[146.2873,-16.8041]]]},"properties":{"id":"gbrmpa-zone-359","type":"Marine National Park Zone","zone":"Green Zone","color":"#2fae5a","name":"MNP-16-1057","permit":"Milln Reef (16-067)","source":"GBRMPA"}},{"type":"Feature","geometry":{"type":"Polygon","coordinates":[[[146.1923,-17.66],[146.1914,-17.684],[146.161,-17.684],[146.161,-17.66],[146.1923,-17.66]],[[146.1807,-17.6746],[146.1771,-17.6761],[146.181,-17.6782],[146.1823,-17.6772],[146.1807,-17.6746]],[[146.1711,-17.6753],[146.1677,-17.6735],[146.1678,-17.6748],[146.1711,-17.6753]],[[146.1732,-17.6728],[146.1746,-17.6746],[146.1743,-17.6731],[146.1732,-17.6728]],[[146.1684,-17.6674],[146.1695,-17.6677],[146.1697,-17.6667],[146.1684,-17.6674]]]},"properties":{"id":"gbrmpa-zone-382","type":"Conservation Park Zone","zone":"Yellow Zone","color":"#e8c23f","name":"CP-17-4044","permit":"North Barnard Islands","source":"GBRMPA"}},{"type":"Feature","geometry":{"type":"Polygon","coordinates":[[[146.0765,-16.5767],[146.0132,-16.6237],[145.9637,-16.6237],[145.9497,-16.6098],[145.9497,-16.5927],[145.9651,-16.5811],[145.965,-16.4],[146.021,-16.4],[146.0765,-16.5177],[146.0765,-16.5767]],[[145.9767,-16.6053],[145.9726,-16.6059],[145.9709,-16.6078],[145.9768,-16.6066],[145.9767,-16.6053]]]},"properties":{"id":"gbrmpa-zone-376","type":"Marine National Park Zone","zone":"Green Zone","color":"#2fae5a","name":"MNP-16-1050","permit":"Norman Reef (16-030), Saxon Reef (16-032), Hastings Reef (16-057) and Michaelmas Reef (16-060)","source":"GBRMPA"}},{"type":"Feature","geometry":{"type":"Polygon","coordinates":[[[145.9497,-16.6098],[145.9637,-16.6237],[146.0132,-16.6237],[146.0132,-16.6684],[145.9599,-16.6684],[145.9473,-16.7],[145.92,-16.7],[145.9,-16.64],[145.9497,-16.5927],[145.9497,-16.6098]],[[145.9381,-16.6877],[145.9484,-16.6878],[145.9529,-16.677],[145.948,-16.6645],[145.9227,-16.664],[145.9226,-16.671],[145.9381,-16.6877]],[[145.9892,-16.6561],[145.9915,-16.6543],[145.9892,-16.6549],[145.9892,-16.6561]]]},"properties":{"id":"gbrmpa-zone-370","type":"Conservation Park Zone","zone":"Yellow Zone","color":"#e8c23f","name":"CP-16-4033","permit":"Oyster Reef (16-043a) and Vlasoff Reef (16-044b)","source":"GBRMPA"}},{"type":"Feature","geometry":{"type":"Polygon","coordinates":[[[146.3529,-16.6253],[146.259,-16.6253],[146.1743,-16.5164],[146.1743,-16.3771],[146.2188,-16.3771],[146.2188,-16.2775],[146.5092,-16.2775],[146.6486,-16.6253],[146.3529,-16.6253]]]},"properties":{"id":"gbrmpa-zone-413","type":"Marine National Park Zone","zone":"Green Zone","color":"#2fae5a","name":"MNP-16-1049","permit":"Offshore Grafton Passage","source":"GBRMPA"}},{"type":"Feature","geometry":{"type":"Polygon","coordinates":[[[146.9925,-17.9916],[146.9815,-17.9916],[146.8652,-17.8665],[146.64,-17.22],[146.5426,-17],[146.6336,-17],[146.8727,-17.4985],[146.9986,-17.8078],[147.1276,-17.9916],[146.9925,-17.9916]]]},"properties":{"id":"gbrmpa-zone-399","type":"General Use Zone","zone":"Light Blue Zone","color":"#7fc3dd","name":"GU-16-6005","permit":null,"source":"GBRMPA"}},{"type":"Feature","geometry":{"type":"Polygon","coordinates":[[[146.1548,-17.9543],[146.1645,-17.9542],[146.1721,-17.9619],[146.1713,-17.9644],[146.1738,-17.9663],[146.1732,-17.9676],[146.178,-17.9694],[146.178,-17.9872],[146.1468,-17.9872],[146.1468,-17.9486],[146.1548,-17.9543]]]},"properties":{"id":"gbrmpa-zone-299","type":"Marine National Park Zone","zone":"Green Zone","color":"#2fae5a","name":"MNP-17-1073","permit":"Dunk Island","source":"GBRMPA"}},{"type":"Feature","geometry":{"type":"Polygon","coordinates":[[[146.077,-17.2026],[146.0799,-17.2056],[146.0821,-17.2148],[146.0812,-17.2169],[146.0761,-17.2141],[146.0728,-17.2094],[146.0728,-17.205],[146.077,-17.2026]],[[146.0765,-17.2046],[146.0735,-17.2049],[146.0781,-17.211],[146.0778,-17.2049],[146.0765,-17.2046]],[[146.0787,-17.2108],[146.0786,-17.2112],[146.0789,-17.211],[146.0787,-17.2108]],[[146.0788,-17.2105],[146.0789,-17.2106],[146.0791,-17.2104],[146.0788,-17.2105]]]},"properties":{"id":"gbrmpa-zone-393","type":"Marine National Park Zone","zone":"Green Zone","color":"#2fae5a","name":"MNP-17-1063","permit":"Mabel and Normandy Islands","source":"GBRMPA"}},{"type":"Feature","geometry":{"type":"Polygon","coordinates":[[[146.4,-16.9],[146.38,-16.9],[146.38,-16.86],[146.42,-16.86],[146.42,-16.88],[146.4,-16.9]]]},"properties":{"id":"gbrmpa-zone-356","type":"Preservation Zone","zone":"Pink Zone","color":"#e58fb0","name":"P-16-15","permit":"North West Reef (16-072)","source":"GBRMPA"}},{"type":"Feature","geometry":{"type":"Polygon","coordinates":[[[146.1215,-17.794],[146.1215,-17.8164],[146.1063,-17.8164],[146.1032,-17.8127],[146.1001,-17.8124],[146.0971,-17.8062],[146.0946,-17.8063],[146.0946,-17.794],[146.1215,-17.794]]]},"properties":{"id":"gbrmpa-zone-379","type":"Marine National Park Zone","zone":"Green Zone","color":"#2fae5a","name":"MNP-17-1070","permit":"South Kurrimine Beach","source":"GBRMPA"}},{"type":"Feature","geometry":{"type":"Polygon","coordinates":[[[146.4671,-16.9184],[146.523,-16.9837],[146.5426,-16.9837],[146.5426,-17],[146.64,-17.22],[146.8652,-17.8665],[146.9815,-17.9916],[147.1276,-17.9916],[147.7879,-18.416],[147.7879,-18.6813],[147.68,-18.7],[147.6312,-18.757],[147.5931,-18.77],[147.5,-18.77],[147.5,-18.74],[147.3722,-18.6426],[147.3722,-18.5827],[147.4933,-18.5827],[147.4933,-18.681],[147.6383,-18.681],[147.6383,-18.3883],[147.335,-18.3883],[147.3001,-18.4853],[147.2466,-18.4853],[147.2466,-18.5641],[147.1396,-18.58],[147.0194,-18.54],[146.9865,-18.4864],[147.0145,-18.4864],[147.0145,-18.2748],[146.9456,-18.2748],[146.9456,-17.9916],[146.895,-17.9491],[146.841,-17.9491],[146.8043,-17.9078],[146.7703,-17.9078],[146.7703,-17.9685],[146.72,-17.9685],[146.72,-17.9467],[146.6806,-17.8811],[146.6381,-17.8811],[146.6381,-17.9004],[146.6187,-17.9204],[146.5188,-17.9204],[146.457,-17.87],[146.541,-17.87],[146.6,-17.823],[146.588,-17.8],[146.542,-17.8],[146.517,-17.822],[146.434,-17.822],[146.3995,-17.7608],[146.3661,-17.7448],[146.3661,-17.7236],[146.3798,-17.6818],[146.3685,-17.6696],[146.3685,-17.6511],[146.3837,-17.6463],[146.3974,-17.6113],[146.387,-17.5776],[146.3606,-17.5595],[146.5728,-17.5595],[146.5728,-17.4857],[146.4893,-17.4857],[146.4893,-17.5098],[146.4014,-17.5098],[146.3407,-17.482],[146.3407,-17.4],[146.2792,-17.4],[146.2792,-17.2136],[146.32,-17.2136],[146.32,-17.1601],[146.2677,-17.1601],[146.4192,-16.9184],[146.4671,-16.9184]],[[146.3899,-17.0681],[146.3899,-17.2596],[146.4364,-17.2596],[146.4556,-17.2676],[146.4795,-17.2676],[146.5054,-17.2854],[146.5574,-17.2854],[146.5574,-17.1598],[146.44,-17.1598],[146.44,-17.09],[146.485,-17.09],[146.485,-17],[146.4476,-17],[146.3899,-17.0681]],[[147.3628,-18.2429],[147.3628,-18.2891],[147.4058,-18.2891],[147.4058,-18.2424],[147.3628,-18.2429]],[[147.1867,-18.3412],[147.1867,-18.377],[147.2172,-18.377],[147.2172,-18.3412],[147.1867,-18.3412]],[[146.5804,-17.8655],[146.5827,-17.8654],[146.5811,-17.8648],[146.5804,-17.8655]],[[146.4285,-17.775],[146.429,-17.775],[146.4293,-17.7741],[146.4285,-17.775]]]},"properties":{"id":"gbrmpa-zone-402","type":"Habitat Protection Zone","zone":"Dark Blue Zone","color":"#3f6fb0","name":"HP-16-5133","permit":"Cairns to Townsville mid-shelf and offshore","source":"GBRMPA"}},{"type":"Feature","geometry":{"type":"Polygon","coordinates":[[[146,-16.74],[146.04,-16.7801],[146.04,-16.8101],[146,-16.8101],[145.961,-16.7761],[145.9373,-16.7401],[145.9373,-16.7252],[145.9534,-16.7252],[146,-16.74]],[[145.9765,-16.7572],[145.9748,-16.7584],[145.9694,-16.7579],[145.9721,-16.7604],[145.9721,-16.767],[145.9781,-16.773],[145.985,-16.773],[145.991,-16.7689],[145.997,-16.7689],[145.9971,-16.761],[145.978,-16.756],[145.9765,-16.7572]]]},"properties":{"id":"gbrmpa-zone-362","type":"Marine National Park Zone","zone":"Green Zone","color":"#2fae5a","name":"MNP-16-1055","permit":"Green Island Reef (16-049)","source":"GBRMPA"}},{"type":"Feature","geometry":{"type":"Polygon","coordinates":[[[146.0059,-16.1186],[146.1743,-16.3771],[146.1743,-16.5164],[146.259,-16.6253],[146.3529,-16.6253],[146.389,-16.6727],[146.2366,-16.6727],[146.2366,-16.78],[146.16,-16.78],[146.1599,-16.9201],[146.1103,-16.9679],[146.0124,-16.9679],[146.0124,-17.0327],[146.0903,-17.1601],[146.2677,-17.1601],[146.2675,-17.2137],[146.1277,-17.2137],[146.1277,-17.2866],[146.2207,-17.4],[146.3407,-17.4],[146.3407,-17.5397],[146.3606,-17.5595],[146.387,-17.5776],[146.3974,-17.6113],[146.3837,-17.6463],[146.3685,-17.6511],[146.3685,-17.6696],[146.3798,-17.6818],[146.3661,-17.7236],[146.3661,-17.7448],[146.3995,-17.7608],[146.434,-17.822],[146.457,-17.87],[146.5188,-17.9204],[146.6187,-17.9204],[146.6381,-17.9004],[146.6381,-17.8811],[146.6806,-17.8811],[146.72,-17.9467],[146.72,-18.18],[146.6266,-18.2156],[146.6266,-18.2333],[146.64,-18.26],[146.66,-18.28],[146.7,-18.28],[146.7,-18.3633],[146.6818,-18.3633],[146.6558,-18.375],[146.6558,-18.3918],[146.6694,-18.423],[146.6867,-18.4381],[146.7276,-18.4554],[146.7445,-18.4554],[146.7788,-18.42],[146.8431,-18.42],[146.9,-18.385],[146.971,-18.385],[146.971,-18.4645],[146.9865,-18.4864],[147.0194,-18.54],[147.1396,-18.58],[147.2466,-18.5641],[147.2466,-18.4853],[147.35,-18.4853],[147.3722,-18.5412],[147.3722,-18.6426],[147.5,-18.74],[147.5,-18.8268],[147.5931,-18.8268],[147.6708,-18.9042],[147.6708,-18.9658],[147.6925,-18.9903],[147.7251,-18.9903],[147.8201,-18.9531],[147.8201,-18.92],[147.7236,-18.8239],[147.8473,-18.8239],[147.8473,-18.8852],[147.86,-18.92],[147.9,-18.96],[147.96,-18.96],[148.0001,-19],[148.0562,-19],[148.0562,-19.0999],[148.08,-19.0999],[148.08,-19.2],[147.7994,-19.2],[147.7994,-19.3453],[147.845,-19.3453],[147.845,-19.371],[147.8746,-19.371],[147.8746,-19.3873],[147.9793,-19.4396],[148.1504,-19.4396],[148.1504,-19.25],[148.27,-19.25],[148.4858,-19.2583],[148.6202,-19.3596],[148.6303,-19.4502],[148.7301,-19.54],[148.8701,-19.55],[148.92,-19.55],[148.92,-19.5878],[149.1328,-19.5878],[149.21,-19.62],[149.14,-19.72],[149.14,-19.732],[149.0563,-19.7813],[149.0561,-19.8294],[148.8575,-19.8294],[148.8575,-19.6747],[148.7503,-19.6202],[148.5013,-19.6202],[148.5013,-19.9248],[148.55,-19.9474],[148.55,-20],[148.57,-20],[148.625,-20.0541],[148.8401,-20.0541],[148.8401,-20.1],[148.76,-20.22],[148.7531,-20.22],[148.7531,-20.2349],[148.7513,-20.2441],[148.7533,-20.2579],[148.7527,-20.2614],[148.7516,-20.2606],[148.753,-20.2623],[148.7517,-20.2613],[148.7501,-20.2628],[148.7475,-20.2624],[148.7409,-20.2587],[148.7399,-20.253],[148.7339,-20.2535],[148.6803,-20.231],[148.6713,-20.2381],[148.6706,-20.2441],[148.6683,-20.2471],[148.6633,-20.2473],[148.6627,-20.2375],[148.6679,-20.2353],[148.6681,-20.2317],[148.6614,-20.2213],[148.6605,-20.217],[148.6634,-20.2136],[148.6657,-20.2037],[148.6725,-20.1952],[148.6767,-20.1931],[148.6781,-20.187],[148.6769,-20.1757],[148.6736,-20.1817],[148.6764,-20.1851],[148.6765,-20.1882],[148.673,-20.1917],[148.6677,-20.1935],[148.6664,-20.1994],[148.6606,-20.2014],[148.6612,-20.2068],[148.6531,-20.2166],[148.6478,-20.2156],[148.6449,-20.2125],[148.6481,-20.2026],[148.6459,-20.195],[148.6461,-20.1739],[148.6386,-20.1706],[148.6359,-20.1734],[148.6335,-20.1826],[148.6302,-20.1856],[148.628,-20.1905],[148.6293,-20.2001],[148.6338,-20.2099],[148.6336,-20.2162],[148.63,-20.2198],[148.6258,-20.2194],[148.624,-20.2166],[148.6202,-20.2155],[148.6182,-20.2162],[148.6161,-20.2208],[148.6141,-20.221],[148.6116,-20.2162],[148.6047,-20.2137],[148.6015,-20.2105],[148.6044,-20.2066],[148.6037,-20.2024],[148.6131,-20.194],[148.6201,-20.1771],[148.6131,-20.1829],[148.6083,-20.184],[148.5976,-20.2011],[148.5898,-20.1993],[148.5854,-20.1958],[148.5823,-20.1965],[148.5817,-20.1902],[148.5835,-20.1809],[148.5868,-20.1774],[148.5931,-20.1757],[148.5977,-20.1678],[148.5951,-20.16],[148.6201,-20.16],[148.6201,-20.12],[148.6001,-20.12],[148.5918,-20.1529],[148.5797,-20.1275],[148.5674,-20.1133],[148.58,-20.1133],[148.5801,-20.0899],[148.5656,-20.09],[148.5601,-20.1062],[148.555,-20.1061],[148.5535,-20.1027],[148.5567,-20.0994],[148.5532,-20.0943],[148.5594,-20.091],[148.5611,-20.0885],[148.5607,-20.085],[148.5662,-20.0818],[148.5641,-20.0777],[148.5661,-20.0757],[148.5613,-20.0709],[148.5636,-20.067],[148.5563,-20.0659],[148.5535,-20.0691],[148.5563,-20.072],[148.556,-20.0737],[148.5467,-20.0731],[148.5454,-20.0753],[148.5406,-20.0763],[148.5398,-20.0788],[148.5369,-20.0788],[148.5302,-20.0847],[148.5146,-20.0768],[148.4832,-20.0458],[148.4832,-19.9958],[148.4665,-19.9791],[148.4665,-19.9666],[148.4457,-19.9666],[148.4331,-19.9791],[148.4331,-20.025],[148.4373,-20.0458],[148.4539,-20.0558],[148.4539,-20.0603],[148.3277,-20.0735],[148.3077,-20.0418],[148.3077,-20.0118],[148.2746,-20.0118],[148.2728,-20.006],[148.2659,-20.0002],[148.2661,-19.9943],[148.2681,-19.9924],[148.2663,-19.9901],[148.2679,-19.9885],[148.2671,-19.9846],[148.2645,-19.9838],[148.2602,-19.9745],[148.257,-19.9851],[148.241,-19.9848],[148.2323,-19.9769],[148.2266,-19.9658],[148.2216,-19.9641],[148.2233,-19.9594],[148.2213,-19.957],[148.2079,-19.9503],[148.2062,-19.9515],[148.1992,-19.9475],[148.1938,-19.949],[148.1963,-19.9501],[148.1939,-19.9516],[148.1912,-19.9494],[148.1789,-19.9469],[148.1731,-19.9504],[148.173,-19.9485],[148.1699,-19.9478],[148.1708,-19.9499],[148.1692,-19.9515],[148.1637,-19.95],[148.1631,-19.9484],[148.1492,-19.9452],[148.1458,-19.9452],[148.142,-19.9475],[148.141,-19.9448],[148.1364,-19.9465],[148.1254,-19.9428],[148.1206,-19.9423],[148.1203,-19.9447],[148.1077,-19.9385],[148.1077,-19.8452],[148.036,-19.8452],[148.036,-19.8913],[148.0265,-19.8937],[148.0198,-19.8994],[148.0181,-19.9019],[148.0174,-19.912],[148.0059,-19.9183],[148.0079,-19.9188],[148.0038,-19.92],[148.0053,-19.9204],[148.0011,-19.9241],[147.9961,-19.9265],[147.9939,-19.9251],[147.987,-19.9266],[147.9805,-19.9239],[147.908,-19.8437],[147.9,-19.7656],[147.8234,-19.6974],[147.7391,-19.6974],[147.7391,-19.7516],[147.5995,-19.7516],[147.5942,-19.7328],[147.5874,-19.7252],[147.5921,-19.7137],[147.5964,-19.7116],[147.5965,-19.7036],[147.6042,-19.6913],[147.6053,-19.6701],[147.6071,-19.6685],[147.6072,-19.6625],[147.598,-19.6486],[147.594,-19.6491],[147.5907,-19.6464],[147.5872,-19.6459],[147.5865,-19.6396],[147.5848,-19.64],[147.5826,-19.6369],[147.5738,-19.6323],[147.5729,-19.6287],[147.5751,-19.6272],[147.5772,-19.6279],[147.5791,-19.6235],[147.5764,-19.6097],[147.572,-19.6055],[147.572,-19.5976],[147.5738,-19.596],[147.5717,-19.5816],[147.5648,-19.5613],[147.551,-19.5334],[147.5457,-19.5261],[147.5445,-19.5265],[147.546,-19.5278],[147.5453,-19.5291],[147.5396,-19.5312],[147.5374,-19.526],[147.5299,-19.5167],[147.5289,-19.5128],[147.5185,-19.4987],[147.5174,-19.4911],[147.5142,-19.492],[147.5073,-19.4756],[147.4953,-19.4627],[147.4931,-19.4627],[147.4943,-19.4642],[147.4932,-19.4656],[147.4894,-19.467],[147.4877,-19.4658],[147.4803,-19.4491],[147.4804,-19.4478],[147.5215,-19.4478],[147.4724,-19.3646],[147.4121,-19.3],[147.378,-19.3],[147.378,-19.2667],[147.2614,-19.2667],[147.2614,-19.388],[147.1135,-19.388],[147.1081,-19.3804],[147.0868,-19.3642],[147.0726,-19.349],[147.0706,-19.3486],[147.0706,-19.3507],[147.0673,-19.3475],[147.0648,-19.3424],[147.0661,-19.34],[147.0498,-19.3067],[147.0455,-19.305],[147.0434,-19.3022],[147.0409,-19.302],[147.0403,-19.2929],[147.0491,-19.2924],[147.0491,-19.282],[147.0691,-19.282],[147.0691,-19.2625],[147.0772,-19.2625],[147.0772,-19.2526],[147.0691,-19.2526],[147.0761,-19.168],[147.012,-19.18],[146.8631,-19.2909],[146.8578,-19.2829],[147.001,-19.1267],[146.8943,-19.1266],[146.8873,-19.1125],[146.8873,-19.1001],[146.833,-19.1001],[146.833,-19.1048],[146.8023,-19.1155],[146.7975,-19.1137],[146.7914,-19.1159],[146.7897,-19.1151],[146.7872,-19.1217],[146.7813,-19.1237],[146.779,-19.1287],[146.7798,-19.1306],[146.6469,-19.1762],[146.6322,-19.1722],[146.6167,-19.1641],[146.6024,-19.1505],[146.6002,-19.1515],[146.5944,-19.1472],[146.5812,-19.145],[146.5708,-19.1461],[146.5631,-19.144],[146.5525,-19.1346],[146.545,-19.1213],[146.5333,-19.1157],[146.5167,-19.1008],[146.5142,-19.0998],[146.5126,-19.1017],[146.5056,-19.0988],[146.5012,-19.0998],[146.4961,-19.0986],[146.4909,-19.096],[146.481,-19.0865],[146.4774,-19.0804],[146.4708,-19.0756],[146.4551,-19.074],[146.4495,-19.0685],[146.4506,-19.0638],[146.4486,-19.0613],[146.4434,-19.0612],[146.4381,-19.0548],[146.4284,-19.0413],[146.4265,-19.0363],[146.4226,-19.0336],[146.4074,-19.0111],[146.4048,-19.0078],[146.4018,-19.0067],[146.4007,-19.0031],[146.3961,-18.9981],[146.3896,-18.9974],[146.3878,-18.9994],[146.3826,-18.9993],[146.3758,-18.9939],[146.3715,-18.9882],[146.3633,-18.9676],[146.3609,-18.9672],[146.3602,-18.9647],[146.3582,-18.9644],[146.3545,-18.9597],[146.3441,-18.9593],[146.3337,-18.9537],[146.3301,-18.9383],[146.3222,-18.9277],[146.3216,-18.9241],[146.3163,-18.9172],[146.3115,-18.9152],[146.305,-18.9066],[146.2995,-18.903],[146.2888,-18.8888],[146.2872,-18.8886],[146.285,-18.8833],[146.2846,-18.8743],[146.3626,-18.8743],[146.3626,-18.9281],[146.473,-18.9281],[146.473,-18.8519],[146.4468,-18.8519],[146.4468,-18.7495],[146.2878,-18.7495],[146.2889,-18.742],[146.2905,-18.7416],[146.2924,-18.7377],[146.3028,-18.7005],[146.3217,-18.6593],[146.3359,-18.6341],[146.337,-18.6272],[146.3323,-18.6207],[146.3357,-18.6161],[146.338,-18.6092],[146.3382,-18.6065],[146.3362,-18.604],[146.3368,-18.5957],[146.3408,-18.5785],[146.3896,-18.5785],[146.3928,-18.5639],[146.3924,-18.5474],[146.3944,-18.5358],[146.3935,-18.5178],[146.3914,-18.5102],[146.3846,-18.4985],[146.3363,-18.5129],[146.3296,-18.496],[146.3401,-18.496],[146.3401,-18.456],[146.3441,-18.444],[146.3681,-18.4312],[146.3681,-18.343],[146.3111,-18.343],[146.2931,-18.3175],[146.3007,-18.288],[146.3243,-18.2465],[146.331,-18.2399],[146.331,-18.216],[146.3767,-18.216],[146.3767,-18.127],[146.2306,-18.127],[146.1638,-18.1418],[146.013,-18.2132],[146.0098,-18.1883],[146.0073,-18.1806],[146.0075,-18.1624],[146.0092,-18.16],[146.006,-18.1409],[146.0063,-18.1276],[146.0099,-18.1164],[146.0209,-18.0976],[146.0255,-18.0925],[146.0261,-18.0857],[146.03,-18.0831],[146.0379,-18.0488],[146.0417,-18.0408],[146.0499,-18.0328],[146.1,-18.0328],[146.1913,-18.0571],[146.1913,-18.066],[146.2217,-18.066],[146.2217,-17.9922],[146.1994,-17.9922],[146.1702,-17.91],[146.1703,-17.7987],[146.1902,-17.7199],[146.1927,-17.6502],[146.171,-17.5818],[146.1183,-17.5818],[146.1026,-17.5702],[146.0793,-17.537],[146.079,-17.5307],[146.0698,-17.5232],[146.0696,-17.5118],[146.0774,-17.506],[146.0774,-17.4801],[146.0764,-17.477],[146.0733,-17.477],[146.0705,-17.4742],[146.0647,-17.461],[146.0639,-17.4547],[146.0658,-17.4348],[146.0697,-17.4186],[146.0914,-17.4186],[146.0914,-17.4009],[146.0724,-17.4009],[146.0724,-17.3945],[146.069,-17.392],[146.0672,-17.3878],[146.0611,-17.3845],[146.0556,-17.3874],[146.0513,-17.3854],[146.0431,-17.3753],[146.0358,-17.3607],[146.0196,-17.3456],[146.0056,-17.3147],[146.0008,-17.2916],[145.9987,-17.2894],[145.9968,-17.2819],[145.9962,-17.2742],[145.9832,-17.2497],[145.9794,-17.2473],[145.976,-17.2487],[145.9762,-17.2202],[145.9697,-17.2185],[145.97,-17.212],[145.9629,-17.1957],[145.9615,-17.1803],[145.9653,-17.1707],[145.9634,-17.1685],[145.9863,-17.1684],[145.9863,-17.1309],[145.9747,-17.1186],[145.9299,-17.1176],[145.9222,-17.1068],[145.9164,-17.0873],[145.9131,-17.0864],[145.9087,-17.0822],[145.9017,-17.0744],[145.8969,-17.0659],[145.8926,-17.0643],[145.891,-17.0599],[145.8905,-17.0377],[145.8963,-17.0149],[145.8996,-17.0078],[145.9063,-17.0078],[145.9632,-16.905],[145.9633,-16.8944],[145.929,-16.86],[145.915,-16.8601],[145.8494,-16.8702],[145.8493,-16.8185],[145.6941,-16.7753],[145.694,-16.74],[145.7,-16.734],[145.7,-16.722],[145.6273,-16.7048],[145.6212,-16.6992],[145.604,-16.6938],[145.5972,-16.6938],[145.5904,-16.6888],[145.582,-16.6872],[145.5737,-16.6705],[145.5709,-16.6595],[145.6176,-16.6595],[145.6176,-16.6371],[145.562,-16.566],[145.532,-16.5],[145.5321,-16.4583],[145.466,-16.4583],[145.461,-16.3509],[145.461,-16.3189],[145.5187,-16.3189],[145.5187,-16.2964],[145.4908,-16.274],[145.4908,-16.2374],[145.476,-16.2225],[145.476,-16.21],[145.461,-16.197],[145.454,-16.197],[145.454,-16.167],[145.461,-16.138],[145.481,-16.0809],[145.5595,-16.0809],[145.5595,-16.3392],[145.5423,-16.3392],[145.5423,-16.4142],[145.5791,-16.4533],[145.6802,-16.4532],[145.7235,-16.48],[145.84,-16.48],[145.86,-16.46],[145.86,-16.42],[145.9504,-16.3296],[145.9261,-16.3102],[145.9261,-16.1847],[145.8871,-16.164],[145.88,-16.1542],[145.88,-16.08],[145.9808,-16.08],[146.0059,-16.1186]],[[146.4751,-18.5611],[146.4751,-18.655],[146.4831,-18.673],[146.4915,-18.673],[146.4915,-18.6833],[146.505,-18.75],[146.505,-18.7916],[146.56,-18.7916],[146.56,-18.83],[146.5336,-18.82],[146.5183,-18.82],[146.5183,-18.8441],[146.53,-18.85],[146.54,-18.86],[146.56,-18.86],[146.56,-18.9017],[146.7268,-18.9017],[146.7268,-18.9504],[146.9951,-18.9504],[146.9951,-18.8297],[146.5511,-18.5333],[146.475,-18.5333],[146.4751,-18.5611]],[[145.965,-16.4512],[145.965,-16.5344],[145.94,-16.5344],[145.94,-16.56],[145.9,-16.64],[145.92,-16.7],[145.9373,-16.7],[145.9373,-16.7401],[145.961,-16.7761],[146,-16.8101],[146.04,-16.8101],[146.04,-16.7801],[146.0749,-16.7801],[146.1271,-16.7359],[146.1877,-16.6139],[146.0707,-16.3899],[146.021,-16.3899],[146.021,-16.4],[145.965,-16.4],[145.965,-16.4512]],[[147.5111,-19.2149],[147.5111,-19.3223],[147.6329,-19.3223],[147.6329,-19.4508],[147.7064,-19.4508],[147.7064,-19.2149],[147.5111,-19.2149]],[[146.56,-17.981],[146.5048,-18.034],[146.4894,-18.0642],[146.4894,-18.1106],[146.5041,-18.1244],[146.5269,-18.1286],[146.5764,-18.1041],[146.6393,-18.0422],[146.6393,-17.9598],[146.58,-17.9598],[146.58,-17.981],[146.56,-17.981]],[[147.0201,-18.65],[147.0401,-18.66],[147.0601,-18.66],[147.0901,-18.65],[147.0901,-18.61],[147.0201,-18.61],[147.0201,-18.65]],[[147.9165,-19.0083],[147.9165,-19.05],[147.9291,-19.0625],[147.954,-19.0625],[147.954,-19.025],[147.9373,-19.0083],[147.9165,-19.0083]],[[147.2732,-18.6108],[147.2732,-18.646],[147.3153,-18.646],[147.3153,-18.6108],[147.2732,-18.6108]],[[145.977,-16.929],[145.9854,-16.95],[146.02,-16.95],[146.02,-16.91],[145.996,-16.91],[145.977,-16.929]],[[147.08,-18.7],[147.0867,-18.7066],[147.1134,-18.7066],[147.1267,-18.7],[147.1267,-18.68],[147.1134,-18.6733],[147.1001,-18.6733],[147.08,-18.6867],[147.08,-18.7]],[[146.066,-17.2],[146.066,-17.238],[146.1,-17.238],[146.1,-17.2],[146.066,-17.2]],[[147.2481,-18.7551],[147.2636,-18.7659],[147.2757,-18.7659],[147.2997,-18.7423],[147.2762,-18.7259],[147.2481,-18.7465],[147.2481,-18.7551]],[[145.98,-16.31],[146,-16.33],[146.02,-16.31],[146.02,-16.29],[145.99,-16.29],[145.98,-16.3],[145.98,-16.31]],[[146.6483,-19.0347],[146.6422,-19.0164],[146.59,-19.0279],[146.5828,-19.0312],[146.5828,-19.0375],[146.5955,-19.0454],[146.6483,-19.0347]],[[148.6361,-20.087],[148.6361,-20.118],[148.6691,-20.118],[148.6691,-20.087],[148.6361,-20.087]],[[145.9997,-17.1655],[146.0113,-17.1759],[146.0239,-17.1759],[146.0239,-17.1304],[145.9997,-17.1304],[145.9997,-17.1655]],[[148.4501,-19.34],[148.4501,-19.3057],[148.4307,-19.3057],[148.42,-19.3154],[148.42,-19.34],[148.4501,-19.34]],[[146.8657,-18.4956],[146.8901,-18.4957],[146.89,-18.47],[146.8818,-18.4617],[146.86,-18.4687],[146.86,-18.49],[146.8657,-18.4956]],[[146.4601,-18.1],[146.4601,-18.07],[146.43,-18.07],[146.43,-18.09],[146.44,-18.1],[146.4601,-18.1]],[[148.3501,-19.38],[148.3501,-19.35],[148.3301,-19.35],[148.32,-19.3642],[148.32,-19.38],[148.3501,-19.38]],[[148.36,-19.2943],[148.36,-19.2648],[148.3376,-19.2648],[148.33,-19.28],[148.33,-19.2943],[148.36,-19.2943]],[[148.3396,-19.7182],[148.3396,-19.7421],[148.3718,-19.7421],[148.3718,-19.7182],[148.3396,-19.7182]],[[146.6267,-18.9534],[146.62,-18.96],[146.614,-18.9721],[146.614,-18.9821],[146.6241,-18.9821],[146.6467,-18.9734],[146.6467,-18.9534],[146.6267,-18.9534]],[[147.6222,-19.1498],[147.6243,-19.1533],[147.6446,-19.1533],[147.6446,-19.1282],[147.6151,-19.1282],[147.6151,-19.1379],[147.6222,-19.1498]],[[146.5467,-19.0867],[146.5467,-19.1],[146.5734,-19.1133],[146.5801,-19.1],[146.5601,-19.0867],[146.5467,-19.0867]],[[146.6734,-18.9867],[146.6734,-19.0067],[146.7001,-19.0067],[146.7001,-18.9933],[146.6934,-18.9867],[146.6734,-18.9867]],[[148.7021,-20.106],[148.7021,-20.119],[148.711,-20.119],[148.7291,-20.105],[148.7291,-20.096],[148.7151,-20.096],[148.7021,-20.106]],[[148.528,-20.062],[148.528,-20.074],[148.5401,-20.074],[148.5501,-20.064],[148.5501,-20.052],[148.538,-20.052],[148.528,-20.062]],[[148.3528,-19.764],[148.3528,-19.7799],[148.3767,-19.7799],[148.3767,-19.764],[148.3528,-19.764]],[[148.7067,-20.1733],[148.7001,-20.18],[148.7001,-20.1933],[148.7134,-20.1933],[148.7201,-20.1867],[148.7201,-20.1733],[148.7067,-20.1733]],[[148.356,-19.976],[148.356,-19.992],[148.3761,-19.992],[148.3761,-19.976],[148.356,-19.976]],[[148.6001,-20.0867],[148.6001,-20.1067],[148.6157,-20.1068],[148.6157,-20.0867],[148.6001,-20.0867]],[[146.3385,-18.6934],[146.3385,-18.6734],[146.3251,-18.6734],[146.3251,-18.6934],[146.3385,-18.6934]],[[146.3537,-18.9448],[146.3537,-18.9284],[146.3382,-18.9284],[146.3382,-18.9448],[146.3537,-18.9448]],[[145.8688,-16.5557],[145.8688,-16.5404],[145.8533,-16.5404],[145.8533,-16.5557],[145.8688,-16.5557]],[[146.752,-19.114],[146.752,-19.124],[146.7601,-19.124],[146.7601,-19.114],[146.752,-19.114]],[[147.8791,-19.4413],[147.8791,-19.4513],[147.8871,-19.4513],[147.8871,-19.4413],[147.8791,-19.4413]],[[146.7061,-19.124],[146.7061,-19.134],[146.7141,-19.134],[146.7141,-19.124],[146.7061,-19.124]],[[146.1123,-17.475],[146.1123,-17.4833],[146.1206,-17.4833],[146.1206,-17.475],[146.1123,-17.475]],[[146.1581,-17.5666],[146.1581,-17.5749],[146.1664,-17.5749],[146.1664,-17.5666],[146.1581,-17.5666]],[[147.9863,-19.9245],[147.993,-19.9221],[147.9894,-19.9217],[147.9863,-19.9245]],[[148.0003,-19.9223],[147.9977,-19.9234],[148.0015,-19.9229],[148.0003,-19.9223]],[[147.5946,-19.6459],[147.5963,-19.6481],[147.5966,-19.647],[147.5946,-19.6459]],[[147.9967,-19.9231],[147.9991,-19.9224],[147.9983,-19.9222],[147.9967,-19.9231]]]},"properties":{"id":"gbrmpa-zone-419","type":"General Use Zone","zone":"Light Blue Zone","color":"#7fc3dd","name":"GU-16-6004","permit":null,"source":"GBRMPA"}},{"type":"Feature","geometry":{"type":"Polygon","coordinates":[[[146.0239,-17.1304],[146.0239,-17.1759],[146.0113,-17.1759],[145.9997,-17.1655],[145.9997,-17.1304],[146.0239,-17.1304]],[[146.0092,-17.1527],[146.0049,-17.1528],[146.0046,-17.1549],[146.0098,-17.161],[146.0097,-17.1642],[146.0113,-17.1658],[146.0118,-17.1615],[146.0162,-17.1557],[146.0092,-17.1527]]]},"properties":{"id":"gbrmpa-zone-396","type":"Habitat Protection Zone","zone":"Dark Blue Zone","color":"#3f6fb0","name":"HP-17-5136","permit":"High Island Reef (17-009)","source":"GBRMPA"}},{"type":"Feature","geometry":{"type":"Polygon","coordinates":[[[146.7924,-18.0121],[146.7472,-18.0121],[146.7472,-17.9785],[146.7924,-17.9785],[146.7924,-18.0121]]]},"properties":{"id":"gbrmpa-zone-296","type":"Preservation Zone","zone":"Pink Zone","color":"#e58fb0","name":"P-17-16","permit":"Unnamed reef 17-069","source":"GBRMPA"}},{"type":"Feature","geometry":{"type":"Polygon","coordinates":[[[146.2724,-16.8999],[146.1775,-16.8999],[146.1648,-16.8873],[146.1648,-16.8708],[146.2165,-16.8386],[146.2468,-16.8386],[146.2724,-16.8674],[146.2724,-16.8999]]]},"properties":{"id":"gbrmpa-zone-357","type":"Marine National Park Zone","zone":"Green Zone","color":"#2fae5a","name":"MNP-16-1058","permit":"Moore Reef (16-071)","source":"GBRMPA"}},{"type":"Feature","geometry":{"type":"Polygon","coordinates":[[[146.256,-16.692],[146.244,-16.692],[146.244,-16.68],[146.256,-16.68],[146.256,-16.692]]]},"properties":{"id":"gbrmpa-zone-365","type":"Preservation Zone","zone":"Pink Zone","color":"#e58fb0","name":"P-16-14","permit":"Euston Reef north (16-063)","source":"GBRMPA"}},{"type":"Feature","geometry":{"type":"Polygon","coordinates":[[[146.181,-17.6782],[146.1771,-17.6759],[146.1807,-17.6746],[146.1823,-17.6772],[146.181,-17.6782]]]},"properties":{"id":"gbrmpa-zone-677","type":"Commonwealth Islands Zone (GBRMPA)","zone":"Commonwealth Island Zone","color":"#b0b8bd","name":"Kent Island (17043104)","permit":null,"source":"GBRMPA"}},{"type":"Feature","geometry":{"type":"Polygon","coordinates":[[[146.1026,-17.5702],[146.0909,-17.5612],[146.0889,-17.5494],[146.1026,-17.5702]]]},"properties":{"id":"gbrmpa-zone-385","type":"Habitat Protection Zone","zone":"Dark Blue Zone","color":"#3f6fb0","name":"HP-17-5138","permit":"Etty Bay coastal area","source":"GBRMPA"}},{"type":"Feature","geometry":{"type":"Polygon","coordinates":[[[146.1877,-16.6139],[146.1271,-16.7359],[146.0749,-16.7801],[146.04,-16.7801],[146,-16.74],[145.9534,-16.7252],[145.9373,-16.7252],[145.9373,-16.7],[145.9473,-16.7],[145.9599,-16.6684],[146.0132,-16.6684],[146.0132,-16.6237],[146.0765,-16.5767],[146.0765,-16.5177],[146.021,-16.4],[146.021,-16.3899],[146.0707,-16.3899],[146.1877,-16.6139]]]},"properties":{"id":"gbrmpa-zone-377","type":"Habitat Protection Zone","zone":"Dark Blue Zone","color":"#3f6fb0","name":"HP-16-5126","permit":"Arlington Reef to Spur Reef: Spur Reef (16-034), Onyx Reef (16-035), Nicholas Reef (16-036), Hope Reef (16-058) Fin Reef (16-061), unnamed reefs (16-062a, b, c and 16-800) and Arlington Reef (16-064)","source":"GBRMPA"}},{"type":"Feature","geometry":{"type":"Polygon","coordinates":[[[146.4301,-16.0793],[146.3263,-16.0793],[146.1513,-15.6734],[146.2684,-15.6734],[146.4301,-16.0793]]]},"properties":{"id":"gbrmpa-zone-431","type":"Marine National Park Zone","zone":"Green Zone","color":"#2fae5a","name":"MNP-15-1043","permit":"Offshore Agincourt Reefs - adjacent to Marine Park boundary","source":"GBRMPA"}},{"type":"Feature","geometry":{"type":"Polygon","coordinates":[[[146.1602,-17.6572],[146.1594,-17.6575],[146.1588,-17.6557],[146.1602,-17.6572]]]},"properties":{"id":"gbrmpa-zone-680","type":"Commonwealth Islands Zone (Other)","zone":"Commonwealth Island","color":"#9aa7ad","name":"Lindquist Island (17040102)","permit":null,"source":"GBRMPA"}},{"type":"Feature","geometry":{"type":"Polygon","coordinates":[[[147.0011,-17.4985],[146.8727,-17.4985],[146.6336,-17],[146.7994,-17],[147.0011,-17.4985]]]},"properties":{"id":"gbrmpa-zone-400","type":"Habitat Protection Zone","zone":"Dark Blue Zone","color":"#3f6fb0","name":"HP-16-5135","permit":"Cairns outer shelf","source":"GBRMPA"}},{"type":"Feature","geometry":{"type":"Polygon","coordinates":[[[146.6,-17.823],[146.541,-17.87],[146.457,-17.87],[146.434,-17.822],[146.517,-17.822],[146.542,-17.8],[146.588,-17.8],[146.6,-17.823]],[[146.5329,-17.8376],[146.5345,-17.8392],[146.5368,-17.8367],[146.5329,-17.8376]],[[146.4875,-17.838],[146.4861,-17.838],[146.4869,-17.8387],[146.4875,-17.838]]]},"properties":{"id":"gbrmpa-zone-302","type":"Marine National Park Zone","zone":"Green Zone","color":"#2fae5a","name":"MNP-17-1071","permit":"Beaver Reef (17-051) and Taylor Reef (17-064)","source":"GBRMPA"}},{"type":"Feature","geometry":{"type":"Polygon","coordinates":[[[146.2217,-17.9922],[146.2217,-18.066],[146.1913,-18.066],[146.1913,-17.9922],[146.2217,-17.9922]],[[146.2018,-18.0524],[146.2039,-18.0508],[146.1996,-18.0476],[146.2018,-18.0524]],[[146.1993,-18.0385],[146.2018,-18.0379],[146.1993,-18.0368],[146.1983,-18.0376],[146.1993,-18.0385]],[[146.1974,-18.0441],[146.198,-18.0414],[146.1964,-18.0412],[146.1974,-18.0441]]]},"properties":{"id":"gbrmpa-zone-351","type":"Marine National Park Zone","zone":"Green Zone","color":"#2fae5a","name":"MNP-17-1075","permit":"Family Islands","source":"GBRMPA"}},{"type":"Feature","geometry":{"type":"Polygon","coordinates":[[[146.1206,-17.4833],[146.1123,-17.4833],[146.1123,-17.475],[146.1206,-17.475],[146.1206,-17.4833]]]},"properties":{"id":"gbrmpa-zone-388","type":"Habitat Protection Zone","zone":"Dark Blue Zone","color":"#3f6fb0","name":"HP-17-5137","permit":"The Twins Reef (17-022)","source":"GBRMPA"}},{"type":"Feature","geometry":{"type":"Polygon","coordinates":[[[146.1,-17.2],[146.1,-17.238],[146.066,-17.238],[146.066,-17.2],[146.1,-17.2]],[[146.0761,-17.2141],[146.0798,-17.2169],[146.0821,-17.2158],[146.0799,-17.2056],[146.0762,-17.2024],[146.0728,-17.205],[146.0728,-17.2094],[146.0761,-17.2141]],[[146.0927,-17.2221],[146.0905,-17.2245],[146.0928,-17.2274],[146.0921,-17.2297],[146.0946,-17.2312],[146.0959,-17.228],[146.0934,-17.2259],[146.0941,-17.2235],[146.0927,-17.2221]],[[146.089,-17.2168],[146.089,-17.2178],[146.0895,-17.2171],[146.089,-17.2168]],[[146.0912,-17.2208],[146.0913,-17.2205],[146.0911,-17.2206],[146.0912,-17.2208]],[[146.0882,-17.2163],[146.088,-17.2162],[146.0881,-17.2164],[146.0882,-17.2163]],[[146.0896,-17.2176],[146.0894,-17.2176],[146.0895,-17.2177],[146.0896,-17.2176]],[[146.0896,-17.2174],[146.0896,-17.2176],[146.0897,-17.2174],[146.0896,-17.2174]],[[146.0894,-17.2177],[146.0893,-17.2178],[146.0894,-17.2178],[146.0894,-17.2177]],[[146.0942,-17.2231],[146.0942,-17.223],[146.0941,-17.223],[146.0942,-17.2231]],[[146.0882,-17.2162],[146.0883,-17.2163],[146.0883,-17.2162],[146.0882,-17.2162]],[[146.0955,-17.2287],[146.0956,-17.2287],[146.0956,-17.2286],[146.0955,-17.2287]],[[146.0954,-17.2326],[146.0955,-17.2326],[146.0954,-17.2326],[146.0954,-17.2326]],[[146.0946,-17.2322],[146.0947,-17.2322],[146.0947,-17.2321],[146.0946,-17.2322]],[[146.0948,-17.2324],[146.0948,-17.2324],[146.0948,-17.2324],[146.0948,-17.2324]],[[146.0959,-17.2279],[146.096,-17.2279],[146.096,-17.2279],[146.0959,-17.2279]],[[146.0941,-17.2232],[146.0942,-17.2232],[146.0942,-17.2231],[146.0941,-17.2232]],[[146.0882,-17.2165],[146.0883,-17.2165],[146.0883,-17.2165],[146.0882,-17.2165]],[[146.0948,-17.2311],[146.0948,-17.2311],[146.0948,-17.2311],[146.0948,-17.2311]],[[146.0958,-17.2278],[146.0958,-17.2278],[146.0958,-17.2278],[146.0958,-17.2278]],[[146.0947,-17.2321],[146.0947,-17.2321],[146.0947,-17.232],[146.0947,-17.2321]],[[146.0946,-17.2312],[146.0947,-17.2312],[146.0946,-17.2312],[146.0946,-17.2312]],[[146.0895,-17.2174],[146.0895,-17.2174],[146.0895,-17.2174],[146.0895,-17.2174]],[[146.0957,-17.2279],[146.0958,-17.2279],[146.0957,-17.2278],[146.0957,-17.2279]]]},"properties":{"id":"gbrmpa-zone-394","type":"Conservation Park Zone","zone":"Yellow Zone","color":"#e8c23f","name":"CP-17-4041","permit":"Frankland Islands","source":"GBRMPA"}},{"type":"Feature","geometry":{"type":"Polygon","coordinates":[[[147.8287,-18.3629],[147.7879,-18.416],[147.1276,-17.9916],[147.4003,-17.7454],[148.014,-18.1218],[147.8287,-18.3629]]]},"properties":{"id":"gbrmpa-zone-380","type":"Buffer Zone","zone":"Olive Green Zone","color":"#94a84f","name":"B-17-3011","permit":"Offshore Townsville - adjacent to Marine Park boundary","source":"GBRMPA"}},{"type":"Feature","geometry":{"type":"Polygon","coordinates":[[[145.977,-16.929],[145.996,-16.91],[146.02,-16.91],[146.02,-16.95],[145.9854,-16.95],[145.977,-16.929]],[[145.9905,-16.925],[145.9905,-16.9251],[145.9905,-16.9251],[145.9905,-16.925]],[[145.9904,-16.9249],[145.9905,-16.9249],[145.9905,-16.9248],[145.9904,-16.9249]],[[146.007,-16.9212],[146.0071,-16.9213],[146.0071,-16.9212],[146.007,-16.9212]],[[145.9938,-16.9235],[145.9939,-16.9235],[145.9938,-16.9235],[145.9938,-16.9235]],[[145.9907,-16.9245],[145.9906,-16.9246],[145.9907,-16.9245],[145.9907,-16.9245]],[[146.0056,-16.9235],[146.0058,-16.9235],[146.0057,-16.9234],[146.0056,-16.9235]],[[146.0069,-16.9235],[146.0071,-16.9236],[146.0071,-16.9235],[146.0069,-16.9235]],[[146.007,-16.9213],[146.0069,-16.9213],[146.0069,-16.9215],[146.007,-16.9213]],[[145.9902,-16.9248],[145.9904,-16.925],[145.9901,-16.9249],[145.9902,-16.9248]],[[146.0066,-16.9215],[146.0056,-16.9231],[146.0065,-16.9237],[146.0066,-16.9215]],[[146.0047,-16.9238],[145.9997,-16.9223],[145.9927,-16.9235],[145.9906,-16.9253],[145.9884,-16.9313],[145.9828,-16.9349],[145.9856,-16.9423],[145.9875,-16.9436],[145.9921,-16.9429],[146.0002,-16.937],[146.0028,-16.9329],[146.0047,-16.9238]]]},"properties":{"id":"gbrmpa-zone-403","type":"Conservation Park Zone","zone":"Yellow Zone","color":"#e8c23f","name":"CP-16-4039","permit":"Fitzroy and Little Fitzroy Islands","source":"GBRMPA"}},{"type":"Feature","geometry":{"type":"Polygon","coordinates":[[[146.2889,-16.7437],[146.2523,-16.7437],[146.2523,-16.7134],[146.2889,-16.7134],[146.2889,-16.7437]]]},"properties":{"id":"gbrmpa-zone-363","type":"Conservation Park Zone","zone":"Yellow Zone","color":"#e8c23f","name":"CP-16-4035","permit":"Flynn Reef (16-065)","source":"GBRMPA"}},{"type":"Feature","geometry":{"type":"Polygon","coordinates":[[[146.1098,-17.9781],[146.1098,-17.9911],[146.0781,-17.9911],[146.0947,-17.9741],[146.0988,-17.9738],[146.1006,-17.978],[146.1098,-17.9781]]]},"properties":{"id":"gbrmpa-zone-297","type":"Marine National Park Zone","zone":"Green Zone","color":"#2fae5a","name":"MNP-17-1074","permit":"Tam O'Shanter Point","source":"GBRMPA"}},{"type":"Feature","geometry":{"type":"Polygon","coordinates":[[[145.3038,-13.6081],[145.654,-14.3088],[145.5188,-14.4627],[145.5099,-14.4851],[145.5087,-14.4976],[145.5276,-14.5194],[145.5368,-14.5243],[145.5591,-14.5273],[145.5667,-14.5476],[145.58,-14.5664],[145.5985,-14.5831],[145.6129,-14.6262],[145.6418,-14.6832],[145.6801,-14.7492],[145.6801,-14.9063],[145.6688,-14.9063],[145.6688,-14.972],[145.6916,-14.972],[145.7023,-14.9522],[145.7295,-14.9522],[145.7295,-15.0236],[145.75,-15.0236],[145.75,-15.19],[145.73,-15.19],[145.58,-15.26],[145.5,-15.26],[145.5,-15.3897],[145.5909,-15.3897],[145.6548,-15.3686],[145.7844,-15.3306],[145.9187,-15.3306],[145.9187,-15.3555],[146.1422,-15.3555],[146.2684,-15.6734],[146.1513,-15.6734],[146.3263,-16.0793],[146.4301,-16.0793],[146.5092,-16.2775],[146.2188,-16.2775],[146.2188,-16.3771],[146.1743,-16.3771],[145.9808,-16.08],[145.9598,-16.08],[145.9598,-15.9121],[145.8158,-15.9121],[145.7829,-15.9467],[145.7829,-16.06],[145.85,-16.06],[145.87,-16.08],[145.88,-16.08],[145.88,-16.1542],[145.8871,-16.164],[145.8055,-16.2793],[145.8522,-16.3102],[145.9261,-16.3102],[145.9504,-16.3296],[145.86,-16.42],[145.86,-16.46],[145.84,-16.48],[145.7235,-16.48],[145.6802,-16.4532],[145.6674,-16.4532],[145.6674,-16.354],[145.6412,-16.3023],[145.61,-16.1665],[145.61,-15.84],[145.6475,-15.84],[145.6475,-15.7911],[145.7532,-15.7912],[145.7532,-15.6656],[145.5831,-15.6656],[145.5831,-15.75],[145.5,-15.75],[145.5,-15.7129],[145.4243,-15.6501],[145.4202,-15.6353],[145.4201,-15.5999],[145.4702,-15.5999],[145.4702,-15.5553],[145.456,-15.5553],[145.456,-15.38],[145.46,-15.38],[145.46,-15.13],[145.49,-15.13],[145.49,-15.0473],[145.46,-15.0473],[145.46,-14.875],[145.5004,-14.875],[145.5004,-14.839],[145.5331,-14.839],[145.5331,-14.802],[145.5004,-14.802],[145.5004,-14.7524],[145.5213,-14.7524],[145.5213,-14.734],[145.5004,-14.734],[145.5004,-14.676],[145.4841,-14.676],[145.4841,-14.6626],[145.4578,-14.6396],[145.451,-14.6396],[145.451,-14.6292],[145.24,-14.6292],[145.004,-14.55],[145.004,-14.5],[144.9797,-14.4877],[144.9435,-14.4877],[144.9435,-14.4808],[144.9279,-14.4616],[144.9001,-14.4421],[144.8902,-14.4421],[144.8788,-14.4363],[144.8676,-14.4225],[144.7934,-14.4],[144.7934,-14.3371],[144.8328,-14.297],[144.8328,-14.238],[144.9727,-14.238],[144.9727,-14.1706],[145.1154,-14.1706],[145.1154,-13.8],[144.5499,-13.8],[144.5499,-13.9216],[144.5474,-13.925],[144.5474,-14],[144.43,-14],[144.43,-13.97],[144.37,-13.97],[144.37,-13.96],[144.3438,-13.96],[144.334,-13.9497],[144.334,-13.9202],[144.28,-13.9],[144.2671,-13.8583],[144.2671,-13.8443],[144.3239,-13.8443],[144.3239,-13.7958],[144.2671,-13.7958],[144.2671,-13.8106],[144.2,-13.71],[144.19,-13.71],[144.14,-13.68],[144.14,-13.65],[144.0914,-13.65],[144.08,-13.6322],[144.08,-13.57],[144.0432,-13.5148],[144.0798,-13.4834],[144.0798,-13.45],[144.36,-13.45],[144.36,-13.3084],[145.1548,-13.3084],[145.3038,-13.6081]],[[145.75,-15.491],[145.75,-15.5888],[145.837,-15.5888],[145.837,-15.491],[145.75,-15.491]],[[144.9051,-14.4116],[144.9216,-14.432],[144.9632,-14.4443],[144.978,-14.4443],[144.9894,-14.4367],[144.9962,-14.4281],[144.995,-14.4133],[144.9907,-14.4057],[144.98,-14.3983],[144.9686,-14.3983],[144.9466,-14.395],[144.9414,-14.3917],[144.9279,-14.3898],[144.9071,-14.3898],[144.901,-14.3926],[144.8956,-14.3992],[144.8955,-14.4055],[144.9051,-14.4116]],[[145.3786,-14.4427],[145.3786,-14.4761],[145.44,-14.4761],[145.44,-14.4107],[145.4141,-14.4107],[145.3786,-14.4391],[145.3786,-14.4427]],[[144.8412,-14.3038],[144.8412,-14.3377],[144.8761,-14.3377],[144.8761,-14.3038],[144.8412,-14.3038]],[[145.7585,-15.4056],[145.7585,-15.4148],[145.7793,-15.4147],[145.7793,-15.4009],[145.7674,-15.3837],[145.7585,-15.3837],[145.7585,-15.4056]],[[145.4831,-14.645],[145.4831,-14.6583],[145.4998,-14.6583],[145.4998,-14.645],[145.4831,-14.645]],[[144.44,-13.9785],[144.4442,-13.9762],[144.4448,-13.9741],[144.4423,-13.9739],[144.44,-13.9785]],[[144.882,-14.4151],[144.8796,-14.4157],[144.8792,-14.4183],[144.8813,-14.4179],[144.882,-14.4151]],[[145.6387,-16.1125],[145.6406,-16.112],[145.6393,-16.1107],[145.636,-16.1114],[145.6387,-16.1125]],[[144.0988,-13.6256],[144.1015,-13.6228],[144.0986,-13.624],[144.0988,-13.6256]],[[144.504,-13.9816],[144.5067,-13.9792],[144.5052,-13.979],[144.504,-13.9816]],[[144.8884,-14.4339],[144.8875,-14.4323],[144.8828,-14.4304],[144.8884,-14.4339]],[[145.6432,-16.048],[145.6458,-16.0472],[145.6464,-16.0454],[145.6432,-16.048]],[[144.2672,-13.7747],[144.2682,-13.7739],[144.2672,-13.7714],[144.2672,-13.7747]],[[145.4747,-14.8943],[145.4769,-14.8935],[145.4772,-14.892],[145.4747,-14.8943]],[[145.6341,-15.6179],[145.6376,-15.6179],[145.6352,-15.617],[145.6341,-15.6179]],[[144.2128,-13.7169],[144.2145,-13.7161],[144.2139,-13.7142],[144.2128,-13.7169]],[[145.5295,-15.5117],[145.5275,-15.5106],[145.5281,-15.5119],[145.5295,-15.5117]],[[145.6883,-15.1381],[145.6896,-15.1383],[145.6903,-15.1371],[145.6883,-15.1381]],[[145.5329,-15.2436],[145.5346,-15.2438],[145.5336,-15.2428],[145.5329,-15.2436]],[[145.5835,-14.7805],[145.5843,-14.7807],[145.584,-14.7789],[145.5835,-14.7805]],[[144.9532,-14.4776],[144.9546,-14.4771],[144.9532,-14.4769],[144.9532,-14.4776]],[[144.9549,-14.3199],[144.9554,-14.3204],[144.956,-14.3187],[144.9549,-14.3199]],[[144.8915,-14.435],[144.8893,-14.4339],[144.8903,-14.4349],[144.8915,-14.435]],[[145.5682,-15.0041],[145.5696,-15.0038],[145.569,-15.0035],[145.5682,-15.0041]],[[144.881,-14.4286],[144.8806,-14.4291],[144.8818,-14.4298],[144.881,-14.4286]],[[144.8944,-14.4361],[144.8923,-14.4349],[144.8926,-14.4357],[144.8944,-14.4361]],[[145.5587,-14.8789],[145.559,-14.8794],[145.5597,-14.8785],[145.5587,-14.8789]],[[145.5285,-15.0445],[145.5291,-15.045],[145.5295,-15.044],[145.5285,-15.0445]]]},"properties":{"id":"gbrmpa-zone-532","type":"Habitat Protection Zone","zone":"Dark Blue Zone","color":"#3f6fb0","name":"HP-13-5080","permit":"Port Stewart to Port Douglas mid-shelf and offshore areas","source":"GBRMPA"}},{"type":"Feature","geometry":{"type":"Polygon","coordinates":[[[146.0067,-16.9215],[146.0073,-16.9228],[146.006,-16.9236],[146.0067,-16.9215]]]},"properties":{"id":"gbrmpa-zone-681","type":"Commonwealth Islands Zone (Other)","zone":"Commonwealth Island","color":"#9aa7ad","name":"Little Fitzroy Island (16055101)","permit":null,"source":"GBRMPA"}},{"type":"Feature","geometry":{"type":"Polygon","coordinates":[[[146.0914,-17.4186],[146.0697,-17.4186],[146.0724,-17.4009],[146.0914,-17.4009],[146.0914,-17.4186]]]},"properties":{"id":"gbrmpa-zone-389","type":"Marine National Park Zone","zone":"Green Zone","color":"#2fae5a","name":"MNP-17-1066","permit":"Ella Bay","source":"GBRMPA"}},{"type":"Feature","geometry":{"type":"Polygon","coordinates":[[[146.2676,-17.2137],[146.2677,-17.1601],[146.32,-17.1601],[146.32,-17.2136],[146.2676,-17.2137]]]},"properties":{"id":"gbrmpa-zone-395","type":"Conservation Park Zone","zone":"Yellow Zone","color":"#e8c23f","name":"CP-17-4040","permit":"Flora Reef (17-010)","source":"GBRMPA"}},{"type":"Feature","geometry":{"type":"Polygon","coordinates":[[[146.1484,-17.6501],[146.1927,-17.6502],[146.1923,-17.66],[146.161,-17.66],[146.161,-17.684],[146.1914,-17.684],[146.1902,-17.7199],[146.1703,-17.7987],[146.1702,-17.876],[146.106,-17.876],[146.1107,-17.8641],[146.1201,-17.8565],[146.1142,-17.8581],[146.1065,-17.8524],[146.1057,-17.8436],[146.1023,-17.8366],[146.1001,-17.8352],[146.1001,-17.8317],[146.1063,-17.8164],[146.1215,-17.8164],[146.1215,-17.794],[146.0946,-17.794],[146.0938,-17.8083],[146.0896,-17.7999],[146.0953,-17.7885],[146.1127,-17.7731],[146.1045,-17.7443],[146.1043,-17.7294],[146.1091,-17.71],[146.1074,-17.708],[146.1109,-17.703],[146.1131,-17.6944],[146.1272,-17.6699],[146.1395,-17.6556],[146.1484,-17.6501]],[[146.1378,-17.7441],[146.1587,-17.768],[146.1698,-17.768],[146.1763,-17.741],[146.1763,-17.7298],[146.1206,-17.7298],[146.1206,-17.744],[146.1378,-17.7441]],[[146.1594,-17.6575],[146.1601,-17.6566],[146.1588,-17.6557],[146.1594,-17.6575]],[[146.1574,-17.6544],[146.1581,-17.6543],[146.1567,-17.6531],[146.1574,-17.6544]]]},"properties":{"id":"gbrmpa-zone-383","type":"Habitat Protection Zone","zone":"Dark Blue Zone","color":"#3f6fb0","name":"HP-17-5140","permit":"Mission Beach coastal area","source":"GBRMPA"}},{"type":"Feature","geometry":{"type":"Polygon","coordinates":[[[146.7404,-16.8534],[146.7994,-17],[146.5426,-17],[146.5426,-16.9837],[146.523,-16.9837],[146.4671,-16.9184],[146.4192,-16.9184],[146.2677,-17.1601],[146.0903,-17.1601],[146.0124,-17.0327],[146.0124,-16.9679],[146.1103,-16.9679],[146.1103,-17.04],[146.17,-17.04],[146.2433,-17.0599],[146.2592,-17.0599],[146.3693,-16.8748],[146.3693,-16.7712],[146.7073,-16.7712],[146.7404,-16.8534]],[[146.38,-16.86],[146.38,-16.9],[146.4,-16.9],[146.42,-16.88],[146.42,-16.86],[146.38,-16.86]]]},"properties":{"id":"gbrmpa-zone-360","type":"Marine National Park Zone","zone":"Green Zone","color":"#2fae5a","name":"MNP-16-1056","permit":"Scott Reef (17-004)/Flora Pass: including lagoonal and offshore areas","source":"GBRMPA"}},{"type":"Feature","geometry":{"type":"Polygon","coordinates":[[[146.264,-16.6727],[146.264,-16.701],[146.2366,-16.701],[146.2366,-16.6727],[146.264,-16.6727]],[[146.244,-16.68],[146.244,-16.692],[146.256,-16.692],[146.256,-16.68],[146.244,-16.68]]]},"properties":{"id":"gbrmpa-zone-366","type":"Marine National Park Zone","zone":"Green Zone","color":"#2fae5a","name":"MNP-16-1054","permit":"Euston Reef (16-063)","source":"GBRMPA"}},{"type":"Feature","geometry":{"type":"Polygon","coordinates":[[[146.6726,-16.6849],[146.7073,-16.7712],[146.3693,-16.7712],[146.3693,-16.8748],[146.2592,-17.0599],[146.2433,-17.0599],[146.17,-17.04],[146.1103,-17.04],[146.1103,-16.9679],[146.1599,-16.9201],[146.16,-16.8207],[146.2042,-16.8207],[146.2042,-16.78],[146.2366,-16.78],[146.2366,-16.701],[146.264,-16.701],[146.264,-16.6727],[146.389,-16.6727],[146.3529,-16.6253],[146.6486,-16.6253],[146.6726,-16.6849]],[[146.1648,-16.8873],[146.1775,-16.8999],[146.1836,-16.8999],[146.1836,-16.93],[146.1926,-16.93],[146.1926,-16.9462],[146.2235,-16.9462],[146.2235,-16.9358],[146.31,-16.9358],[146.31,-16.8999],[146.2724,-16.8999],[146.2724,-16.8674],[146.2468,-16.8386],[146.2165,-16.8386],[146.1648,-16.8708],[146.1648,-16.8873]],[[146.2523,-16.7134],[146.2523,-16.7437],[146.2889,-16.7437],[146.2889,-16.7134],[146.2523,-16.7134]],[[146.2581,-16.775],[146.2581,-16.8041],[146.2873,-16.8041],[146.2873,-16.775],[146.2581,-16.775]],[[146.1525,-16.9513],[146.149,-16.9527],[146.1523,-16.9559],[146.1536,-16.9524],[146.1525,-16.9513]]]},"properties":{"id":"gbrmpa-zone-369","type":"Habitat Protection Zone","zone":"Dark Blue Zone","color":"#3f6fb0","name":"HP-16-5129","permit":"Cairns offshore: Jenny Louise Shoal (16-066a and b), Baines Patches (16-069), Pellowe reef (16-070), Sudbury Reef (17-001a, b, c and d) and Stagg Patches (17-002a and b)","source":"GBRMPA"}},{"type":"Feature","geometry":{"type":"Polygon","coordinates":[[[146.2681,-17.4],[146.2207,-17.4],[146.1277,-17.2866],[146.1277,-17.2137],[146.2792,-17.2136],[146.2792,-17.4],[146.2681,-17.4]]]},"properties":{"id":"gbrmpa-zone-392","type":"Marine National Park Zone","zone":"Green Zone","color":"#2fae5a","name":"MNP-17-1064","permit":"Lagoonal area offshore Russell Island","source":"GBRMPA"}},{"type":"Feature","geometry":{"type":"Polygon","coordinates":[[[146.0925,-17.2235],[146.0959,-17.228],[146.0946,-17.2312],[146.0921,-17.2297],[146.0928,-17.2274],[146.0905,-17.2246],[146.0925,-17.2235]]]},"properties":{"id":"gbrmpa-zone-698","type":"Commonwealth Islands Zone (GBRMPA)","zone":"Commonwealth Island Zone","color":"#b0b8bd","name":"Russell Island (17013101)","permit":null,"source":"GBRMPA"}},{"type":"Feature","geometry":{"type":"Polygon","coordinates":[[[147.4003,-17.7454],[147.1276,-17.9916],[146.9986,-17.8078],[146.8727,-17.4985],[147.0011,-17.4985],[147.4003,-17.7454]]]},"properties":{"id":"gbrmpa-zone-386","type":"Marine National Park Zone","zone":"Green Zone","color":"#2fae5a","name":"MNP-17-1068","permit":"Offshore Hinchinbrook","source":"GBRMPA"}},{"type":"Feature","geometry":{"type":"Polygon","coordinates":[[[146.8043,-17.9078],[146.841,-17.9491],[146.895,-17.9491],[146.9456,-17.9916],[146.9456,-18.2748],[147.0145,-18.2748],[147.0145,-18.4864],[146.9865,-18.4864],[146.971,-18.4645],[146.971,-18.385],[146.9,-18.385],[146.9,-18.29],[146.89,-18.28],[146.8845,-18.28],[146.8845,-18.145],[146.72,-18.145],[146.72,-17.9685],[146.7703,-17.9685],[146.7703,-17.9078],[146.8043,-17.9078]],[[146.7472,-17.9785],[146.7472,-18.0121],[146.7924,-18.0121],[146.7924,-17.9785],[146.7472,-17.9785]]]},"properties":{"id":"gbrmpa-zone-300","type":"Marine National Park Zone","zone":"Green Zone","color":"#2fae5a","name":"MNP-17-1072","permit":"Bandjin Reefs","source":"GBRMPA"}}]}