{"type":"FeatureCollection","meta":{"region":"QLD","tile":"t-18e144","built":"2026-08-25","sources":["OpenStreetMap (ODbL)","GBRMPA (CC BY)"]},"features":[{"type":"Feature","geometry":{"type":"Point","coordinates":[145.45007,-16.18969]},"properties":{"id":"osm-node3020491038","name":"Alexandra Bay","kind":"anchorage","source":"OpenStreetMap","sourceRef":"node/3020491038","likelyAnchorage":true,"noAnchoring":false,"noAnchoringName":null,"notes":null,"fetchLandNM":[2.9,5.5,15,15,15,15,15,15,15,15,15,15,15,15,15,1.3,0.9,0.8,0.9,0.9,0.9,0.8,0.7,0.6,0.6,0.6,0.5,0.5,0.6,0.6,0.6,0.7,1,1,1.2,2],"fetchReefNM":[2.9,5.5,15,15,15,15,15,11.9,15,15,15,12.3,15,15,15,1.3,0.9,0.8,0.9,0.9,0.9,0.8,0.7,0.6,0.6,0.6,0.5,0.5,0.6,0.6,0.6,0.7,1,1,1.2,2]}},{"type":"Feature","geometry":{"type":"Point","coordinates":[145.78133,-16.92069]},"properties":{"id":"osm-node4867162644","name":"B Finger","kind":"marina","source":"OpenStreetMap","sourceRef":"node/4867162644","likelyAnchorage":true,"noAnchoring":false,"noAnchoringName":null,"notes":null,"fetchLandNM":[15,15,15,15,15,0.7,0.6,0.6,0.4,0.4,0.4,0.3,0.3,0.3,0.4,0.5,0.6,0.8,1.5,0.2,0.1,0,0,0,0,0,0,0,0,0,0,0,0,0.1,0.1,0.1],"fetchReefNM":[15,15,15,15,15,0.7,0.6,0.6,0.4,0.4,0.4,0.3,0.3,0.3,0.4,0.5,0.6,0.8,1.5,0.2,0.1,0,0,0,0,0,0,0,0,0,0,0,0,0.1,0.1,0.1]}},{"type":"Feature","geometry":{"type":"Point","coordinates":[145.70696,-16.80513]},"properties":{"id":"osm-way551785630","name":"Bluewater Marina","kind":"marina","source":"OpenStreetMap","sourceRef":"way/551785630","likelyAnchorage":true,"noAnchoring":false,"noAnchoringName":null,"notes":null,"fetchLandNM":[0.8,0.6,0.5,0.5,0.4,0.4,0.4,0.5,0.9,1.1,1.2,1.4,1.6,2.1,6,6.4,9.5,15,15,15,15,15,15,15,15,15,15,15,15,15,15,15,8.5,1.7,1.8,0.9],"fetchReefNM":[0.8,0.6,0.5,0.5,0.4,0.4,0.4,0.5,0.9,1.1,1.2,1.4,1.6,2.1,6,6.4,9.5,15,15,15,15,15,15,15,15,15,15,15,15,15,15,15,8.5,1.7,1.8,0.9]}},{"type":"Feature","geometry":{"type":"Point","coordinates":[145.78133,-16.92014]},"properties":{"id":"osm-node4867162645","name":"C Finger","kind":"marina","source":"OpenStreetMap","sourceRef":"node/4867162645","likelyAnchorage":true,"noAnchoring":false,"noAnchoringName":null,"notes":null,"fetchLandNM":[15,15,15,15,15,0.8,0.6,0.6,0.5,0.4,0.4,0.4,0.3,0.4,0.4,0.5,0.6,0.8,1.5,0.1,0.1,0,0,0,0,0,0,0,0,0,0,0,0,0.1,0.1,0.1],"fetchReefNM":[15,15,15,15,15,0.8,0.6,0.6,0.5,0.4,0.4,0.4,0.3,0.4,0.4,0.5,0.6,0.8,1.5,0.1,0.1,0,0,0,0,0,0,0,0,0,0,0,0,0.1,0.1,0.1]}},{"type":"Feature","geometry":{"type":"Point","coordinates":[145.7821,-16.91952]},"properties":{"id":"osm-way684282906","name":"Cairns Marlin Marina","kind":"marina","source":"OpenStreetMap","sourceRef":"way/684282906","likelyAnchorage":true,"noAnchoring":false,"noAnchoringName":null,"notes":null,"fetchLandNM":[15,15,15,15,15,0.7,0.6,0.5,0.5,0.4,0.4,0.4,0.3,0.3,0.4,0.4,0.5,0.7,1.6,1.1,0.2,0.1,0.1,0.1,0.1,0.1,0.1,0.1,0.1,0.1,0.1,0.1,0.1,2,2.2,2.2],"fetchReefNM":[15,15,15,15,15,0.7,0.6,0.5,0.5,0.4,0.4,0.4,0.3,0.3,0.4,0.4,0.5,0.7,1.6,1.1,0.2,0.1,0.1,0.1,0.1,0.1,0.1,0.1,0.1,0.1,0.1,0.1,0.1,2,2.2,2.2]}},{"type":"Feature","geometry":{"type":"Point","coordinates":[145.45837,-16.48739]},"properties":{"id":"osm-way191558267","name":"Closehaven Marina","kind":"marina","source":"OpenStreetMap","sourceRef":"way/191558267","likelyAnchorage":true,"noAnchoring":false,"noAnchoringName":null,"notes":null,"fetchLandNM":[0.2,11.7,0.2,0.2,0.2,0.2,0.1,0.1,0.1,0,0,0,0,0,0,0,0,0,0,0,0,0,0,0.1,0.1,0.1,0.1,0.1,0.1,0.1,0.1,0.1,0.1,0.1,0.1,0.2],"fetchReefNM":[0.2,11.7,0.2,0.2,0.2,0.2,0.1,0.1,0.1,0,0,0,0,0,0,0,0,0,0,0,0,0,0,0.1,0.1,0.1,0.1,0.1,0.1,0.1,0.1,0.1,0.1,0.1,0.1,0.2]}},{"type":"Feature","geometry":{"type":"Point","coordinates":[145.47042,-16.23396]},"properties":{"id":"osm-node2128298671","name":"Cow Bay","kind":"anchorage","source":"OpenStreetMap","sourceRef":"node/2128298671","likelyAnchorage":true,"noAnchoring":false,"noAnchoringName":null,"notes":null,"fetchLandNM":[0.7,15,15,15,15,15,15,15,15,15,15,15,15,0.8,0.4,0.4,0.3,0.3,0.2,0.2,0.2,0.2,0.2,0.1,0.1,0.1,0.1,0.1,0.1,0.1,0.2,0.2,0.2,0.2,0.3,0.5],"fetchReefNM":[0.7,15,15,15,15,15,12.2,15,14.5,15,10.5,15,15,0.8,0.4,0.4,0.3,0.3,0.2,0.2,0.2,0.2,0.2,0.1,0.1,0.1,0.1,0.1,0.1,0.1,0.2,0.2,0.2,0.2,0.3,0.5]}},{"type":"Feature","geometry":{"type":"Point","coordinates":[145.78139,-16.91971]},"properties":{"id":"osm-node4867162646","name":"D Finger","kind":"marina","source":"OpenStreetMap","sourceRef":"node/4867162646","likelyAnchorage":true,"noAnchoring":false,"noAnchoringName":null,"notes":null,"fetchLandNM":[15,15,15,15,15,0.8,0.6,0.5,0.6,0.4,0.4,0.4,0.4,0.4,0.4,0.5,0.6,0.8,1.5,0.1,0.1,0.1,0,0,0,0,0,0,0,0,0,0,0.1,0.1,0.1,0.1],"fetchReefNM":[15,15,15,15,15,0.8,0.6,0.5,0.6,0.4,0.4,0.4,0.4,0.4,0.4,0.5,0.6,0.8,1.5,0.1,0.1,0.1,0,0,0,0,0,0,0,0,0,0,0.1,0.1,0.1,0.1]}},{"type":"Feature","geometry":{"type":"Point","coordinates":[145.78138,-16.91909]},"properties":{"id":"osm-node4867162647","name":"E Finger","kind":"marina","source":"OpenStreetMap","sourceRef":"node/4867162647","likelyAnchorage":true,"noAnchoring":false,"noAnchoringName":null,"notes":null,"fetchLandNM":[15,15,15,15,15,0.8,0.6,0.6,0.5,0.4,0.4,0.4,0.4,0.4,0.4,0.5,0.6,0.8,1.6,0.1,0.1,0.1,0,0,0,0,0,0,0,0,0,0,0,0,0,0],"fetchReefNM":[15,15,15,15,15,0.8,0.6,0.6,0.5,0.4,0.4,0.4,0.4,0.4,0.4,0.5,0.6,0.8,1.6,0.1,0.1,0.1,0,0,0,0,0,0,0,0,0,0,0,0,0,0]}},{"type":"Feature","geometry":{"type":"Point","coordinates":[145.78188,-16.91839]},"properties":{"id":"osm-node4867162648","name":"F Finger","kind":"marina","source":"OpenStreetMap","sourceRef":"node/4867162648","likelyAnchorage":true,"noAnchoring":false,"noAnchoringName":null,"notes":null,"fetchLandNM":[15,15,15,15,15,0.8,0.6,0.5,0.5,0.4,0.4,0.4,0.4,0.4,0.4,0.5,0.6,0.8,1.7,0.4,0.2,0.1,0.1,0.1,0.1,0,0,0,0.1,0.1,0.1,1.3,1.7,2,2.1,2.1],"fetchReefNM":[15,15,15,15,15,0.8,0.6,0.5,0.5,0.4,0.4,0.4,0.4,0.4,0.4,0.5,0.6,0.8,1.7,0.4,0.2,0.1,0.1,0.1,0.1,0,0,0,0.1,0.1,0.1,1.3,1.7,2,2.1,2.1]}},{"type":"Feature","geometry":{"type":"Point","coordinates":[145.7817,-16.91776]},"properties":{"id":"osm-node4867162649","name":"G Finger","kind":"marina","source":"OpenStreetMap","sourceRef":"node/4867162649","likelyAnchorage":true,"noAnchoring":false,"noAnchoringName":null,"notes":null,"fetchLandNM":[15,15,15,15,15,15,0.6,0.6,0.5,0.5,0.4,0.4,0.4,0.4,0.4,0.5,0.6,0.8,1.7,0.2,0.1,0,0,0.1,0.1,0.1,0.1,0.1,0.4,0.5,0.9,1.3,1.7,1.9,2.1,2.1],"fetchReefNM":[15,15,15,15,15,14.2,0.6,0.6,0.5,0.5,0.4,0.4,0.4,0.4,0.4,0.5,0.6,0.8,1.7,0.2,0.1,0,0,0.1,0.1,0.1,0.1,0.1,0.4,0.5,0.9,1.3,1.7,1.9,2.1,2.1]}},{"type":"Feature","geometry":{"type":"Point","coordinates":[145.71135,-16.79701]},"properties":{"id":"osm-node5126101182","name":"Half Moon Bay","kind":"anchorage","source":"OpenStreetMap","sourceRef":"node/5126101182","likelyAnchorage":true,"noAnchoring":false,"noAnchoringName":null,"notes":null,"fetchLandNM":[15,15,15,15,15,15,14.7,15,15,15,15,0.5,0.5,0.5,0.5,0.3,0.3,0.1,0.1,0.1,0.1,0.1,0.1,0.1,0.1,0.1,0.1,0.1,0.1,0.1,0.1,0.2,0.3,15,4.5,15],"fetchReefNM":[15,15,15,15,15,15,14.5,15,14.8,15,15,0.5,0.5,0.5,0.5,0.3,0.3,0.1,0.1,0.1,0.1,0.1,0.1,0.1,0.1,0.1,0.1,0.1,0.1,0.1,0.1,0.2,0.3,15,3.8,15]}},{"type":"Feature","geometry":{"type":"Point","coordinates":[145.95646,-16.89855]},"properties":{"id":"osm-node3020492944","name":"Little Turtle Bay","kind":"anchorage","source":"OpenStreetMap","sourceRef":"node/3020492944","likelyAnchorage":true,"noAnchoring":false,"noAnchoringName":null,"notes":null,"fetchLandNM":[0.1,0.1,0.1,0.1,0.1,15,15,15,15,15,15,15,2.9,2.6,2.7,15,15,15,0.3,0.2,0.2,0.1,0.1,0.1,0.1,0.1,0.1,0.1,0.1,0.1,0.1,0.1,0.1,0.1,0.1,0.1],"fetchReefNM":[0.1,0.1,0.1,0.1,0.1,15,15,15,15,15,15,12.8,2.9,2.6,2.7,15,15,15,0.3,0.2,0.2,0.1,0.1,0.1,0.1,0.1,0.1,0.1,0.1,0.1,0.1,0.1,0.1,0.1,0.1,0.1]}},{"type":"Feature","geometry":{"type":"Point","coordinates":[145.78131,-16.9214]},"properties":{"id":"osm-node4821657552","name":"Marlin Marina","kind":"marina","source":"OpenStreetMap","sourceRef":"node/4821657552","likelyAnchorage":true,"noAnchoring":false,"noAnchoringName":null,"notes":null,"fetchLandNM":[0.2,15,15,15,15,0.7,0.6,0.5,0.4,0.4,0.3,0.3,0.3,0.3,0.4,0.4,0.5,0.8,1.4,0.2,0.1,0,0,0,0,0,0,0,0,0,0,0,0,0,0.1,0.2],"fetchReefNM":[0.2,15,15,15,15,0.7,0.6,0.5,0.4,0.4,0.3,0.3,0.3,0.3,0.4,0.4,0.5,0.8,1.4,0.2,0.1,0,0,0,0,0,0,0,0,0,0,0,0,0,0.1,0.2]}},{"type":"Feature","geometry":{"type":"Point","coordinates":[145.7832,-16.91784]},"properties":{"id":"osm-node4867162650","name":"Marlin Marina-Private Access","kind":"marina","source":"OpenStreetMap","sourceRef":"node/4867162650","likelyAnchorage":true,"noAnchoring":false,"noAnchoringName":null,"notes":null,"fetchLandNM":[15,15,15,15,15,0.7,0.5,0.5,0.4,0.4,0.4,0.3,0.3,0.3,0.4,0.4,0.4,0.6,1.8,1.4,0.4,0.3,0.2,0.2,0.2,0.1,0.1,0.1,0.5,0.7,1.1,1.4,1.8,2,2.1,2.2],"fetchReefNM":[15,15,15,15,15,0.7,0.5,0.5,0.4,0.4,0.4,0.3,0.3,0.3,0.4,0.4,0.4,0.6,1.8,1.4,0.4,0.3,0.2,0.2,0.2,0.1,0.1,0.1,0.5,0.7,1.1,1.4,1.8,2,2.1,2.2]}},{"type":"Feature","geometry":{"type":"Point","coordinates":[145.88322,-16.87648]},"properties":{"id":"osm-node3020493008","name":"Mission Bay","kind":"anchorage","source":"OpenStreetMap","sourceRef":"node/3020493008","likelyAnchorage":true,"noAnchoring":false,"noAnchoringName":null,"notes":null,"fetchLandNM":[15,15,15,15,15,15,15,2,2,1.9,1.8,1.7,1.7,0.8,1.6,1.5,1.5,1.6,1.8,1.9,2,2,1.9,1.5,1.5,1.5,1.7,1.7,7.6,9.1,13.9,15,15,15,15,15],"fetchReefNM":[15,14.4,11.9,11.3,8.3,13,15,2,2,1.9,1.8,1.7,1.7,0.8,1.6,1.5,1.5,1.6,1.8,1.9,2,2,1.9,1.5,1.5,1.5,1.7,1.7,7.6,9.1,13.9,15,15,15,15,15]}},{"type":"Feature","geometry":{"type":"Point","coordinates":[145.4598,-16.4856]},"properties":{"id":"osm-way191558266","name":"Port Douglas Marina","kind":"marina","source":"OpenStreetMap","sourceRef":"way/191558266","likelyAnchorage":true,"noAnchoring":false,"noAnchoringName":null,"notes":null,"fetchLandNM":[0,0,0.1,0.1,0.1,0.1,0.1,0.1,0.1,0,0,0,0,0,0,0,0.1,0.1,0.1,0.1,0.1,0.2,0.2,0.2,0.2,0.2,0.1,0.1,0.1,0.1,0.2,0.1,0.1,0.1,0.1,0.1],"fetchReefNM":[0,0,0.1,0.1,0.1,0.1,0.1,0.1,0.1,0,0,0,0,0,0,0,0.1,0.1,0.1,0.1,0.1,0.2,0.2,0.2,0.2,0.2,0.1,0.1,0.1,0.1,0.2,0.1,0.1,0.1,0.1,0.1]}},{"type":"Feature","geometry":{"type":"Point","coordinates":[145.47839,-16.25965]},"properties":{"id":"osm-node10290647936","name":"Shipwreck Bay","kind":"anchorage","source":"OpenStreetMap","sourceRef":"node/10290647936","likelyAnchorage":true,"noAnchoring":false,"noAnchoringName":null,"notes":null,"fetchLandNM":[0.3,0.6,15,15,15,15,15,15,15,15,15,15,15,15,15,2.8,1,0.2,0.2,0.2,0.2,0.2,0.1,0.1,0.1,0.1,0.1,0.1,0.1,0.1,0.1,0.1,0.1,0.1,0.2,0.2],"fetchReefNM":[0.3,0.6,15,15,15,12.6,15,13,15,15,10.7,15,14.7,15,15,2.8,1,0.2,0.2,0.2,0.2,0.2,0.1,0.1,0.1,0.1,0.1,0.1,0.1,0.1,0.1,0.1,0.1,0.1,0.2,0.2]}},{"type":"Feature","geometry":{"type":"Point","coordinates":[145.45448,-16.39323]},"properties":{"id":"osm-node3020494186","name":"Trinity Bay","kind":"anchorage","source":"OpenStreetMap","sourceRef":"node/3020494186","likelyAnchorage":true,"noAnchoring":false,"noAnchoringName":null,"notes":null,"fetchLandNM":[6.2,7.1,6.3,15,15,15,15,15,15,15,15,15,15,15,15,15,14.3,8.4,5.2,4.9,5.1,5,4.2,3.6,3.1,2.6,2.3,2.2,2.1,2.6,2.8,3,3.5,4,4.4,5.1],"fetchReefNM":[6.2,7.1,6.3,15,15,15,13.8,15,15,14.1,15,15,15,15,15,15,14.3,8.4,5.2,4.9,5.1,5,4.2,3.6,3.1,2.6,2.3,2.2,2.1,2.6,2.8,3,3.5,4,4.4,5.1]}},{"type":"Feature","geometry":{"type":"Point","coordinates":[145.61228,-16.6604]},"properties":{"id":"osm-node3020494187","name":"Trinity Bay","kind":"anchorage","source":"OpenStreetMap","sourceRef":"node/3020494187","likelyAnchorage":true,"noAnchoring":false,"noAnchoringName":null,"notes":null,"fetchLandNM":[15,15,15,15,15,15,15,15,15,15,15,15,15,15,15,4.9,2.9,2.4,2.2,2.1,2.2,2.2,2.2,2.4,2.3,2.3,2.3,2.4,2.6,2.9,4.3,6.8,12.9,15,15,15],"fetchReefNM":[15,15,15,15,15,15,15,15,15,15,15,15,15,15,15,4.9,2.9,2.4,2.2,2.1,2.2,2.2,2.2,2.4,2.3,2.3,2.3,2.4,2.6,2.9,4.3,6.8,12.9,15,15,15]}},{"type":"Feature","geometry":{"type":"Point","coordinates":[145.94905,-16.88909]},"properties":{"id":"osm-node3020494196","name":"Turtle Bay","kind":"anchorage","source":"OpenStreetMap","sourceRef":"node/3020494196","likelyAnchorage":true,"noAnchoring":false,"noAnchoringName":null,"notes":null,"fetchLandNM":[15,7.8,15,15,15,15,15,15,15,15,15,0.1,0.1,0.1,0.2,0.2,0.2,0.2,0.2,0.1,0.1,0.1,0.1,0.1,0.1,0.1,0.2,0.2,0.2,0.2,0.3,0.4,0.5,15,15,15],"fetchReefNM":[12.2,7.5,7.8,10.7,11.7,15,15,14.7,15,15,15,0.1,0.1,0.1,0.2,0.2,0.2,0.2,0.2,0.1,0.1,0.1,0.1,0.1,0.1,0.1,0.2,0.2,0.2,0.2,0.3,0.4,0.5,15,15,15]}},{"type":"Feature","geometry":{"type":"Point","coordinates":[145.95891,-16.9404]},"properties":{"id":"osm-node3020494575","name":"Wide Bay","kind":"anchorage","source":"OpenStreetMap","sourceRef":"node/3020494575","likelyAnchorage":true,"noAnchoring":false,"noAnchoringName":null,"notes":null,"fetchLandNM":[15,15,15,15,15,15,15,1.9,1.4,1.5,15,15,15,15,15,15,15,15,13.5,10.5,8.9,8,5.2,4.5,3.1,1.7,1.4,1.4,1.5,1.7,1.9,1.9,2,2.1,2.2,2],"fetchReefNM":[14.4,10.4,13.2,13.9,15,15,15,1.9,1.4,1.5,12.6,14.9,14.7,15,15,15,15,15,13.5,10.5,8.9,8,5.2,4.5,3.1,1.7,1.4,1.4,1.5,1.7,1.9,1.9,2,2.1,2.2,2]}}]}