{"type":"FeatureCollection","meta":{"region":"QLD","tile":"t-18e140","built":"2026-08-25","sources":["OpenStreetMap (ODbL)","GBRMPA (CC BY)"]},"features":[{"type":"Feature","geometry":{"type":"Point","coordinates":[140.93719,-17.18416]},"properties":{"id":"osm-node3020490123","name":"Accident Inlet","kind":"anchorage","source":"OpenStreetMap","sourceRef":"node/3020490123","likelyAnchorage":true,"noAnchoring":false,"noAnchoringName":null,"notes":null,"fetchLandNM":[7.2,0.3,0.3,0.2,0.2,0.2,0.2,0.2,0.2,0.3,0.3,0.2,0.2,0.2,0.2,0.2,0.2,0.2,0.2,0.2,0.2,0.3,0.4,15,15,15,15,15,15,15,15,15,15,15,15,15],"fetchReefNM":[7.2,0.3,0.3,0.2,0.2,0.2,0.2,0.2,0.2,0.3,0.3,0.2,0.2,0.2,0.2,0.2,0.2,0.2,0.2,0.2,0.2,0.3,0.4,15,15,15,15,15,15,15,15,15,15,15,15,15]}},{"type":"Feature","geometry":{"type":"Point","coordinates":[140.73124,-17.51082]},"properties":{"id":"osm-node3020491480","name":"Bynoe Inlet","kind":"anchorage","source":"OpenStreetMap","sourceRef":"node/3020491480","likelyAnchorage":true,"noAnchoring":false,"noAnchoringName":null,"notes":null,"fetchLandNM":[15,15,15,15,15,0.6,0.5,0.4,0.3,0.3,0.3,0.3,0.3,0.2,0.2,0.2,0.2,0.1,0.1,0.1,0.2,0.2,0.2,0.2,0.2,0.2,0.9,15,15,15,15,15,15,15,15,15],"fetchReefNM":[15,15,15,15,15,0.6,0.5,0.4,0.3,0.3,0.3,0.3,0.3,0.2,0.2,0.2,0.2,0.1,0.1,0.1,0.2,0.2,0.2,0.2,0.2,0.2,0.9,15,15,15,15,15,15,15,15,15]}},{"type":"Feature","geometry":{"type":"Point","coordinates":[140.21652,-17.70423]},"properties":{"id":"osm-node3020493017","name":"Morning Inlet","kind":"anchorage","source":"OpenStreetMap","sourceRef":"node/3020493017","likelyAnchorage":true,"noAnchoring":false,"noAnchoringName":null,"notes":null,"fetchLandNM":[15,15,15,15,15,15,15,0.4,0.3,0.2,0.2,0.2,0.1,0.1,0.1,0.1,0.1,0.1,0.1,0.6,0.4,0.3,0.2,0.2,0.2,0.2,0.2,0.3,0.3,0.5,15,15,15,15,15,15],"fetchReefNM":[15,15,15,15,15,15,15,0.4,0.3,0.2,0.2,0.2,0.1,0.1,0.1,0.1,0.1,0.1,0.1,0.6,0.4,0.3,0.2,0.2,0.2,0.2,0.2,0.3,0.3,0.5,15,15,15,15,15,15]}},{"type":"Feature","geometry":{"type":"Point","coordinates":[140.98054,-16.97003]},"properties":{"id":"osm-node3020494211","name":"Van Diemens Inlet","kind":"anchorage","source":"OpenStreetMap","sourceRef":"node/3020494211","likelyAnchorage":true,"noAnchoring":false,"noAnchoringName":null,"notes":null,"fetchLandNM":[0,0,0.1,0.1,0.1,0.1,0.1,0.1,0.2,0.2,0.2,0.2,0.4,0.5,0.7,0.2,0.2,0.2,0.2,0.2,0.2,0.3,0.4,15,15,15,0,0,0,0,0,0,0,0,0,0],"fetchReefNM":[0,0,0.1,0.1,0.1,0.1,0.1,0.1,0.2,0.2,0.2,0.2,0.4,0.5,0.7,0.2,0.2,0.2,0.2,0.2,0.2,0.3,0.4,15,15,15,0,0,0,0,0,0,0,0,0,0]}}]}