{"type":"FeatureCollection","meta":{"region":"QLD","tile":"t-18e138","built":"2026-08-25","sources":["OpenStreetMap (ODbL)","GBRMPA (CC BY)"]},"features":[{"type":"Feature","geometry":{"type":"Point","coordinates":[139.16599,-16.73714]},"properties":{"id":"osm-node3020491092","name":"Beche De Mer Bay","kind":"anchorage","source":"OpenStreetMap","sourceRef":"node/3020491092","likelyAnchorage":true,"noAnchoring":false,"noAnchoringName":null,"notes":null,"fetchLandNM":[0.2,0.3,0.4,0.5,0.7,0.7,3.4,3.6,3.5,15,15,15,15,15,15,15,15,15,15,5.1,0.7,0.6,0.5,0.4,0.4,0.3,0.3,0.2,0.2,0.2,0.2,0.2,0.2,0.2,0.2,0.2],"fetchReefNM":[0.2,0.3,0.4,0.5,0.7,0.7,3.4,3.6,3.5,15,15,15,15,15,15,15,15,15,15,5.1,0.7,0.6,0.5,0.4,0.4,0.3,0.3,0.2,0.2,0.2,0.2,0.2,0.2,0.2,0.2,0.2]}},{"type":"Feature","geometry":{"type":"Point","coordinates":[139.21603,-16.55796]},"properties":{"id":"osm-node3020491101","name":"Bidgagun Bay","kind":"anchorage","source":"OpenStreetMap","sourceRef":"node/3020491101","likelyAnchorage":true,"noAnchoring":false,"noAnchoringName":null,"notes":null,"fetchLandNM":[0.2,0.2,0.1,0.1,0.1,0.1,0.1,0.1,0.1,0.1,0.1,0.1,0.1,0.1,0.1,0.1,0.1,0.1,0.2,0.2,0.4,1.1,1.8,15,15,15,15,15,15,15,15,15,15,0.3,0.2,0.2],"fetchReefNM":[0.2,0.2,0.1,0.1,0.1,0.1,0.1,0.1,0.1,0.1,0.1,0.1,0.1,0.1,0.1,0.1,0.1,0.1,0.2,0.2,0.4,1.1,1.8,15,15,15,15,15,15,15,15,15,15,0.3,0.2,0.2]}},{"type":"Feature","geometry":{"type":"Point","coordinates":[139.21321,-16.69422]},"properties":{"id":"osm-node3020491443","name":"Boyorrunga Inlet","kind":"anchorage","source":"OpenStreetMap","sourceRef":"node/3020491443","likelyAnchorage":true,"noAnchoring":false,"noAnchoringName":null,"notes":null,"fetchLandNM":[0.2,0.2,0.3,0.5,1.1,0.1,0.1,0.2,0.5,0.5,0.2,0.1,0.1,0.1,0.1,0.1,0.1,0.1,0.1,0.1,0.2,0.6,0.5,0.4,0.3,0.2,0.2,0.1,0.1,0.1,0.1,0.1,0.1,0.1,0.1,0.2],"fetchReefNM":[0.2,0.2,0.3,0.5,1.1,0.1,0.1,0.2,0.5,0.5,0.2,0.1,0.1,0.1,0.1,0.1,0.1,0.1,0.1,0.1,0.2,0.6,0.5,0.4,0.3,0.2,0.2,0.1,0.1,0.1,0.1,0.1,0.1,0.1,0.1,0.2]}},{"type":"Feature","geometry":{"type":"Point","coordinates":[139.54518,-16.53312]},"properties":{"id":"osm-node3020491509","name":"Charlie Bush Bay","kind":"anchorage","source":"OpenStreetMap","sourceRef":"node/3020491509","likelyAnchorage":true,"noAnchoring":false,"noAnchoringName":null,"notes":null,"fetchLandNM":[2.8,3,2.6,2.5,2.6,2.6,2,2,2,2.5,2.5,2.9,15,15,15,15,15,15,15,15,15,9.6,6.7,2.4,2,2.1,3.3,3.7,3.2,2.9,2,1.6,1.3,1.8,1.9,2.1],"fetchReefNM":[2.8,3,2.6,2.5,2.6,2.6,2,2,2,2.5,2.5,2.9,15,15,15,15,15,15,15,15,15,9.6,6.7,2.4,2,2.1,3.3,3.7,3.2,2.9,2,1.6,1.3,1.8,1.9,2.1]}},{"type":"Feature","geometry":{"type":"Point","coordinates":[139.55149,-16.49223]},"properties":{"id":"osm-node7834157241","name":"Charlie Bush Bay","kind":"anchorage","source":"OpenStreetMap","sourceRef":"node/7834157241","likelyAnchorage":true,"noAnchoring":false,"noAnchoringName":null,"notes":null,"fetchLandNM":[0.5,0.5,0.6,1,1,0.5,0.5,0.5,0.5,0.6,0.6,1.4,1.9,1.9,2.4,15,15,15,15,15,15,4.3,1.7,1.6,1,0.7,0.6,0.6,0.6,0.6,0.6,0.5,0.5,0.4,0.4,0.4],"fetchReefNM":[0.5,0.5,0.6,1,1,0.5,0.5,0.5,0.5,0.6,0.6,1.4,1.9,1.9,2.4,15,15,15,15,15,15,4.3,1.7,1.6,1,0.7,0.6,0.6,0.6,0.6,0.6,0.5,0.5,0.4,0.4,0.4]}},{"type":"Feature","geometry":{"type":"Point","coordinates":[139.93931,-17.64505]},"properties":{"id":"osm-node3020491786","name":"Disaster Inlet","kind":"anchorage","source":"OpenStreetMap","sourceRef":"node/3020491786","likelyAnchorage":true,"noAnchoring":false,"noAnchoringName":null,"notes":null,"fetchLandNM":[0.2,0.2,0.2,0.3,15,15,15,15,15,15,15,11.9,9.1,6.8,5.1,3.3,2,1.1,0.4,0.1,0.1,0.1,0.1,0.1,0.1,0.1,0,0,0,0,0,0.1,0.1,0.1,0.1,0.1],"fetchReefNM":[0.2,0.2,0.2,0.3,15,15,15,15,15,15,15,11.9,9.1,6.8,5.1,3.3,2,1.1,0.4,0.1,0.1,0.1,0.1,0.1,0.1,0.1,0,0,0,0,0,0.1,0.1,0.1,0.1,0.1]}},{"type":"Feature","geometry":{"type":"Point","coordinates":[139.14441,-16.73103]},"properties":{"id":"osm-node3020491795","name":"Dougherty Bay","kind":"anchorage","source":"OpenStreetMap","sourceRef":"node/3020491795","likelyAnchorage":true,"noAnchoring":false,"noAnchoringName":null,"notes":null,"fetchLandNM":[0.4,0.3,0.2,0.2,0.1,0.1,0.1,0.1,0.1,0.1,0.1,0.1,0.1,0.1,0.1,0.1,0.2,0.2,0.3,0.8,4.8,5.6,12.8,14.4,15,15,15,15,15,15,15,15,15,15,15,0.8],"fetchReefNM":[0.4,0.3,0.2,0.2,0.1,0.1,0.1,0.1,0.1,0.1,0.1,0.1,0.1,0.1,0.1,0.1,0.2,0.2,0.3,0.8,4.8,5.6,12.8,14.4,15,15,15,15,15,15,15,15,15,15,15,0.8]}},{"type":"Feature","geometry":{"type":"Point","coordinates":[139.33485,-16.46154]},"properties":{"id":"osm-node3020491817","name":"Eengan Bay","kind":"anchorage","source":"OpenStreetMap","sourceRef":"node/3020491817","likelyAnchorage":true,"noAnchoring":false,"noAnchoringName":null,"notes":null,"fetchLandNM":[15,15,15,15,15,15,15,15,1.2,0.8,0.5,0.4,0.3,0.3,0.2,0.2,0.2,0.2,0.2,0.2,0.2,0.2,0.3,0.3,0.4,0.5,0.7,0.9,15,15,15,15,15,15,15,15],"fetchReefNM":[15,15,15,15,15,15,15,15,1.2,0.8,0.5,0.4,0.3,0.3,0.2,0.2,0.2,0.2,0.2,0.2,0.2,0.2,0.3,0.3,0.4,0.5,0.7,0.9,15,15,15,15,15,15,15,15]}},{"type":"Feature","geometry":{"type":"Point","coordinates":[139.12824,-16.83589]},"properties":{"id":"osm-node3020492200","name":"Government Bay","kind":"anchorage","source":"OpenStreetMap","sourceRef":"node/3020492200","likelyAnchorage":true,"noAnchoring":false,"noAnchoringName":null,"notes":null,"fetchLandNM":[0.6,0.6,0.7,0.7,0.8,0.9,1,15,15,15,15,15,15,15,11.9,14.7,9.9,15,11,10.3,9,8.6,5,1.1,1,0.9,0.9,0.7,0.6,0.4,0.4,0.3,0.3,0.4,0.4,0.5],"fetchReefNM":[0.6,0.6,0.7,0.7,0.8,0.9,1,15,15,15,15,15,15,15,11.9,14.7,9.9,15,11,10.3,9,8.6,5,1.1,1,0.9,0.9,0.7,0.6,0.4,0.4,0.3,0.3,0.4,0.4,0.5]}},{"type":"Feature","geometry":{"type":"Point","coordinates":[138.32897,-16.75608]},"properties":{"id":"osm-node3020492987","name":"Massacre Inlet","kind":"anchorage","source":"OpenStreetMap","sourceRef":"node/3020492987","likelyAnchorage":true,"noAnchoring":false,"noAnchoringName":null,"notes":null,"fetchLandNM":[1.2,1.2,0.5,0.2,0,0,0,0,0,0,0,0,0,0,0,0,0,0,0.1,0.1,0.1,0.1,0.1,0.2,0.3,15,15,15,15,15,2.3,1.7,1.4,1.3,1.3,1.2],"fetchReefNM":[1.2,1.2,0.5,0.2,0,0,0,0,0,0,0,0,0,0,0,0,0,0,0.1,0.1,0.1,0.1,0.1,0.2,0.3,15,15,15,15,15,2.3,1.7,1.4,1.3,1.3,1.2]}},{"type":"Feature","geometry":{"type":"Point","coordinates":[139.60568,-17.50429]},"properties":{"id":"osm-node3020493280","name":"Pasco Inlet","kind":"anchorage","source":"OpenStreetMap","sourceRef":"node/3020493280","likelyAnchorage":true,"noAnchoring":false,"noAnchoringName":null,"notes":null,"fetchLandNM":[15,15,15,15,15,15,15,15,15,15,15,10.9,4.6,0.1,0.1,0.1,0.1,0.1,0.1,0.1,0.1,0.1,0.1,0.1,0.1,0.1,0.1,0.1,0.2,0.3,0.3,0.4,0.7,15,15,15],"fetchReefNM":[15,15,15,15,15,15,15,15,15,15,15,10.9,4.6,0.1,0.1,0.1,0.1,0.1,0.1,0.1,0.1,0.1,0.1,0.1,0.1,0.1,0.1,0.1,0.2,0.3,0.3,0.4,0.7,15,15,15]}},{"type":"Feature","geometry":{"type":"Point","coordinates":[139.37699,-16.62642]},"properties":{"id":"osm-node3020494176","name":"Toongoowahgun Inlet","kind":"anchorage","source":"OpenStreetMap","sourceRef":"node/3020494176","likelyAnchorage":true,"noAnchoring":false,"noAnchoringName":null,"notes":null,"fetchLandNM":[0.4,9.1,11.4,14,15,8.1,5.8,5.9,5.4,5.1,4,4.5,4.9,1.1,1,0.3,0.1,0.1,0.1,0,0,0,0,0,0,0,0,0,0,0.1,0.1,0.1,0.1,0.2,0.2,0.3],"fetchReefNM":[0.4,9.1,11.4,14,15,8.1,5.8,5.9,5.4,5.1,4,4.5,4.9,1.1,1,0.3,0.1,0.1,0.1,0,0,0,0,0,0,0,0,0,0,0.1,0.1,0.1,0.1,0.2,0.2,0.3]}},{"type":"Feature","geometry":{"type":"Point","coordinates":[138.14746,-16.68935]},"properties":{"id":"osm-node3020494191","name":"Tully Inlet","kind":"anchorage","source":"OpenStreetMap","sourceRef":"node/3020494191","likelyAnchorage":true,"noAnchoring":false,"noAnchoringName":null,"notes":null,"fetchLandNM":[1.3,1.3,1.2,1.1,1.1,1.2,1.2,1.3,1.5,1.9,2.8,11.2,11,15,15,15,15,15,15,15,15,15,15,15,15,15,15,15,15,15,15,15,4.6,2.4,1.8,1.5],"fetchReefNM":[1.3,1.3,1.2,1.1,1.1,1.2,1.2,1.3,1.5,1.9,2.8,11.2,11,15,15,15,15,15,15,15,15,15,15,15,15,15,15,15,15,15,15,15,4.6,2.4,1.8,1.5]}},{"type":"Feature","geometry":{"type":"Point","coordinates":[139.46462,-16.58088]},"properties":{"id":"osm-node3020494222","name":"Walbor Inlet","kind":"anchorage","source":"OpenStreetMap","sourceRef":"node/3020494222","likelyAnchorage":true,"noAnchoring":false,"noAnchoringName":null,"notes":null,"fetchLandNM":[0.1,0.1,0.1,0.1,0.1,0.1,0.1,0.1,0.1,0.1,0.2,0.5,0.5,0.6,0.8,0.9,1,1.1,2.9,2.9,3,5.7,5.2,5.4,5.8,15,15,15,14.3,13.5,11.9,11.3,8.2,7.2,0.2,0.1],"fetchReefNM":[0.1,0.1,0.1,0.1,0.1,0.1,0.1,0.1,0.1,0.1,0.2,0.5,0.5,0.6,0.8,0.9,1,1.1,2.9,2.9,3,5.7,5.2,5.4,5.8,15,15,15,14.3,13.5,11.9,11.3,8.2,7.2,0.2,0.1]}},{"type":"Feature","geometry":{"type":"Point","coordinates":[139.48165,-16.56948]},"properties":{"id":"osm-node3020494551","name":"Weediah Bay","kind":"anchorage","source":"OpenStreetMap","sourceRef":"node/3020494551","likelyAnchorage":true,"noAnchoring":false,"noAnchoringName":null,"notes":null,"fetchLandNM":[0.7,0.7,0.8,0.8,0.8,0.8,0.8,0.8,0.8,0.9,1.1,15,15,15,15,15,15,15,15,6.2,1.4,1.1,1,1.1,0.8,0.8,0.9,1.2,0.5,0.5,0.5,0.9,0.8,0.8,0.7,0.7],"fetchReefNM":[0.7,0.7,0.8,0.8,0.8,0.8,0.8,0.8,0.8,0.9,1.1,15,15,15,15,15,15,15,15,6.2,1.4,1.1,1,1.1,0.8,0.8,0.9,1.2,0.5,0.5,0.5,0.9,0.8,0.8,0.7,0.7]}},{"type":"Feature","geometry":{"type":"Point","coordinates":[139.64707,-17.53665]},"properties":{"id":"osm-node3020494577","name":"Williams Inlet","kind":"anchorage","source":"OpenStreetMap","sourceRef":"node/3020494577","likelyAnchorage":true,"noAnchoring":false,"noAnchoringName":null,"notes":null,"fetchLandNM":[15,15,15,15,15,15,15,0,0,0,0,0,0,0,0,0,0,0,0,0,0.1,0.1,0.1,0.1,0.1,0.1,0.1,0.1,0.1,0.1,0.2,0.3,15,15,15,15],"fetchReefNM":[15,15,15,15,15,15,15,0,0,0,0,0,0,0,0,0,0,0,0,0,0.1,0.1,0.1,0.1,0.1,0.1,0.1,0.1,0.1,0.1,0.2,0.3,15,15,15,15]}},{"type":"Feature","geometry":{"type":"Point","coordinates":[139.45057,-17.11642]},"properties":{"id":"osm-node3020494579","name":"Wilson Bay","kind":"anchorage","source":"OpenStreetMap","sourceRef":"node/3020494579","likelyAnchorage":true,"noAnchoring":false,"noAnchoringName":null,"notes":null,"fetchLandNM":[1.1,1.2,1.3,1.5,1.6,1.6,1.7,1.5,1.5,1.5,15,15,15,15,15,15,15,15,15,15,15,1.3,1.2,1.2,1.3,1.5,1.5,1.4,1.4,1.2,1.1,1,1.2,1.1,1,1],"fetchReefNM":[1.1,1.2,1.3,1.5,1.6,1.6,1.7,1.5,1.5,1.5,15,15,15,15,15,15,15,15,15,15,15,1.3,1.2,1.2,1.3,1.5,1.5,1.4,1.4,1.2,1.1,1,1.2,1.1,1,1]}}]}