{"type":"FeatureCollection","meta":{"region":"QLD","tile":"t-18e146","built":"2026-08-25","sources":["OpenStreetMap (ODbL)","GBRMPA (CC BY)"]},"features":[{"type":"Feature","geometry":{"type":"Point","coordinates":[146.14022,-17.93464]},"properties":{"id":"osm-node6188860653","name":"Brammo Bay","kind":"anchorage","source":"OpenStreetMap","sourceRef":"node/6188860653","likelyAnchorage":true,"noAnchoring":false,"noAnchoringName":null,"notes":null,"fetchLandNM":[15,15,15,0.3,0.2,0.2,0.2,0.2,0.2,0.2,0.1,0.1,0.1,0.1,0.1,0.1,0.1,0.1,0.1,0.1,0.1,0.1,0.1,0.1,0.1,3,2.7,2.5,2.5,2.6,2.8,3.2,3.6,4,0.6,9.8],"fetchReefNM":[15,15,15,0.3,0.2,0.2,0.2,0.2,0.2,0.2,0.1,0.1,0.1,0.1,0.1,0.1,0.1,0.1,0.1,0.1,0.1,0.1,0.1,0.1,0.1,3,2.7,2.5,2.5,2.6,2.8,3.2,3.6,4,0.6,9.8]}},{"type":"Feature","geometry":{"type":"Point","coordinates":[146.12501,-17.93325]},"properties":{"id":"gbrmpa-80020","name":"Dunk Island","kind":"designated_anchorage","source":"GBRMPA","sourceRef":"80020","likelyAnchorage":true,"noAnchoring":false,"noAnchoringName":null,"notes":"The area within 200 metres of the point 17°55.998′S 146°07.500′E · Management area: Townsville/Whitsunday management area · Great Barrier Reef Marine Park Regulations 2019","fetchLandNM":[15,11.4,15,15,15,0.9,15,15,1,1.1,0.8,0.9,1.3,15,1.5,15,4.2,2.9,15,15,15,2.8,2.7,2.4,2.2,2,1.8,1.6,1.6,1.7,1.8,2.1,2.5,2.9,3.5,4.4],"fetchReefNM":[15,11.4,15,15,15,0.9,15,15,1,1.1,0.8,0.9,1,1.2,1.5,15,2,2.6,15,15,15,2.8,2.7,2.4,2.2,2,1.8,1.6,1.6,1.7,1.8,2.1,2.5,2.9,3.5,4.4]}},{"type":"Feature","geometry":{"type":"Point","coordinates":[146.07107,-17.44145]},"properties":{"id":"osm-node3020491821","name":"Ella Bay","kind":"anchorage","source":"OpenStreetMap","sourceRef":"node/3020491821","likelyAnchorage":true,"noAnchoring":false,"noAnchoringName":null,"notes":null,"fetchLandNM":[1.9,15,15,15,15,15,15,15,15,15,15,15,15,15,15,15,10.2,7.4,2,1.6,1.1,0.8,0.6,0.5,0.4,0.4,0.4,0.4,0.4,0.4,0.4,0.4,0.5,0.5,0.7,0.9],"fetchReefNM":[1.9,15,15,15,15,15,15,15,15,15,15,15,15,15,15,15,10.2,7.4,2,1.6,1.1,0.8,0.6,0.5,0.4,0.4,0.4,0.4,0.4,0.4,0.4,0.4,0.5,0.5,0.7,0.9]}},{"type":"Feature","geometry":{"type":"Point","coordinates":[146.0922,-17.55952]},"properties":{"id":"osm-node3020491830","name":"Etty Bay","kind":"anchorage","source":"OpenStreetMap","sourceRef":"node/3020491830","likelyAnchorage":true,"noAnchoring":false,"noAnchoringName":null,"notes":null,"fetchLandNM":[15,15,15,15,15,15,15,15,15,15,15,15,15,15,0.7,0.3,0.2,0.2,0.2,0.1,0.1,0.1,0.1,0.1,0.1,0.1,0.1,0.1,0.1,0.1,0.1,0.2,0.2,0.2,0.3,8],"fetchReefNM":[15,15,15,15,15,15,15,15,15,15,15,15,15,15,0.7,0.3,0.2,0.2,0.2,0.1,0.1,0.1,0.1,0.1,0.1,0.1,0.1,0.1,0.1,0.1,0.1,0.2,0.2,0.2,0.3,8]}},{"type":"Feature","geometry":{"type":"Point","coordinates":[146.03305,-17.52402]},"properties":{"id":"osm-node5528118098","name":"Innisfail Wharf","kind":"marina","source":"OpenStreetMap","sourceRef":"node/5528118098","likelyAnchorage":true,"noAnchoring":false,"noAnchoringName":null,"notes":null,"fetchLandNM":[9.8,8.4,5.3,3.9,3.7,3.2,2.3,2.2,2.1,2.2,2.7,3,3.8,7,10,10.4,12.3,15,15,15,15,15,15,15,15,15,15,15,15,15,15,15,15,15,15,15],"fetchReefNM":[9.8,8.4,5.3,3.9,3.7,3.2,2.3,2.2,2.1,2.2,2.7,3,3.8,7,10,10.4,12.3,15,15,15,15,15,15,15,15,15,15,15,15,15,15,15,15,15,15,15]}},{"type":"Feature","geometry":{"type":"Point","coordinates":[146.09816,-17.97321]},"properties":{"id":"osm-node12164916817","name":"Kennedy Bay","kind":"anchorage","source":"OpenStreetMap","sourceRef":"node/12164916817","likelyAnchorage":true,"noAnchoring":false,"noAnchoringName":null,"notes":null,"fetchLandNM":[0,0,0,0,0,0,0,0,0,0,0,0,0.1,0.1,0.1,0.2,0.2,15,15,15,14.6,10.4,3.5,1.2,0.6,0.4,0.2,0.1,0.1,0,0,0,0,0,0,0],"fetchReefNM":[0,0,0,0,0,0,0,0,0,0,0,0,0.1,0.1,0.1,0.2,0.2,15,15,15,14.6,10.4,3.5,1.2,0.6,0.4,0.2,0.1,0.1,0,0,0,0,0,0,0]}},{"type":"Feature","geometry":{"type":"Point","coordinates":[146.0955,-17.96387]},"properties":{"id":"osm-node171257525","name":"Lugger Bay","kind":"anchorage","source":"OpenStreetMap","sourceRef":"node/171257525","likelyAnchorage":true,"noAnchoring":false,"noAnchoringName":null,"notes":null,"fetchLandNM":[1.7,6.3,15,15,15,15,3,3,3.8,4.3,15,15,0.3,0.3,0.3,0.3,0.3,0.3,0.2,0.2,0.2,0.2,0.2,0.2,0.2,0.2,0.2,0.2,0.2,0.2,0.2,0.2,0.3,0.4,0.7,1.1],"fetchReefNM":[1.7,6.3,15,15,15,15,2.9,2.8,2.9,4.3,2.2,2.1,0.3,0.3,0.3,0.3,0.3,0.3,0.2,0.2,0.2,0.2,0.2,0.2,0.2,0.2,0.2,0.2,0.2,0.2,0.2,0.2,0.3,0.4,0.7,1.1]}},{"type":"Feature","geometry":{"type":"Point","coordinates":[146.12154,-17.60614]},"properties":{"id":"osm-node3020493023","name":"Mourilyan Harbour","kind":"anchorage","source":"OpenStreetMap","sourceRef":"node/3020493023","likelyAnchorage":true,"noAnchoring":false,"noAnchoringName":null,"notes":null,"fetchLandNM":[0.4,0.4,0.4,0.5,0.5,0.4,0.3,0.3,0.3,0.3,0.3,0.3,0.3,0.4,0.4,0.5,0.5,0.6,0.7,0.6,0.6,0.5,0.5,0.5,0.4,0.3,0.3,0.2,0.2,0.2,0.3,0.3,0.3,0.3,0.3,0.3],"fetchReefNM":[0.4,0.4,0.4,0.5,0.5,0.4,0.3,0.3,0.3,0.3,0.3,0.3,0.3,0.4,0.4,0.5,0.5,0.6,0.7,0.6,0.6,0.5,0.5,0.5,0.4,0.3,0.3,0.2,0.2,0.2,0.3,0.3,0.3,0.3,0.3,0.3]}},{"type":"Feature","geometry":{"type":"Point","coordinates":[146.1004,-17.97172]},"properties":{"id":"osm-node4308369120","name":"Turtle Bay","kind":"anchorage","source":"OpenStreetMap","sourceRef":"node/4308369120","likelyAnchorage":true,"noAnchoring":false,"noAnchoringName":null,"notes":null,"fetchLandNM":[0,0,15,15,15,3,3,3.2,4,15,15,15,3.2,4.8,15,15,0,0,0,0,0,0,0,0,0,0,0,0,0,0,0,0,0,0,0,0],"fetchReefNM":[0,0,15,15,15,2.9,2.7,2.8,2,1.9,1.7,15,3.2,3.3,15,15,0,0,0,0,0,0,0,0,0,0,0,0,0,0,0,0,0,0,0,0]}}]}