{"type":"FeatureCollection","meta":{"tile":"t-18e144","built":"2026-08-25"},"features":[{"type":"Feature","geometry":{"type":"Polygon","coordinates":[[[145.929,-16.86],[145.9633,-16.8944],[145.9632,-16.905],[145.9063,-17.0078],[145.9003,-17.0077],[145.8971,-16.9972],[145.8997,-16.9934],[145.8984,-16.9898],[145.9007,-16.9821],[145.9194,-16.9598],[145.9282,-16.9509],[145.9346,-16.9473],[145.9572,-16.9037],[145.9549,-16.8972],[145.9581,-16.8968],[145.9547,-16.8934],[145.9537,-16.8899],[145.951,-16.8898],[145.9503,-16.8916],[145.9476,-16.8907],[145.9435,-16.8818],[145.9348,-16.8754],[145.9283,-16.8657],[145.9166,-16.8646],[145.9166,-16.8601],[145.929,-16.86]],[[145.9011,-16.9943],[145.9016,-16.9937],[145.9002,-16.9932],[145.9011,-16.9943]],[[145.8997,-16.9914],[145.9002,-16.992],[145.9002,-16.9915],[145.8997,-16.9914]],[[145.9432,-16.8815],[145.9435,-16.8815],[145.9432,-16.8814],[145.9432,-16.8815]],[[145.9213,-16.8646],[145.9213,-16.8643],[145.9212,-16.8645],[145.9213,-16.8646]],[[145.9212,-16.8649],[145.9213,-16.8648],[145.9213,-16.8646],[145.9212,-16.8649]],[[145.9558,-16.8997],[145.9559,-16.8996],[145.9558,-16.8995],[145.9558,-16.8997]],[[145.8999,-16.9912],[145.9001,-16.9912],[145.9,-16.9911],[145.8999,-16.9912]],[[145.9516,-16.8896],[145.9517,-16.8895],[145.9515,-16.8895],[145.9516,-16.8896]],[[145.9317,-16.8699],[145.9316,-16.87],[145.9317,-16.8699],[145.9317,-16.8699]],[[145.9346,-16.8731],[145.9346,-16.8732],[145.9347,-16.8731],[145.9346,-16.8731]],[[145.9348,-16.873],[145.9348,-16.873],[145.9348,-16.873],[145.9348,-16.873]],[[145.9541,-16.8909],[145.9541,-16.8909],[145.9541,-16.8908],[145.9541,-16.8909]],[[145.9557,-16.8998],[145.9558,-16.8998],[145.9557,-16.8998],[145.9557,-16.8998]]]},"properties":{"id":"gbrmpa-zone-355","type":"Habitat Protection Zone","zone":"Dark Blue Zone","color":"#3f6fb0","name":"HP-16-5131","permit":"Cape Grafton coastal area","source":"GBRMPA"}},{"type":"Feature","geometry":{"type":"Polygon","coordinates":[[[146,-16.33],[145.98,-16.31],[145.98,-16.3],[145.99,-16.29],[146.02,-16.29],[146.02,-16.31],[146,-16.33]]]},"properties":{"id":"gbrmpa-zone-378","type":"Habitat Protection Zone","zone":"Dark Blue Zone","color":"#3f6fb0","name":"HP-16-5125","permit":"Linden Bank (16-033)","source":"GBRMPA"}},{"type":"Feature","geometry":{"type":"Polygon","coordinates":[[[145.4748,-16.0805],[145.481,-16.0809],[145.461,-16.138],[145.454,-16.167],[145.454,-16.197],[145.461,-16.197],[145.476,-16.21],[145.476,-16.2225],[145.4707,-16.2225],[145.468,-16.2163],[145.4684,-16.2122],[145.4655,-16.2094],[145.463,-16.2079],[145.4597,-16.2084],[145.4524,-16.2022],[145.4497,-16.2044],[145.4445,-16.2019],[145.4418,-16.1929],[145.4412,-16.1792],[145.444,-16.1695],[145.4438,-16.159],[145.4458,-16.1523],[145.4545,-16.1328],[145.4585,-16.128],[145.4575,-16.1126],[145.4667,-16.0993],[145.465,-16.0975],[145.4668,-16.0885],[145.4727,-16.0806],[145.4748,-16.0805]],[[145.4479,-16.1698],[145.4473,-16.1705],[145.4483,-16.1705],[145.4479,-16.1698]]]},"properties":{"id":"gbrmpa-zone-418","type":"Conservation Park Zone","zone":"Yellow Zone","color":"#e8c23f","name":"CP-16-4028","permit":"Cape Tribulation to Baileys Point","source":"GBRMPA"}},{"type":"Feature","geometry":{"type":"Polygon","coordinates":[[[145.5596,-16.3847],[145.5594,-16.3834],[145.5613,-16.3845],[145.5596,-16.3847]]]},"properties":{"id":"gbrmpa-zone-736","type":"Commonwealth Islands Zone (GBRMPA)","zone":"Commonwealth Island Zone","color":"#b0b8bd","name":"Low Island (16028101)","permit":null,"source":"GBRMPA"}},{"type":"Feature","geometry":{"type":"Polygon","coordinates":[[[145.6292,-16.7053],[145.7,-16.722],[145.7,-16.734],[145.694,-16.74],[145.6941,-16.7753],[145.6924,-16.7798],[145.6887,-16.7798],[145.6844,-16.7773],[145.675,-16.7624],[145.6716,-16.7506],[145.6719,-16.7398],[145.6734,-16.7399],[145.6664,-16.7343],[145.6641,-16.7363],[145.6552,-16.7297],[145.6537,-16.7307],[145.6509,-16.7291],[145.6292,-16.7053]],[[145.6862,-16.7224],[145.683,-16.7251],[145.6791,-16.7253],[145.679,-16.7286],[145.6856,-16.7257],[145.6889,-16.7262],[145.6862,-16.7224]],[[145.6905,-16.7287],[145.6918,-16.7298],[145.691,-16.7284],[145.6905,-16.7287]],[[145.6953,-16.7309],[145.695,-16.7317],[145.6961,-16.7317],[145.6953,-16.7309]],[[145.6936,-16.7298],[145.6931,-16.7309],[145.6938,-16.7308],[145.6936,-16.7298]],[[145.6962,-16.7309],[145.6962,-16.731],[145.6964,-16.7311],[145.6962,-16.7309]],[[145.6714,-16.7377],[145.6715,-16.7376],[145.6715,-16.7376],[145.6714,-16.7377]]]},"properties":{"id":"gbrmpa-zone-364","type":"Habitat Protection Zone","zone":"Dark Blue Zone","color":"#3f6fb0","name":"HP-16-5130","permit":"Ellis Beach/Palm Cove coastal area: Double Island Reef (16-047) and Haycock Island Reef (16-048)","source":"GBRMPA"}},{"type":"Feature","geometry":{"type":"Polygon","coordinates":[[[146.0765,-16.5767],[146.0132,-16.6237],[145.9637,-16.6237],[145.9497,-16.6098],[145.9497,-16.5927],[145.9651,-16.5811],[145.965,-16.4],[146.021,-16.4],[146.0765,-16.5177],[146.0765,-16.5767]],[[145.9767,-16.6053],[145.9726,-16.6059],[145.9709,-16.6078],[145.9768,-16.6066],[145.9767,-16.6053]]]},"properties":{"id":"gbrmpa-zone-376","type":"Marine National Park Zone","zone":"Green Zone","color":"#2fae5a","name":"MNP-16-1050","permit":"Norman Reef (16-030), Saxon Reef (16-032), Hastings Reef (16-057) and Michaelmas Reef (16-060)","source":"GBRMPA"}},{"type":"Feature","geometry":{"type":"Polygon","coordinates":[[[146,-16.74],[146.04,-16.7801],[146.04,-16.8101],[146,-16.8101],[145.961,-16.7761],[145.9373,-16.7401],[145.9373,-16.7252],[145.9534,-16.7252],[146,-16.74]],[[145.9765,-16.7572],[145.9748,-16.7584],[145.9694,-16.7579],[145.9721,-16.7604],[145.9721,-16.767],[145.9781,-16.773],[145.985,-16.773],[145.991,-16.7689],[145.997,-16.7689],[145.9971,-16.761],[145.978,-16.756],[145.9765,-16.7572]]]},"properties":{"id":"gbrmpa-zone-362","type":"Marine National Park Zone","zone":"Green Zone","color":"#2fae5a","name":"MNP-16-1055","permit":"Green Island Reef (16-049)","source":"GBRMPA"}},{"type":"Feature","geometry":{"type":"Polygon","coordinates":[[[146.0059,-16.1186],[146.1743,-16.3771],[146.1743,-16.5164],[146.259,-16.6253],[146.3529,-16.6253],[146.389,-16.6727],[146.2366,-16.6727],[146.2366,-16.78],[146.16,-16.78],[146.1599,-16.9201],[146.1103,-16.9679],[146.0124,-16.9679],[146.0124,-17.0327],[146.0903,-17.1601],[146.2677,-17.1601],[146.2675,-17.2137],[146.1277,-17.2137],[146.1277,-17.2866],[146.2207,-17.4],[146.3407,-17.4],[146.3407,-17.5397],[146.3606,-17.5595],[146.387,-17.5776],[146.3974,-17.6113],[146.3837,-17.6463],[146.3685,-17.6511],[146.3685,-17.6696],[146.3798,-17.6818],[146.3661,-17.7236],[146.3661,-17.7448],[146.3995,-17.7608],[146.434,-17.822],[146.457,-17.87],[146.5188,-17.9204],[146.6187,-17.9204],[146.6381,-17.9004],[146.6381,-17.8811],[146.6806,-17.8811],[146.72,-17.9467],[146.72,-18.18],[146.6266,-18.2156],[146.6266,-18.2333],[146.64,-18.26],[146.66,-18.28],[146.7,-18.28],[146.7,-18.3633],[146.6818,-18.3633],[146.6558,-18.375],[146.6558,-18.3918],[146.6694,-18.423],[146.6867,-18.4381],[146.7276,-18.4554],[146.7445,-18.4554],[146.7788,-18.42],[146.8431,-18.42],[146.9,-18.385],[146.971,-18.385],[146.971,-18.4645],[146.9865,-18.4864],[147.0194,-18.54],[147.1396,-18.58],[147.2466,-18.5641],[147.2466,-18.4853],[147.35,-18.4853],[147.3722,-18.5412],[147.3722,-18.6426],[147.5,-18.74],[147.5,-18.8268],[147.5931,-18.8268],[147.6708,-18.9042],[147.6708,-18.9658],[147.6925,-18.9903],[147.7251,-18.9903],[147.8201,-18.9531],[147.8201,-18.92],[147.7236,-18.8239],[147.8473,-18.8239],[147.8473,-18.8852],[147.86,-18.92],[147.9,-18.96],[147.96,-18.96],[148.0001,-19],[148.0562,-19],[148.0562,-19.0999],[148.08,-19.0999],[148.08,-19.2],[147.7994,-19.2],[147.7994,-19.3453],[147.845,-19.3453],[147.845,-19.371],[147.8746,-19.371],[147.8746,-19.3873],[147.9793,-19.4396],[148.1504,-19.4396],[148.1504,-19.25],[148.27,-19.25],[148.4858,-19.2583],[148.6202,-19.3596],[148.6303,-19.4502],[148.7301,-19.54],[148.8701,-19.55],[148.92,-19.55],[148.92,-19.5878],[149.1328,-19.5878],[149.21,-19.62],[149.14,-19.72],[149.14,-19.732],[149.0563,-19.7813],[149.0561,-19.8294],[148.8575,-19.8294],[148.8575,-19.6747],[148.7503,-19.6202],[148.5013,-19.6202],[148.5013,-19.9248],[148.55,-19.9474],[148.55,-20],[148.57,-20],[148.625,-20.0541],[148.8401,-20.0541],[148.8401,-20.1],[148.76,-20.22],[148.7531,-20.22],[148.7531,-20.2349],[148.7513,-20.2441],[148.7533,-20.2579],[148.7527,-20.2614],[148.7516,-20.2606],[148.753,-20.2623],[148.7517,-20.2613],[148.7501,-20.2628],[148.7475,-20.2624],[148.7409,-20.2587],[148.7399,-20.253],[148.7339,-20.2535],[148.6803,-20.231],[148.6713,-20.2381],[148.6706,-20.2441],[148.6683,-20.2471],[148.6633,-20.2473],[148.6627,-20.2375],[148.6679,-20.2353],[148.6681,-20.2317],[148.6614,-20.2213],[148.6605,-20.217],[148.6634,-20.2136],[148.6657,-20.2037],[148.6725,-20.1952],[148.6767,-20.1931],[148.6781,-20.187],[148.6769,-20.1757],[148.6736,-20.1817],[148.6764,-20.1851],[148.6765,-20.1882],[148.673,-20.1917],[148.6677,-20.1935],[148.6664,-20.1994],[148.6606,-20.2014],[148.6612,-20.2068],[148.6531,-20.2166],[148.6478,-20.2156],[148.6449,-20.2125],[148.6481,-20.2026],[148.6459,-20.195],[148.6461,-20.1739],[148.6386,-20.1706],[148.6359,-20.1734],[148.6335,-20.1826],[148.6302,-20.1856],[148.628,-20.1905],[148.6293,-20.2001],[148.6338,-20.2099],[148.6336,-20.2162],[148.63,-20.2198],[148.6258,-20.2194],[148.624,-20.2166],[148.6202,-20.2155],[148.6182,-20.2162],[148.6161,-20.2208],[148.6141,-20.221],[148.6116,-20.2162],[148.6047,-20.2137],[148.6015,-20.2105],[148.6044,-20.2066],[148.6037,-20.2024],[148.6131,-20.194],[148.6201,-20.1771],[148.6131,-20.1829],[148.6083,-20.184],[148.5976,-20.2011],[148.5898,-20.1993],[148.5854,-20.1958],[148.5823,-20.1965],[148.5817,-20.1902],[148.5835,-20.1809],[148.5868,-20.1774],[148.5931,-20.1757],[148.5977,-20.1678],[148.5951,-20.16],[148.6201,-20.16],[148.6201,-20.12],[148.6001,-20.12],[148.5918,-20.1529],[148.5797,-20.1275],[148.5674,-20.1133],[148.58,-20.1133],[148.5801,-20.0899],[148.5656,-20.09],[148.5601,-20.1062],[148.555,-20.1061],[148.5535,-20.1027],[148.5567,-20.0994],[148.5532,-20.0943],[148.5594,-20.091],[148.5611,-20.0885],[148.5607,-20.085],[148.5662,-20.0818],[148.5641,-20.0777],[148.5661,-20.0757],[148.5613,-20.0709],[148.5636,-20.067],[148.5563,-20.0659],[148.5535,-20.0691],[148.5563,-20.072],[148.556,-20.0737],[148.5467,-20.0731],[148.5454,-20.0753],[148.5406,-20.0763],[148.5398,-20.0788],[148.5369,-20.0788],[148.5302,-20.0847],[148.5146,-20.0768],[148.4832,-20.0458],[148.4832,-19.9958],[148.4665,-19.9791],[148.4665,-19.9666],[148.4457,-19.9666],[148.4331,-19.9791],[148.4331,-20.025],[148.4373,-20.0458],[148.4539,-20.0558],[148.4539,-20.0603],[148.3277,-20.0735],[148.3077,-20.0418],[148.3077,-20.0118],[148.2746,-20.0118],[148.2728,-20.006],[148.2659,-20.0002],[148.2661,-19.9943],[148.2681,-19.9924],[148.2663,-19.9901],[148.2679,-19.9885],[148.2671,-19.9846],[148.2645,-19.9838],[148.2602,-19.9745],[148.257,-19.9851],[148.241,-19.9848],[148.2323,-19.9769],[148.2266,-19.9658],[148.2216,-19.9641],[148.2233,-19.9594],[148.2213,-19.957],[148.2079,-19.9503],[148.2062,-19.9515],[148.1992,-19.9475],[148.1938,-19.949],[148.1963,-19.9501],[148.1939,-19.9516],[148.1912,-19.9494],[148.1789,-19.9469],[148.1731,-19.9504],[148.173,-19.9485],[148.1699,-19.9478],[148.1708,-19.9499],[148.1692,-19.9515],[148.1637,-19.95],[148.1631,-19.9484],[148.1492,-19.9452],[148.1458,-19.9452],[148.142,-19.9475],[148.141,-19.9448],[148.1364,-19.9465],[148.1254,-19.9428],[148.1206,-19.9423],[148.1203,-19.9447],[148.1077,-19.9385],[148.1077,-19.8452],[148.036,-19.8452],[148.036,-19.8913],[148.0265,-19.8937],[148.0198,-19.8994],[148.0181,-19.9019],[148.0174,-19.912],[148.0059,-19.9183],[148.0079,-19.9188],[148.0038,-19.92],[148.0053,-19.9204],[148.0011,-19.9241],[147.9961,-19.9265],[147.9939,-19.9251],[147.987,-19.9266],[147.9805,-19.9239],[147.908,-19.8437],[147.9,-19.7656],[147.8234,-19.6974],[147.7391,-19.6974],[147.7391,-19.7516],[147.5995,-19.7516],[147.5942,-19.7328],[147.5874,-19.7252],[147.5921,-19.7137],[147.5964,-19.7116],[147.5965,-19.7036],[147.6042,-19.6913],[147.6053,-19.6701],[147.6071,-19.6685],[147.6072,-19.6625],[147.598,-19.6486],[147.594,-19.6491],[147.5907,-19.6464],[147.5872,-19.6459],[147.5865,-19.6396],[147.5848,-19.64],[147.5826,-19.6369],[147.5738,-19.6323],[147.5729,-19.6287],[147.5751,-19.6272],[147.5772,-19.6279],[147.5791,-19.6235],[147.5764,-19.6097],[147.572,-19.6055],[147.572,-19.5976],[147.5738,-19.596],[147.5717,-19.5816],[147.5648,-19.5613],[147.551,-19.5334],[147.5457,-19.5261],[147.5445,-19.5265],[147.546,-19.5278],[147.5453,-19.5291],[147.5396,-19.5312],[147.5374,-19.526],[147.5299,-19.5167],[147.5289,-19.5128],[147.5185,-19.4987],[147.5174,-19.4911],[147.5142,-19.492],[147.5073,-19.4756],[147.4953,-19.4627],[147.4931,-19.4627],[147.4943,-19.4642],[147.4932,-19.4656],[147.4894,-19.467],[147.4877,-19.4658],[147.4803,-19.4491],[147.4804,-19.4478],[147.5215,-19.4478],[147.4724,-19.3646],[147.4121,-19.3],[147.378,-19.3],[147.378,-19.2667],[147.2614,-19.2667],[147.2614,-19.388],[147.1135,-19.388],[147.1081,-19.3804],[147.0868,-19.3642],[147.0726,-19.349],[147.0706,-19.3486],[147.0706,-19.3507],[147.0673,-19.3475],[147.0648,-19.3424],[147.0661,-19.34],[147.0498,-19.3067],[147.0455,-19.305],[147.0434,-19.3022],[147.0409,-19.302],[147.0403,-19.2929],[147.0491,-19.2924],[147.0491,-19.282],[147.0691,-19.282],[147.0691,-19.2625],[147.0772,-19.2625],[147.0772,-19.2526],[147.0691,-19.2526],[147.0761,-19.168],[147.012,-19.18],[146.8631,-19.2909],[146.8578,-19.2829],[147.001,-19.1267],[146.8943,-19.1266],[146.8873,-19.1125],[146.8873,-19.1001],[146.833,-19.1001],[146.833,-19.1048],[146.8023,-19.1155],[146.7975,-19.1137],[146.7914,-19.1159],[146.7897,-19.1151],[146.7872,-19.1217],[146.7813,-19.1237],[146.779,-19.1287],[146.7798,-19.1306],[146.6469,-19.1762],[146.6322,-19.1722],[146.6167,-19.1641],[146.6024,-19.1505],[146.6002,-19.1515],[146.5944,-19.1472],[146.5812,-19.145],[146.5708,-19.1461],[146.5631,-19.144],[146.5525,-19.1346],[146.545,-19.1213],[146.5333,-19.1157],[146.5167,-19.1008],[146.5142,-19.0998],[146.5126,-19.1017],[146.5056,-19.0988],[146.5012,-19.0998],[146.4961,-19.0986],[146.4909,-19.096],[146.481,-19.0865],[146.4774,-19.0804],[146.4708,-19.0756],[146.4551,-19.074],[146.4495,-19.0685],[146.4506,-19.0638],[146.4486,-19.0613],[146.4434,-19.0612],[146.4381,-19.0548],[146.4284,-19.0413],[146.4265,-19.0363],[146.4226,-19.0336],[146.4074,-19.0111],[146.4048,-19.0078],[146.4018,-19.0067],[146.4007,-19.0031],[146.3961,-18.9981],[146.3896,-18.9974],[146.3878,-18.9994],[146.3826,-18.9993],[146.3758,-18.9939],[146.3715,-18.9882],[146.3633,-18.9676],[146.3609,-18.9672],[146.3602,-18.9647],[146.3582,-18.9644],[146.3545,-18.9597],[146.3441,-18.9593],[146.3337,-18.9537],[146.3301,-18.9383],[146.3222,-18.9277],[146.3216,-18.9241],[146.3163,-18.9172],[146.3115,-18.9152],[146.305,-18.9066],[146.2995,-18.903],[146.2888,-18.8888],[146.2872,-18.8886],[146.285,-18.8833],[146.2846,-18.8743],[146.3626,-18.8743],[146.3626,-18.9281],[146.473,-18.9281],[146.473,-18.8519],[146.4468,-18.8519],[146.4468,-18.7495],[146.2878,-18.7495],[146.2889,-18.742],[146.2905,-18.7416],[146.2924,-18.7377],[146.3028,-18.7005],[146.3217,-18.6593],[146.3359,-18.6341],[146.337,-18.6272],[146.3323,-18.6207],[146.3357,-18.6161],[146.338,-18.6092],[146.3382,-18.6065],[146.3362,-18.604],[146.3368,-18.5957],[146.3408,-18.5785],[146.3896,-18.5785],[146.3928,-18.5639],[146.3924,-18.5474],[146.3944,-18.5358],[146.3935,-18.5178],[146.3914,-18.5102],[146.3846,-18.4985],[146.3363,-18.5129],[146.3296,-18.496],[146.3401,-18.496],[146.3401,-18.456],[146.3441,-18.444],[146.3681,-18.4312],[146.3681,-18.343],[146.3111,-18.343],[146.2931,-18.3175],[146.3007,-18.288],[146.3243,-18.2465],[146.331,-18.2399],[146.331,-18.216],[146.3767,-18.216],[146.3767,-18.127],[146.2306,-18.127],[146.1638,-18.1418],[146.013,-18.2132],[146.0098,-18.1883],[146.0073,-18.1806],[146.0075,-18.1624],[146.0092,-18.16],[146.006,-18.1409],[146.0063,-18.1276],[146.0099,-18.1164],[146.0209,-18.0976],[146.0255,-18.0925],[146.0261,-18.0857],[146.03,-18.0831],[146.0379,-18.0488],[146.0417,-18.0408],[146.0499,-18.0328],[146.1,-18.0328],[146.1913,-18.0571],[146.1913,-18.066],[146.2217,-18.066],[146.2217,-17.9922],[146.1994,-17.9922],[146.1702,-17.91],[146.1703,-17.7987],[146.1902,-17.7199],[146.1927,-17.6502],[146.171,-17.5818],[146.1183,-17.5818],[146.1026,-17.5702],[146.0793,-17.537],[146.079,-17.5307],[146.0698,-17.5232],[146.0696,-17.5118],[146.0774,-17.506],[146.0774,-17.4801],[146.0764,-17.477],[146.0733,-17.477],[146.0705,-17.4742],[146.0647,-17.461],[146.0639,-17.4547],[146.0658,-17.4348],[146.0697,-17.4186],[146.0914,-17.4186],[146.0914,-17.4009],[146.0724,-17.4009],[146.0724,-17.3945],[146.069,-17.392],[146.0672,-17.3878],[146.0611,-17.3845],[146.0556,-17.3874],[146.0513,-17.3854],[146.0431,-17.3753],[146.0358,-17.3607],[146.0196,-17.3456],[146.0056,-17.3147],[146.0008,-17.2916],[145.9987,-17.2894],[145.9968,-17.2819],[145.9962,-17.2742],[145.9832,-17.2497],[145.9794,-17.2473],[145.976,-17.2487],[145.9762,-17.2202],[145.9697,-17.2185],[145.97,-17.212],[145.9629,-17.1957],[145.9615,-17.1803],[145.9653,-17.1707],[145.9634,-17.1685],[145.9863,-17.1684],[145.9863,-17.1309],[145.9747,-17.1186],[145.9299,-17.1176],[145.9222,-17.1068],[145.9164,-17.0873],[145.9131,-17.0864],[145.9087,-17.0822],[145.9017,-17.0744],[145.8969,-17.0659],[145.8926,-17.0643],[145.891,-17.0599],[145.8905,-17.0377],[145.8963,-17.0149],[145.8996,-17.0078],[145.9063,-17.0078],[145.9632,-16.905],[145.9633,-16.8944],[145.929,-16.86],[145.915,-16.8601],[145.8494,-16.8702],[145.8493,-16.8185],[145.6941,-16.7753],[145.694,-16.74],[145.7,-16.734],[145.7,-16.722],[145.6273,-16.7048],[145.6212,-16.6992],[145.604,-16.6938],[145.5972,-16.6938],[145.5904,-16.6888],[145.582,-16.6872],[145.5737,-16.6705],[145.5709,-16.6595],[145.6176,-16.6595],[145.6176,-16.6371],[145.562,-16.566],[145.532,-16.5],[145.5321,-16.4583],[145.466,-16.4583],[145.461,-16.3509],[145.461,-16.3189],[145.5187,-16.3189],[145.5187,-16.2964],[145.4908,-16.274],[145.4908,-16.2374],[145.476,-16.2225],[145.476,-16.21],[145.461,-16.197],[145.454,-16.197],[145.454,-16.167],[145.461,-16.138],[145.481,-16.0809],[145.5595,-16.0809],[145.5595,-16.3392],[145.5423,-16.3392],[145.5423,-16.4142],[145.5791,-16.4533],[145.6802,-16.4532],[145.7235,-16.48],[145.84,-16.48],[145.86,-16.46],[145.86,-16.42],[145.9504,-16.3296],[145.9261,-16.3102],[145.9261,-16.1847],[145.8871,-16.164],[145.88,-16.1542],[145.88,-16.08],[145.9808,-16.08],[146.0059,-16.1186]],[[146.4751,-18.5611],[146.4751,-18.655],[146.4831,-18.673],[146.4915,-18.673],[146.4915,-18.6833],[146.505,-18.75],[146.505,-18.7916],[146.56,-18.7916],[146.56,-18.83],[146.5336,-18.82],[146.5183,-18.82],[146.5183,-18.8441],[146.53,-18.85],[146.54,-18.86],[146.56,-18.86],[146.56,-18.9017],[146.7268,-18.9017],[146.7268,-18.9504],[146.9951,-18.9504],[146.9951,-18.8297],[146.5511,-18.5333],[146.475,-18.5333],[146.4751,-18.5611]],[[145.965,-16.4512],[145.965,-16.5344],[145.94,-16.5344],[145.94,-16.56],[145.9,-16.64],[145.92,-16.7],[145.9373,-16.7],[145.9373,-16.7401],[145.961,-16.7761],[146,-16.8101],[146.04,-16.8101],[146.04,-16.7801],[146.0749,-16.7801],[146.1271,-16.7359],[146.1877,-16.6139],[146.0707,-16.3899],[146.021,-16.3899],[146.021,-16.4],[145.965,-16.4],[145.965,-16.4512]],[[147.5111,-19.2149],[147.5111,-19.3223],[147.6329,-19.3223],[147.6329,-19.4508],[147.7064,-19.4508],[147.7064,-19.2149],[147.5111,-19.2149]],[[146.56,-17.981],[146.5048,-18.034],[146.4894,-18.0642],[146.4894,-18.1106],[146.5041,-18.1244],[146.5269,-18.1286],[146.5764,-18.1041],[146.6393,-18.0422],[146.6393,-17.9598],[146.58,-17.9598],[146.58,-17.981],[146.56,-17.981]],[[147.0201,-18.65],[147.0401,-18.66],[147.0601,-18.66],[147.0901,-18.65],[147.0901,-18.61],[147.0201,-18.61],[147.0201,-18.65]],[[147.9165,-19.0083],[147.9165,-19.05],[147.9291,-19.0625],[147.954,-19.0625],[147.954,-19.025],[147.9373,-19.0083],[147.9165,-19.0083]],[[147.2732,-18.6108],[147.2732,-18.646],[147.3153,-18.646],[147.3153,-18.6108],[147.2732,-18.6108]],[[145.977,-16.929],[145.9854,-16.95],[146.02,-16.95],[146.02,-16.91],[145.996,-16.91],[145.977,-16.929]],[[147.08,-18.7],[147.0867,-18.7066],[147.1134,-18.7066],[147.1267,-18.7],[147.1267,-18.68],[147.1134,-18.6733],[147.1001,-18.6733],[147.08,-18.6867],[147.08,-18.7]],[[146.066,-17.2],[146.066,-17.238],[146.1,-17.238],[146.1,-17.2],[146.066,-17.2]],[[147.2481,-18.7551],[147.2636,-18.7659],[147.2757,-18.7659],[147.2997,-18.7423],[147.2762,-18.7259],[147.2481,-18.7465],[147.2481,-18.7551]],[[145.98,-16.31],[146,-16.33],[146.02,-16.31],[146.02,-16.29],[145.99,-16.29],[145.98,-16.3],[145.98,-16.31]],[[146.6483,-19.0347],[146.6422,-19.0164],[146.59,-19.0279],[146.5828,-19.0312],[146.5828,-19.0375],[146.5955,-19.0454],[146.6483,-19.0347]],[[148.6361,-20.087],[148.6361,-20.118],[148.6691,-20.118],[148.6691,-20.087],[148.6361,-20.087]],[[145.9997,-17.1655],[146.0113,-17.1759],[146.0239,-17.1759],[146.0239,-17.1304],[145.9997,-17.1304],[145.9997,-17.1655]],[[148.4501,-19.34],[148.4501,-19.3057],[148.4307,-19.3057],[148.42,-19.3154],[148.42,-19.34],[148.4501,-19.34]],[[146.8657,-18.4956],[146.8901,-18.4957],[146.89,-18.47],[146.8818,-18.4617],[146.86,-18.4687],[146.86,-18.49],[146.8657,-18.4956]],[[146.4601,-18.1],[146.4601,-18.07],[146.43,-18.07],[146.43,-18.09],[146.44,-18.1],[146.4601,-18.1]],[[148.3501,-19.38],[148.3501,-19.35],[148.3301,-19.35],[148.32,-19.3642],[148.32,-19.38],[148.3501,-19.38]],[[148.36,-19.2943],[148.36,-19.2648],[148.3376,-19.2648],[148.33,-19.28],[148.33,-19.2943],[148.36,-19.2943]],[[148.3396,-19.7182],[148.3396,-19.7421],[148.3718,-19.7421],[148.3718,-19.7182],[148.3396,-19.7182]],[[146.6267,-18.9534],[146.62,-18.96],[146.614,-18.9721],[146.614,-18.9821],[146.6241,-18.9821],[146.6467,-18.9734],[146.6467,-18.9534],[146.6267,-18.9534]],[[147.6222,-19.1498],[147.6243,-19.1533],[147.6446,-19.1533],[147.6446,-19.1282],[147.6151,-19.1282],[147.6151,-19.1379],[147.6222,-19.1498]],[[146.5467,-19.0867],[146.5467,-19.1],[146.5734,-19.1133],[146.5801,-19.1],[146.5601,-19.0867],[146.5467,-19.0867]],[[146.6734,-18.9867],[146.6734,-19.0067],[146.7001,-19.0067],[146.7001,-18.9933],[146.6934,-18.9867],[146.6734,-18.9867]],[[148.7021,-20.106],[148.7021,-20.119],[148.711,-20.119],[148.7291,-20.105],[148.7291,-20.096],[148.7151,-20.096],[148.7021,-20.106]],[[148.528,-20.062],[148.528,-20.074],[148.5401,-20.074],[148.5501,-20.064],[148.5501,-20.052],[148.538,-20.052],[148.528,-20.062]],[[148.3528,-19.764],[148.3528,-19.7799],[148.3767,-19.7799],[148.3767,-19.764],[148.3528,-19.764]],[[148.7067,-20.1733],[148.7001,-20.18],[148.7001,-20.1933],[148.7134,-20.1933],[148.7201,-20.1867],[148.7201,-20.1733],[148.7067,-20.1733]],[[148.356,-19.976],[148.356,-19.992],[148.3761,-19.992],[148.3761,-19.976],[148.356,-19.976]],[[148.6001,-20.0867],[148.6001,-20.1067],[148.6157,-20.1068],[148.6157,-20.0867],[148.6001,-20.0867]],[[146.3385,-18.6934],[146.3385,-18.6734],[146.3251,-18.6734],[146.3251,-18.6934],[146.3385,-18.6934]],[[146.3537,-18.9448],[146.3537,-18.9284],[146.3382,-18.9284],[146.3382,-18.9448],[146.3537,-18.9448]],[[145.8688,-16.5557],[145.8688,-16.5404],[145.8533,-16.5404],[145.8533,-16.5557],[145.8688,-16.5557]],[[146.752,-19.114],[146.752,-19.124],[146.7601,-19.124],[146.7601,-19.114],[146.752,-19.114]],[[147.8791,-19.4413],[147.8791,-19.4513],[147.8871,-19.4513],[147.8871,-19.4413],[147.8791,-19.4413]],[[146.7061,-19.124],[146.7061,-19.134],[146.7141,-19.134],[146.7141,-19.124],[146.7061,-19.124]],[[146.1123,-17.475],[146.1123,-17.4833],[146.1206,-17.4833],[146.1206,-17.475],[146.1123,-17.475]],[[146.1581,-17.5666],[146.1581,-17.5749],[146.1664,-17.5749],[146.1664,-17.5666],[146.1581,-17.5666]],[[147.9863,-19.9245],[147.993,-19.9221],[147.9894,-19.9217],[147.9863,-19.9245]],[[148.0003,-19.9223],[147.9977,-19.9234],[148.0015,-19.9229],[148.0003,-19.9223]],[[147.5946,-19.6459],[147.5963,-19.6481],[147.5966,-19.647],[147.5946,-19.6459]],[[147.9967,-19.9231],[147.9991,-19.9224],[147.9983,-19.9222],[147.9967,-19.9231]]]},"properties":{"id":"gbrmpa-zone-419","type":"General Use Zone","zone":"Light Blue Zone","color":"#7fc3dd","name":"GU-16-6004","permit":null,"source":"GBRMPA"}},{"type":"Feature","geometry":{"type":"Polygon","coordinates":[[[145.9261,-16.3102],[145.8522,-16.3102],[145.8055,-16.2793],[145.8506,-16.2156],[145.9261,-16.2156],[145.9261,-16.3102]]]},"properties":{"id":"gbrmpa-zone-416","type":"Marine National Park Zone","zone":"Green Zone","color":"#2fae5a","name":"MNP-16-1048","permit":"Opal Reef (16-025) and Tongue Reef (16-026)","source":"GBRMPA"}},{"type":"Feature","geometry":{"type":"Polygon","coordinates":[[[146.0239,-17.1304],[146.0239,-17.1759],[146.0113,-17.1759],[145.9997,-17.1655],[145.9997,-17.1304],[146.0239,-17.1304]],[[146.0092,-17.1527],[146.0049,-17.1528],[146.0046,-17.1549],[146.0098,-17.161],[146.0097,-17.1642],[146.0113,-17.1658],[146.0118,-17.1615],[146.0162,-17.1557],[146.0092,-17.1527]]]},"properties":{"id":"gbrmpa-zone-396","type":"Habitat Protection Zone","zone":"Dark Blue Zone","color":"#3f6fb0","name":"HP-17-5136","permit":"High Island Reef (17-009)","source":"GBRMPA"}},{"type":"Feature","geometry":{"type":"Polygon","coordinates":[[[145.5289,-16.5],[145.4785,-16.5001],[145.4785,-16.4583],[145.5321,-16.4583],[145.532,-16.5],[145.5289,-16.5]]]},"properties":{"id":"gbrmpa-zone-374","type":"Marine National Park Zone","zone":"Green Zone","color":"#2fae5a","name":"MNP-16-1051","permit":"Offshore Island Point","source":"GBRMPA"}},{"type":"Feature","geometry":{"type":"Polygon","coordinates":[[[145.8883,-16.08],[145.87,-16.08],[145.85,-16.06],[145.7829,-16.06],[145.7829,-15.9467],[145.8158,-15.9121],[145.8343,-15.9121],[145.8883,-16.08]]]},"properties":{"id":"gbrmpa-zone-420","type":"Marine National Park Zone","zone":"Green Zone","color":"#2fae5a","name":"MNP-15-1046","permit":"Agincourt Reefs (15-096, 15-099a, b, c and d, 16-013 a, b and c)","source":"GBRMPA"}},{"type":"Feature","geometry":{"type":"Polygon","coordinates":[[[145.5722,-16.6595],[145.5707,-16.659],[145.5662,-16.6453],[145.5681,-16.6453],[145.5722,-16.6595]]]},"properties":{"id":"gbrmpa-zone-368","type":"Conservation Park Zone","zone":"Yellow Zone","color":"#e8c23f","name":"CP-16-4034","permit":"Hartleys Creek","source":"GBRMPA"}},{"type":"Feature","geometry":{"type":"Polygon","coordinates":[[[145.9762,-17.2202],[145.976,-17.2487],[145.9711,-17.2391],[145.9715,-17.2243],[145.9684,-17.2219],[145.9697,-17.2185],[145.9762,-17.2202]]]},"properties":{"id":"gbrmpa-zone-391","type":"Conservation Park Zone","zone":"Yellow Zone","color":"#e8c23f","name":"CP-17-4042","permit":"Adjacent to Russell River","source":"GBRMPA"}},{"type":"Feature","geometry":{"type":"Polygon","coordinates":[[[145.9747,-17.1186],[145.9863,-17.1309],[145.9863,-17.1684],[145.9634,-17.1685],[145.9566,-17.1635],[145.9519,-17.1532],[145.9531,-17.1457],[145.949,-17.1301],[145.9332,-17.1186],[145.9747,-17.1186]]]},"properties":{"id":"gbrmpa-zone-397","type":"Marine National Park Zone","zone":"Green Zone","color":"#2fae5a","name":"MNP-17-1062","permit":"Palmer Point (High Island and Tobias Spit)","source":"GBRMPA"}},{"type":"Feature","geometry":{"type":"Polygon","coordinates":[[[146.1877,-16.6139],[146.1271,-16.7359],[146.0749,-16.7801],[146.04,-16.7801],[146,-16.74],[145.9534,-16.7252],[145.9373,-16.7252],[145.9373,-16.7],[145.9473,-16.7],[145.9599,-16.6684],[146.0132,-16.6684],[146.0132,-16.6237],[146.0765,-16.5767],[146.0765,-16.5177],[146.021,-16.4],[146.021,-16.3899],[146.0707,-16.3899],[146.1877,-16.6139]]]},"properties":{"id":"gbrmpa-zone-377","type":"Habitat Protection Zone","zone":"Dark Blue Zone","color":"#3f6fb0","name":"HP-16-5126","permit":"Arlington Reef to Spur Reef: Spur Reef (16-034), Onyx Reef (16-035), Nicholas Reef (16-036), Hope Reef (16-058) Fin Reef (16-061), unnamed reefs (16-062a, b, c and 16-800) and Arlington Reef (16-064)","source":"GBRMPA"}},{"type":"Feature","geometry":{"type":"Polygon","coordinates":[[[145.9166,-16.8601],[145.9155,-16.8654],[145.919,-16.8733],[145.9086,-16.8885],[145.9087,-16.892],[145.9059,-16.8968],[145.8973,-16.8952],[145.8947,-16.8995],[145.8899,-16.8998],[145.8823,-16.9072],[145.8706,-16.9068],[145.8624,-16.9035],[145.8618,-16.8986],[145.8648,-16.8962],[145.8624,-16.8934],[145.8633,-16.8912],[145.8534,-16.8799],[145.8528,-16.8743],[145.8494,-16.8702],[145.9166,-16.8601]],[[145.8934,-16.8832],[145.895,-16.8885],[145.8959,-16.8851],[145.8934,-16.8832]]]},"properties":{"id":"gbrmpa-zone-354","type":"Conservation Park Zone","zone":"Yellow Zone","color":"#e8c23f","name":"CP-16-4037","permit":"Mission Bay (Yarrabah)","source":"GBRMPA"}},{"type":"Feature","geometry":{"type":"Polygon","coordinates":[[[145.562,-16.566],[145.6176,-16.6371],[145.6176,-16.6595],[145.5722,-16.6595],[145.5681,-16.6453],[145.5656,-16.6447],[145.5527,-16.6287],[145.5498,-16.628],[145.5444,-16.6198],[145.5368,-16.6145],[145.5367,-16.5776],[145.562,-16.566]]]},"properties":{"id":"gbrmpa-zone-371","type":"Marine National Park Zone","zone":"Green Zone","color":"#2fae5a","name":"MNP-16-1052","permit":"Unity Reef (16-045) and adjacent coastline","source":"GBRMPA"}},{"type":"Feature","geometry":{"type":"Polygon","coordinates":[[[145.9261,-16.2156],[145.8506,-16.2156],[145.8871,-16.164],[145.9261,-16.1847],[145.9261,-16.2156]]]},"properties":{"id":"gbrmpa-zone-417","type":"Conservation Park Zone","zone":"Yellow Zone","color":"#e8c23f","name":"CP-16-4029","permit":"North Opal Reef (16-025)","source":"GBRMPA"}},{"type":"Feature","geometry":{"type":"Polygon","coordinates":[[[145.5595,-16.279],[145.5595,-16.2664],[145.5679,-16.2664],[145.5679,-16.279],[145.5595,-16.279]]]},"properties":{"id":"gbrmpa-zone-414","type":"Conservation Park Zone","zone":"Yellow Zone","color":"#e8c23f","name":"CP-16-4030","permit":"Snapper Island Wreck","source":"GBRMPA"}},{"type":"Feature","geometry":{"type":"Polygon","coordinates":[[[145.977,-16.929],[145.996,-16.91],[146.02,-16.91],[146.02,-16.95],[145.9854,-16.95],[145.977,-16.929]],[[145.9905,-16.925],[145.9905,-16.9251],[145.9905,-16.9251],[145.9905,-16.925]],[[145.9904,-16.9249],[145.9905,-16.9249],[145.9905,-16.9248],[145.9904,-16.9249]],[[146.007,-16.9212],[146.0071,-16.9213],[146.0071,-16.9212],[146.007,-16.9212]],[[145.9938,-16.9235],[145.9939,-16.9235],[145.9938,-16.9235],[145.9938,-16.9235]],[[145.9907,-16.9245],[145.9906,-16.9246],[145.9907,-16.9245],[145.9907,-16.9245]],[[146.0056,-16.9235],[146.0058,-16.9235],[146.0057,-16.9234],[146.0056,-16.9235]],[[146.0069,-16.9235],[146.0071,-16.9236],[146.0071,-16.9235],[146.0069,-16.9235]],[[146.007,-16.9213],[146.0069,-16.9213],[146.0069,-16.9215],[146.007,-16.9213]],[[145.9902,-16.9248],[145.9904,-16.925],[145.9901,-16.9249],[145.9902,-16.9248]],[[146.0066,-16.9215],[146.0056,-16.9231],[146.0065,-16.9237],[146.0066,-16.9215]],[[146.0047,-16.9238],[145.9997,-16.9223],[145.9927,-16.9235],[145.9906,-16.9253],[145.9884,-16.9313],[145.9828,-16.9349],[145.9856,-16.9423],[145.9875,-16.9436],[145.9921,-16.9429],[146.0002,-16.937],[146.0028,-16.9329],[146.0047,-16.9238]]]},"properties":{"id":"gbrmpa-zone-403","type":"Conservation Park Zone","zone":"Yellow Zone","color":"#e8c23f","name":"CP-16-4039","permit":"Fitzroy and Little Fitzroy Islands","source":"GBRMPA"}},{"type":"Feature","geometry":{"type":"Polygon","coordinates":[[[145.8688,-16.5557],[145.8533,-16.5557],[145.8533,-16.5404],[145.8688,-16.5404],[145.8688,-16.5557]]]},"properties":{"id":"gbrmpa-zone-372","type":"Habitat Protection Zone","zone":"Dark Blue Zone","color":"#3f6fb0","name":"HP-16-5128","permit":"Pixie Reef (16-040)","source":"GBRMPA"}},{"type":"Feature","geometry":{"type":"Polygon","coordinates":[[[145.476,-16.2225],[145.4908,-16.2374],[145.4908,-16.274],[145.5187,-16.2964],[145.5187,-16.3189],[145.461,-16.3189],[145.461,-16.3509],[145.466,-16.4583],[145.4091,-16.4583],[145.4102,-16.4521],[145.4061,-16.4362],[145.4068,-16.4279],[145.4105,-16.4106],[145.4168,-16.3977],[145.4198,-16.3861],[145.4114,-16.3758],[145.4131,-16.3655],[145.4162,-16.3593],[145.4153,-16.3476],[145.4178,-16.3398],[145.4429,-16.3036],[145.4467,-16.2913],[145.4592,-16.2905],[145.4703,-16.2796],[145.4776,-16.275],[145.4834,-16.2783],[145.4885,-16.2778],[145.4837,-16.2752],[145.4779,-16.269],[145.4797,-16.2641],[145.4768,-16.2607],[145.4806,-16.2507],[145.4801,-16.2454],[145.4815,-16.2428],[145.469,-16.2362],[145.4699,-16.223],[145.476,-16.2225]],[[145.4871,-16.2874],[145.4872,-16.3094],[145.5115,-16.3095],[145.5116,-16.298],[145.4972,-16.2874],[145.4871,-16.2874]]]},"properties":{"id":"gbrmpa-zone-415","type":"Habitat Protection Zone","zone":"Dark Blue Zone","color":"#3f6fb0","name":"HP-16-5124","permit":"Cape Kimberley/Trinity Bay coastal area","source":"GBRMPA"}},{"type":"Feature","geometry":{"type":"Polygon","coordinates":[[[145.9567,-16.905],[145.9357,-16.9449],[145.9343,-16.9359],[145.9298,-16.9286],[145.9306,-16.9249],[145.936,-16.917],[145.9455,-16.9074],[145.9535,-16.9071],[145.9567,-16.905]]]},"properties":{"id":"gbrmpa-zone-352","type":"Marine National Park Zone","zone":"Green Zone","color":"#2fae5a","name":"MNP-16-1059","permit":"King Beach","source":"GBRMPA"}},{"type":"Feature","geometry":{"type":"Polygon","coordinates":[[[145.4045,-15.941],[145.4046,-15.92],[145.61,-15.92],[145.61,-16.1665],[145.6412,-16.3023],[145.6674,-16.354],[145.6674,-16.4532],[145.5791,-16.4533],[145.5423,-16.4142],[145.5423,-16.3392],[145.5595,-16.3392],[145.5595,-16.279],[145.5679,-16.279],[145.5679,-16.2664],[145.5595,-16.2664],[145.5595,-16.0809],[145.481,-16.0809],[145.4751,-16.0805],[145.4767,-16.077],[145.4751,-16.0744],[145.4714,-16.0771],[145.4691,-16.0757],[145.463,-16.0649],[145.4629,-16.0406],[145.4643,-16.0375],[145.4555,-16.0321],[145.4539,-16.0291],[145.4508,-16.0212],[145.4501,-16.0102],[145.4344,-15.9994],[145.4344,-15.9902],[145.4313,-15.9892],[145.4276,-15.9823],[145.4268,-15.9767],[145.4282,-15.9733],[145.4251,-15.9715],[145.4227,-15.9659],[145.4146,-15.9577],[145.4143,-15.9519],[145.4093,-15.9476],[145.4088,-15.945],[145.4051,-15.9441],[145.4038,-15.9423],[145.4045,-15.941]],[[145.566,-16.383],[145.5661,-16.383],[145.5661,-16.383],[145.566,-16.383]],[[145.5661,-16.3823],[145.5661,-16.3823],[145.5661,-16.3823],[145.5661,-16.3823]],[[145.5662,-16.383],[145.5663,-16.383],[145.5662,-16.383],[145.5662,-16.383]],[[145.5661,-16.3817],[145.5661,-16.3817],[145.5661,-16.3817],[145.5661,-16.3817]],[[145.5662,-16.3827],[145.5662,-16.3828],[145.5662,-16.3827],[145.5662,-16.3827]],[[145.566,-16.3822],[145.5661,-16.3823],[145.5661,-16.3822],[145.566,-16.3822]],[[145.5661,-16.3824],[145.566,-16.3824],[145.5661,-16.3824],[145.5661,-16.3824]],[[145.566,-16.3821],[145.566,-16.3821],[145.566,-16.3822],[145.566,-16.3821]],[[145.5678,-16.3834],[145.5679,-16.3834],[145.5678,-16.3834],[145.5678,-16.3834]],[[145.5642,-16.3896],[145.5642,-16.3896],[145.5643,-16.3896],[145.5642,-16.3896]],[[145.5678,-16.3834],[145.5677,-16.3834],[145.5678,-16.3834],[145.5678,-16.3834]],[[145.566,-16.3816],[145.5661,-16.3816],[145.5661,-16.3816],[145.566,-16.3816]],[[145.5677,-16.383],[145.5677,-16.383],[145.5677,-16.3829],[145.5677,-16.383]],[[145.5673,-16.3821],[145.5673,-16.3822],[145.5673,-16.3822],[145.5673,-16.3821]],[[145.5659,-16.3827],[145.566,-16.3827],[145.566,-16.3826],[145.5659,-16.3827]],[[145.5653,-16.3907],[145.5654,-16.3907],[145.5654,-16.3907],[145.5653,-16.3907]],[[145.5675,-16.3832],[145.5676,-16.3833],[145.5675,-16.3832],[145.5675,-16.3832]],[[145.5645,-16.3896],[145.5645,-16.3896],[145.5645,-16.3895],[145.5645,-16.3896]],[[145.5678,-16.3831],[145.5679,-16.3831],[145.5679,-16.383],[145.5678,-16.3831]],[[145.5643,-16.3897],[145.5642,-16.3897],[145.5643,-16.3898],[145.5643,-16.3897]],[[145.5657,-16.3921],[145.5656,-16.3922],[145.5657,-16.3922],[145.5657,-16.3921]],[[145.5677,-16.383],[145.5677,-16.3831],[145.5678,-16.383],[145.5677,-16.383]],[[145.5653,-16.3903],[145.5654,-16.3904],[145.5654,-16.3903],[145.5653,-16.3903]],[[145.566,-16.3819],[145.566,-16.3819],[145.566,-16.382],[145.566,-16.3819]],[[145.5668,-16.3916],[145.5669,-16.3916],[145.5668,-16.3915],[145.5668,-16.3916]],[[145.5653,-16.3908],[145.5653,-16.3909],[145.5653,-16.3909],[145.5653,-16.3908]],[[145.5652,-16.3907],[145.5652,-16.3908],[145.5653,-16.3908],[145.5652,-16.3907]],[[145.5645,-16.3899],[145.5644,-16.3899],[145.5644,-16.39],[145.5645,-16.3899]],[[145.5664,-16.3916],[145.5665,-16.3918],[145.5665,-16.3917],[145.5664,-16.3916]],[[145.5663,-16.3833],[145.5663,-16.3833],[145.5662,-16.3831],[145.5663,-16.3833]],[[145.5658,-16.3906],[145.5659,-16.3907],[145.5659,-16.3906],[145.5658,-16.3906]],[[145.5693,-16.3842],[145.5695,-16.3843],[145.5693,-16.3841],[145.5693,-16.3842]],[[145.5643,-16.3895],[145.5644,-16.3895],[145.5643,-16.3894],[145.5643,-16.3895]],[[145.5648,-16.3887],[145.5648,-16.3888],[145.5649,-16.3888],[145.5648,-16.3887]],[[145.566,-16.3828],[145.566,-16.3829],[145.566,-16.383],[145.566,-16.3828]],[[145.5652,-16.3885],[145.5651,-16.3886],[145.5653,-16.3886],[145.5652,-16.3885]],[[145.5648,-16.389],[145.565,-16.3891],[145.5649,-16.3889],[145.5648,-16.389]],[[145.5706,-16.3862],[145.5708,-16.3862],[145.5707,-16.386],[145.5706,-16.3862]],[[145.5666,-16.3915],[145.5665,-16.3915],[145.5665,-16.3917],[145.5666,-16.3915]],[[145.5651,-16.3897],[145.5649,-16.3896],[145.565,-16.3898],[145.5651,-16.3897]],[[145.5677,-16.3832],[145.5678,-16.3833],[145.568,-16.3832],[145.5677,-16.3832]],[[145.5689,-16.3841],[145.5688,-16.3842],[145.5691,-16.3842],[145.5689,-16.3841]],[[145.565,-16.3893],[145.5652,-16.3896],[145.5653,-16.3893],[145.565,-16.3893]],[[145.566,-16.3815],[145.5661,-16.3815],[145.5662,-16.3811],[145.566,-16.3815]],[[145.5663,-16.3815],[145.5663,-16.3822],[145.5664,-16.3815],[145.5663,-16.3815]],[[145.5653,-16.3883],[145.5655,-16.388],[145.5653,-16.3878],[145.5653,-16.3883]],[[145.5671,-16.3917],[145.567,-16.3917],[145.5672,-16.392],[145.5671,-16.3917]],[[145.5665,-16.3911],[145.5666,-16.3909],[145.5663,-16.3908],[145.5665,-16.3911]],[[145.5647,-16.3894],[145.5651,-16.3895],[145.5647,-16.3891],[145.5647,-16.3894]],[[145.5672,-16.3823],[145.5674,-16.3824],[145.5669,-16.3816],[145.5672,-16.3823]],[[145.5656,-16.388],[145.5658,-16.3885],[145.5662,-16.3884],[145.5656,-16.388]],[[145.571,-16.3898],[145.5715,-16.3903],[145.5714,-16.39],[145.571,-16.3898]],[[145.5679,-16.3834],[145.5675,-16.3836],[145.5683,-16.3838],[145.5679,-16.3834]],[[145.566,-16.3923],[145.5659,-16.3918],[145.5656,-16.3917],[145.566,-16.3923]],[[145.5609,-16.385],[145.5607,-16.3837],[145.559,-16.3836],[145.5609,-16.385]],[[145.5679,-16.3837],[145.5656,-16.3867],[145.5667,-16.3885],[145.565,-16.3889],[145.5678,-16.3918],[145.5661,-16.3925],[145.5694,-16.3932],[145.5716,-16.3892],[145.5704,-16.3853],[145.5679,-16.3837]]]},"properties":{"id":"gbrmpa-zone-738","type":"Marine National Park Zone","zone":"Green Zone","color":"#2fae5a","name":"MNP-15-1047","permit":"Daintree coastal area, Low Isles Reef (16-028) and lagoonal areas","source":"GBRMPA"}},{"type":"Feature","geometry":{"type":"Polygon","coordinates":[[[145.4972,-16.2874],[145.5116,-16.298],[145.5115,-16.3095],[145.4872,-16.3094],[145.4871,-16.2874],[145.4972,-16.2874]],[[145.4917,-16.2922],[145.4951,-16.2978],[145.5015,-16.2998],[145.5026,-16.3018],[145.5077,-16.3042],[145.5059,-16.2997],[145.5012,-16.2983],[145.4989,-16.2943],[145.4951,-16.2921],[145.4917,-16.2922]]]},"properties":{"id":"gbrmpa-zone-412","type":"Conservation Park Zone","zone":"Yellow Zone","color":"#e8c23f","name":"CP-16-4031","permit":"Snapper Island Reef (16-006)","source":"GBRMPA"}},{"type":"Feature","geometry":{"type":"Polygon","coordinates":[[[145.3038,-13.6081],[145.654,-14.3088],[145.5188,-14.4627],[145.5099,-14.4851],[145.5087,-14.4976],[145.5276,-14.5194],[145.5368,-14.5243],[145.5591,-14.5273],[145.5667,-14.5476],[145.58,-14.5664],[145.5985,-14.5831],[145.6129,-14.6262],[145.6418,-14.6832],[145.6801,-14.7492],[145.6801,-14.9063],[145.6688,-14.9063],[145.6688,-14.972],[145.6916,-14.972],[145.7023,-14.9522],[145.7295,-14.9522],[145.7295,-15.0236],[145.75,-15.0236],[145.75,-15.19],[145.73,-15.19],[145.58,-15.26],[145.5,-15.26],[145.5,-15.3897],[145.5909,-15.3897],[145.6548,-15.3686],[145.7844,-15.3306],[145.9187,-15.3306],[145.9187,-15.3555],[146.1422,-15.3555],[146.2684,-15.6734],[146.1513,-15.6734],[146.3263,-16.0793],[146.4301,-16.0793],[146.5092,-16.2775],[146.2188,-16.2775],[146.2188,-16.3771],[146.1743,-16.3771],[145.9808,-16.08],[145.9598,-16.08],[145.9598,-15.9121],[145.8158,-15.9121],[145.7829,-15.9467],[145.7829,-16.06],[145.85,-16.06],[145.87,-16.08],[145.88,-16.08],[145.88,-16.1542],[145.8871,-16.164],[145.8055,-16.2793],[145.8522,-16.3102],[145.9261,-16.3102],[145.9504,-16.3296],[145.86,-16.42],[145.86,-16.46],[145.84,-16.48],[145.7235,-16.48],[145.6802,-16.4532],[145.6674,-16.4532],[145.6674,-16.354],[145.6412,-16.3023],[145.61,-16.1665],[145.61,-15.84],[145.6475,-15.84],[145.6475,-15.7911],[145.7532,-15.7912],[145.7532,-15.6656],[145.5831,-15.6656],[145.5831,-15.75],[145.5,-15.75],[145.5,-15.7129],[145.4243,-15.6501],[145.4202,-15.6353],[145.4201,-15.5999],[145.4702,-15.5999],[145.4702,-15.5553],[145.456,-15.5553],[145.456,-15.38],[145.46,-15.38],[145.46,-15.13],[145.49,-15.13],[145.49,-15.0473],[145.46,-15.0473],[145.46,-14.875],[145.5004,-14.875],[145.5004,-14.839],[145.5331,-14.839],[145.5331,-14.802],[145.5004,-14.802],[145.5004,-14.7524],[145.5213,-14.7524],[145.5213,-14.734],[145.5004,-14.734],[145.5004,-14.676],[145.4841,-14.676],[145.4841,-14.6626],[145.4578,-14.6396],[145.451,-14.6396],[145.451,-14.6292],[145.24,-14.6292],[145.004,-14.55],[145.004,-14.5],[144.9797,-14.4877],[144.9435,-14.4877],[144.9435,-14.4808],[144.9279,-14.4616],[144.9001,-14.4421],[144.8902,-14.4421],[144.8788,-14.4363],[144.8676,-14.4225],[144.7934,-14.4],[144.7934,-14.3371],[144.8328,-14.297],[144.8328,-14.238],[144.9727,-14.238],[144.9727,-14.1706],[145.1154,-14.1706],[145.1154,-13.8],[144.5499,-13.8],[144.5499,-13.9216],[144.5474,-13.925],[144.5474,-14],[144.43,-14],[144.43,-13.97],[144.37,-13.97],[144.37,-13.96],[144.3438,-13.96],[144.334,-13.9497],[144.334,-13.9202],[144.28,-13.9],[144.2671,-13.8583],[144.2671,-13.8443],[144.3239,-13.8443],[144.3239,-13.7958],[144.2671,-13.7958],[144.2671,-13.8106],[144.2,-13.71],[144.19,-13.71],[144.14,-13.68],[144.14,-13.65],[144.0914,-13.65],[144.08,-13.6322],[144.08,-13.57],[144.0432,-13.5148],[144.0798,-13.4834],[144.0798,-13.45],[144.36,-13.45],[144.36,-13.3084],[145.1548,-13.3084],[145.3038,-13.6081]],[[145.75,-15.491],[145.75,-15.5888],[145.837,-15.5888],[145.837,-15.491],[145.75,-15.491]],[[144.9051,-14.4116],[144.9216,-14.432],[144.9632,-14.4443],[144.978,-14.4443],[144.9894,-14.4367],[144.9962,-14.4281],[144.995,-14.4133],[144.9907,-14.4057],[144.98,-14.3983],[144.9686,-14.3983],[144.9466,-14.395],[144.9414,-14.3917],[144.9279,-14.3898],[144.9071,-14.3898],[144.901,-14.3926],[144.8956,-14.3992],[144.8955,-14.4055],[144.9051,-14.4116]],[[145.3786,-14.4427],[145.3786,-14.4761],[145.44,-14.4761],[145.44,-14.4107],[145.4141,-14.4107],[145.3786,-14.4391],[145.3786,-14.4427]],[[144.8412,-14.3038],[144.8412,-14.3377],[144.8761,-14.3377],[144.8761,-14.3038],[144.8412,-14.3038]],[[145.7585,-15.4056],[145.7585,-15.4148],[145.7793,-15.4147],[145.7793,-15.4009],[145.7674,-15.3837],[145.7585,-15.3837],[145.7585,-15.4056]],[[145.4831,-14.645],[145.4831,-14.6583],[145.4998,-14.6583],[145.4998,-14.645],[145.4831,-14.645]],[[144.44,-13.9785],[144.4442,-13.9762],[144.4448,-13.9741],[144.4423,-13.9739],[144.44,-13.9785]],[[144.882,-14.4151],[144.8796,-14.4157],[144.8792,-14.4183],[144.8813,-14.4179],[144.882,-14.4151]],[[145.6387,-16.1125],[145.6406,-16.112],[145.6393,-16.1107],[145.636,-16.1114],[145.6387,-16.1125]],[[144.0988,-13.6256],[144.1015,-13.6228],[144.0986,-13.624],[144.0988,-13.6256]],[[144.504,-13.9816],[144.5067,-13.9792],[144.5052,-13.979],[144.504,-13.9816]],[[144.8884,-14.4339],[144.8875,-14.4323],[144.8828,-14.4304],[144.8884,-14.4339]],[[145.6432,-16.048],[145.6458,-16.0472],[145.6464,-16.0454],[145.6432,-16.048]],[[144.2672,-13.7747],[144.2682,-13.7739],[144.2672,-13.7714],[144.2672,-13.7747]],[[145.4747,-14.8943],[145.4769,-14.8935],[145.4772,-14.892],[145.4747,-14.8943]],[[145.6341,-15.6179],[145.6376,-15.6179],[145.6352,-15.617],[145.6341,-15.6179]],[[144.2128,-13.7169],[144.2145,-13.7161],[144.2139,-13.7142],[144.2128,-13.7169]],[[145.5295,-15.5117],[145.5275,-15.5106],[145.5281,-15.5119],[145.5295,-15.5117]],[[145.6883,-15.1381],[145.6896,-15.1383],[145.6903,-15.1371],[145.6883,-15.1381]],[[145.5329,-15.2436],[145.5346,-15.2438],[145.5336,-15.2428],[145.5329,-15.2436]],[[145.5835,-14.7805],[145.5843,-14.7807],[145.584,-14.7789],[145.5835,-14.7805]],[[144.9532,-14.4776],[144.9546,-14.4771],[144.9532,-14.4769],[144.9532,-14.4776]],[[144.9549,-14.3199],[144.9554,-14.3204],[144.956,-14.3187],[144.9549,-14.3199]],[[144.8915,-14.435],[144.8893,-14.4339],[144.8903,-14.4349],[144.8915,-14.435]],[[145.5682,-15.0041],[145.5696,-15.0038],[145.569,-15.0035],[145.5682,-15.0041]],[[144.881,-14.4286],[144.8806,-14.4291],[144.8818,-14.4298],[144.881,-14.4286]],[[144.8944,-14.4361],[144.8923,-14.4349],[144.8926,-14.4357],[144.8944,-14.4361]],[[145.5587,-14.8789],[145.559,-14.8794],[145.5597,-14.8785],[145.5587,-14.8789]],[[145.5285,-15.0445],[145.5291,-15.045],[145.5295,-15.044],[145.5285,-15.0445]]]},"properties":{"id":"gbrmpa-zone-532","type":"Habitat Protection Zone","zone":"Dark Blue Zone","color":"#3f6fb0","name":"HP-13-5080","permit":"Port Stewart to Port Douglas mid-shelf and offshore areas","source":"GBRMPA"}},{"type":"Feature","geometry":{"type":"Polygon","coordinates":[[[145.94,-16.5344],[145.965,-16.5344],[145.9651,-16.5811],[145.9497,-16.5927],[145.9,-16.64],[145.94,-16.56],[145.94,-16.5344]]]},"properties":{"id":"gbrmpa-zone-373","type":"Habitat Protection Zone","zone":"Dark Blue Zone","color":"#3f6fb0","name":"HP-16-5127","permit":"Jorgensen Patch (16-041)","source":"GBRMPA"}},{"type":"Feature","geometry":{"type":"Polygon","coordinates":[[[145.9497,-16.6098],[145.9637,-16.6237],[146.0132,-16.6237],[146.0132,-16.6684],[145.9599,-16.6684],[145.9473,-16.7],[145.92,-16.7],[145.9,-16.64],[145.9497,-16.5927],[145.9497,-16.6098]],[[145.9381,-16.6877],[145.9484,-16.6878],[145.9529,-16.677],[145.948,-16.6645],[145.9227,-16.664],[145.9226,-16.671],[145.9381,-16.6877]],[[145.9892,-16.6561],[145.9915,-16.6543],[145.9892,-16.6549],[145.9892,-16.6561]]]},"properties":{"id":"gbrmpa-zone-370","type":"Conservation Park Zone","zone":"Yellow Zone","color":"#e8c23f","name":"CP-16-4033","permit":"Oyster Reef (16-043a) and Vlasoff Reef (16-044b)","source":"GBRMPA"}},{"type":"Feature","geometry":{"type":"Polygon","coordinates":[[[145.948,-16.6645],[145.9529,-16.677],[145.9484,-16.6878],[145.9381,-16.6877],[145.9226,-16.671],[145.9227,-16.664],[145.948,-16.6645]],[[145.9334,-16.6734],[145.9372,-16.6734],[145.9332,-16.6719],[145.9334,-16.6734]]]},"properties":{"id":"gbrmpa-zone-367","type":"Marine National Park Zone","zone":"Green Zone","color":"#2fae5a","name":"MNP-16-1053","permit":"Upolu Reef (16-046)","source":"GBRMPA"}},{"type":"Feature","geometry":{"type":"Polygon","coordinates":[[[145.409,-16.4583],[145.4785,-16.4583],[145.4785,-16.5001],[145.532,-16.5],[145.562,-16.566],[145.5367,-16.5776],[145.5368,-16.6145],[145.5314,-16.6112],[145.53,-16.6067],[145.5234,-16.6011],[145.5224,-16.5857],[145.5173,-16.5847],[145.516,-16.5857],[145.5142,-16.5843],[145.5125,-16.5788],[145.5129,-16.5741],[145.5093,-16.5711],[145.501,-16.5544],[145.4942,-16.5496],[145.4926,-16.5469],[145.4893,-16.5475],[145.4912,-16.542],[145.4898,-16.5404],[145.4875,-16.541],[145.479,-16.5311],[145.4751,-16.5212],[145.4699,-16.515],[145.4673,-16.5038],[145.4689,-16.4821],[145.4628,-16.4778],[145.4604,-16.4821],[145.455,-16.4818],[145.4553,-16.4802],[145.4501,-16.4792],[145.4413,-16.4727],[145.4314,-16.4733],[145.4302,-16.4741],[145.4311,-16.4757],[145.4294,-16.4764],[145.4262,-16.4752],[145.4233,-16.4725],[145.4179,-16.4713],[145.4131,-16.4679],[145.409,-16.4583]]]},"properties":{"id":"gbrmpa-zone-375","type":"Conservation Park Zone","zone":"Yellow Zone","color":"#e8c23f","name":"CP-16-4032","permit":"Port Douglas to Yule Point coastal area","source":"GBRMPA"}},{"type":"Feature","geometry":{"type":"Polygon","coordinates":[[[145.9598,-16.08],[145.8883,-16.08],[145.8343,-15.9121],[145.9598,-15.9121],[145.9598,-16.08]]]},"properties":{"id":"gbrmpa-zone-421","type":"Buffer Zone","zone":"Olive Green Zone","color":"#94a84f","name":"B-15-3010","permit":"Offshore Agincourt Reefs","source":"GBRMPA"}},{"type":"Feature","geometry":{"type":"Polygon","coordinates":[[[145.978,-16.756],[145.9971,-16.761],[145.997,-16.7689],[145.991,-16.7689],[145.985,-16.773],[145.9781,-16.773],[145.9721,-16.767],[145.9721,-16.7604],[145.9769,-16.7604],[145.9748,-16.7584],[145.978,-16.756]]]},"properties":{"id":"gbrmpa-zone-361","type":"Scientific Research Zone","zone":"Orange Zone","color":"#e0822e","name":"SR-16-2006","permit":"Green Island Research Station (16-049)","source":"GBRMPA"}}]}