{"type":"FeatureCollection","meta":{"tile":"t-20e148","built":"2026-08-25"},"features":[{"type":"Feature","geometry":{"type":"Polygon","coordinates":[[[149.0587,-19.8294],[149.0561,-19.8294],[149.0563,-19.7813],[149.092,-19.7813],[149.092,-19.8294],[149.0587,-19.8294]]]},"properties":{"id":"gbrmpa-zone-278","type":"Marine National Park Zone","zone":"Green Zone","color":"#2fae5a","name":"MNP-19-1110","permit":"Bait Reef (19-137)","source":"GBRMPA"}},{"type":"Feature","geometry":{"type":"Polygon","coordinates":[[[148.5168,-18.879],[148.4568,-19.0162],[148.3554,-18.9872],[148.3703,-18.8275],[148.5168,-18.879]]]},"properties":{"id":"gbrmpa-zone-470","type":"Marine National Park Zone","zone":"Green Zone","color":"#2fae5a","name":"MNP-18-1088","permit":"Lion Reef (18-119) and Jaguar Reef (18-120)","source":"GBRMPA"}},{"type":"Feature","geometry":{"type":"Polygon","coordinates":[[[148.08,-19.2],[148.08,-19.25],[148.1504,-19.25],[148.1504,-19.3689],[148.0332,-19.3166],[147.9793,-19.3166],[147.9793,-19.4396],[147.8746,-19.3873],[147.8746,-19.3453],[147.7994,-19.3453],[147.7994,-19.2],[148.08,-19.2]],[[148.1023,-19.3106],[148.1032,-19.3109],[148.1037,-19.3096],[148.1023,-19.3106]],[[148.1112,-19.3146],[148.1126,-19.3143],[148.1119,-19.3137],[148.1112,-19.3146]]]},"properties":{"id":"gbrmpa-zone-255","type":"Marine National Park Zone","zone":"Green Zone","color":"#2fae5a","name":"MNP-19-1095","permit":"Stanley Reef (19-045) and Wilson Shoal (19-022)","source":"GBRMPA"}},{"type":"Feature","geometry":{"type":"Polygon","coordinates":[[[149.01,-19.53],[149.01,-19.57],[148.96,-19.57],[148.96,-19.5878],[148.92,-19.5878],[148.92,-19.51],[148.97,-19.49],[149.01,-19.53]],[[148.9874,-19.5384],[148.9885,-19.5385],[148.9878,-19.5371],[148.9874,-19.5384]]]},"properties":{"id":"gbrmpa-zone-292","type":"Marine National Park Zone","zone":"Green Zone","color":"#2fae5a","name":"MNP-19-1101","permit":"Fairey Reef (19-109a, b and c) and Seagull Reef (19-107)","source":"GBRMPA"}},{"type":"Feature","geometry":{"type":"Polygon","coordinates":[[[149.0111,-20.2342],[149.0113,-20.2326],[149.0082,-20.2337],[149.0028,-20.2376],[148.9992,-20.2435],[148.9906,-20.2518],[148.9946,-20.2414],[148.9966,-20.2288],[148.9902,-20.2281],[148.989,-20.2242],[148.9923,-20.2168],[148.9938,-20.2156],[148.9974,-20.2164],[148.997,-20.2111],[148.9989,-20.2105],[148.997,-20.2091],[148.9975,-20.2045],[148.9934,-20.2022],[148.9897,-20.2038],[148.9831,-20.2031],[148.9789,-20.2051],[148.9763,-20.2044],[148.9758,-20.1998],[148.9784,-20.1917],[148.9845,-20.1854],[148.9799,-20.1855],[148.9803,-20.1822],[148.9774,-20.1823],[148.9736,-20.1756],[148.9738,-20.1725],[148.9757,-20.1731],[148.9787,-20.17],[148.9789,-20.1639],[148.9775,-20.1607],[148.9622,-20.1552],[148.9559,-20.158],[148.959,-20.1694],[148.9572,-20.1749],[148.9596,-20.1769],[148.9583,-20.1811],[148.9604,-20.1874],[148.9565,-20.1915],[148.9573,-20.1944],[148.9546,-20.1975],[148.9536,-20.2021],[148.9559,-20.2066],[148.9531,-20.2067],[148.9541,-20.2116],[148.9527,-20.2191],[148.9486,-20.2185],[148.9507,-20.2213],[148.9481,-20.2219],[148.9452,-20.2281],[148.9419,-20.2277],[148.9405,-20.2251],[148.9397,-20.234],[148.9378,-20.2379],[148.902,-20.253],[148.902,-20.2715],[148.907,-20.2815],[148.907,-20.295],[148.9155,-20.295],[148.9155,-20.3309],[148.942,-20.3309],[148.942,-20.356],[148.94,-20.364],[148.948,-20.38],[148.956,-20.384],[148.93,-20.41],[148.9,-20.366],[148.8775,-20.366],[148.8663,-20.3409],[148.8663,-20.312],[148.846,-20.312],[148.84,-20.326],[148.84,-20.348],[148.8367,-20.348],[148.8269,-20.3383],[148.8242,-20.3385],[148.8198,-20.3448],[148.8135,-20.3394],[148.8156,-20.339],[148.8157,-20.3369],[148.8174,-20.3365],[148.8178,-20.3346],[148.8203,-20.3346],[148.8226,-20.331],[148.821,-20.3269],[148.8157,-20.3208],[148.8106,-20.3208],[148.8066,-20.318],[148.8018,-20.3209],[148.7923,-20.3194],[148.7919,-20.3174],[148.7944,-20.3151],[148.7717,-20.2999],[148.7713,-20.2955],[148.7684,-20.2935],[148.7671,-20.2894],[148.7704,-20.288],[148.7753,-20.2911],[148.7797,-20.2896],[148.7861,-20.2938],[148.7885,-20.2919],[148.7881,-20.2889],[148.7942,-20.2911],[148.7906,-20.2832],[148.791,-20.279],[148.7944,-20.2831],[148.8016,-20.2793],[148.8006,-20.2778],[148.7976,-20.2783],[148.7946,-20.2753],[148.7927,-20.2772],[148.789,-20.2768],[148.7838,-20.2715],[148.7795,-20.2748],[148.7777,-20.274],[148.7751,-20.2617],[148.7769,-20.2559],[148.7738,-20.2467],[148.7737,-20.2419],[148.7705,-20.2397],[148.7696,-20.2357],[148.7652,-20.2348],[148.7632,-20.2321],[148.7616,-20.2347],[148.7531,-20.2349],[148.7531,-20.22],[148.76,-20.22],[148.8401,-20.1],[148.8401,-20.0541],[148.7302,-20.0541],[148.7302,-19.9158],[148.96,-19.9158],[148.96,-19.8294],[149.156,-19.8294],[149.186,-19.84],[149.22,-19.84],[149.258,-19.83],[149.258,-19.8119],[149.2721,-19.8119],[149.2821,-19.804],[149.2841,-19.77],[149.2641,-19.748],[149.2501,-19.748],[149.1998,-19.7035],[149.1927,-19.7216],[149.1808,-19.7301],[149.1654,-19.7299],[149.16,-19.738],[149.146,-19.738],[149.14,-19.732],[149.14,-19.72],[149.21,-19.62],[149.1328,-19.5878],[148.96,-19.5878],[148.96,-19.57],[149.01,-19.57],[149.01,-19.53],[148.97,-19.49],[148.92,-19.51],[148.92,-19.55],[148.8701,-19.55],[148.7301,-19.54],[148.6303,-19.4502],[148.6202,-19.3596],[148.6816,-19.3292],[148.7404,-19.2699],[148.84,-19.2699],[148.84,-19.32],[148.8968,-19.3806],[148.9554,-19.3806],[149.0253,-19.2544],[149.1848,-19.2544],[149.4452,-19.2351],[149.7885,-19.4115],[149.61,-19.59],[149.61,-19.63],[149.63,-19.65],[149.7,-19.66],[149.75,-19.62],[149.8629,-19.7017],[149.8629,-20.1072],[149.77,-20.1072],[149.77,-20.0749],[149.7517,-20.062],[149.69,-20.05],[149.61,-19.98],[149.58,-19.9],[149.48,-19.85],[149.45,-19.82],[149.41,-19.82],[149.19,-20.26],[149.1334,-20.2918],[149.1334,-20.238],[149.052,-20.238],[149.052,-20.2265],[149.0359,-20.2265],[149.0359,-20.238],[149.0262,-20.238],[149.0268,-20.2349],[149.0227,-20.2361],[149.0222,-20.2401],[149.0142,-20.2512],[149.0051,-20.2554],[149.0057,-20.258],[149.0034,-20.255],[148.9994,-20.2589],[149.0027,-20.2558],[149.0039,-20.2478],[149.0091,-20.2441],[149.0082,-20.2418],[149.0122,-20.2349],[149.0111,-20.2342]],[[149.1517,-20.2385],[149.1518,-20.2385],[149.1518,-20.2385],[149.1517,-20.2385]],[[149.0116,-20.233],[149.0115,-20.233],[149.0116,-20.2331],[149.0116,-20.233]],[[149.0109,-20.2327],[149.0107,-20.2331],[149.011,-20.2328],[149.0109,-20.2327]],[[148.9845,-20.1867],[148.9843,-20.1867],[148.9845,-20.1871],[148.9845,-20.1867]],[[149.1571,-20.2381],[149.1568,-20.238],[149.157,-20.2385],[149.1571,-20.2381]],[[149.1567,-20.2395],[149.157,-20.2397],[149.157,-20.239],[149.1567,-20.2395]],[[149.1149,-20.1981],[149.1148,-20.1984],[149.1154,-20.1986],[149.1149,-20.1981]],[[148.7704,-20.2332],[148.77,-20.2337],[148.7701,-20.2346],[148.7704,-20.2332]],[[149.1839,-20.2542],[149.1846,-20.2553],[149.1843,-20.2541],[149.1839,-20.2542]],[[148.8095,-20.3025],[148.8104,-20.3024],[148.8098,-20.3018],[148.8095,-20.3025]],[[148.939,-20.357],[148.9398,-20.357],[148.9391,-20.3563],[148.939,-20.357]],[[149.179,-20.2543],[149.1786,-20.2551],[149.1792,-20.2555],[149.179,-20.2543]],[[148.9371,-20.3441],[148.9377,-20.3433],[148.9368,-20.3434],[148.9371,-20.3441]],[[149.1147,-20.1979],[149.1158,-20.1974],[149.1143,-20.1972],[149.1147,-20.1979]],[[148.9385,-20.3347],[148.94,-20.3341],[148.9389,-20.3338],[148.9385,-20.3347]],[[148.9403,-20.3572],[148.9406,-20.3591],[148.9412,-20.3582],[148.9403,-20.3572]],[[149.3541,-19.6929],[149.352,-19.6939],[149.354,-19.694],[149.3541,-19.6929]],[[149.7787,-19.6902],[149.7775,-19.6897],[149.7774,-19.6916],[149.7787,-19.6902]],[[149.3944,-19.6798],[149.393,-19.68],[149.3953,-19.6812],[149.3944,-19.6798]],[[149.1425,-20.2321],[149.1417,-20.235],[149.1429,-20.2345],[149.1425,-20.2321]],[[149.1423,-20.2283],[149.1441,-20.2283],[149.1425,-20.2259],[149.1423,-20.2283]],[[149.1607,-20.235],[149.1599,-20.237],[149.1623,-20.238],[149.1607,-20.235]],[[149.1565,-20.238],[149.1535,-20.2368],[149.1504,-20.2396],[149.1545,-20.2448],[149.1566,-20.2425],[149.1565,-20.238]],[[149.1738,-20.2421],[149.1697,-20.2486],[149.172,-20.2521],[149.1763,-20.2509],[149.1775,-20.2527],[149.1786,-20.2494],[149.1744,-20.2475],[149.1738,-20.2421]],[[148.796,-20.2868],[148.7944,-20.2877],[148.7962,-20.2887],[148.795,-20.292],[148.788,-20.2935],[148.788,-20.2995],[148.796,-20.3048],[148.8085,-20.3048],[148.8085,-20.2928],[148.8015,-20.2928],[148.796,-20.2868]],[[148.926,-20.3387],[148.9246,-20.3389],[148.9276,-20.342],[148.9259,-20.3467],[148.9287,-20.3486],[148.9259,-20.3535],[148.928,-20.3591],[148.9281,-20.3692],[148.9394,-20.3819],[148.9414,-20.3762],[148.9362,-20.3664],[148.938,-20.3574],[148.9354,-20.3502],[148.9359,-20.3396],[148.9304,-20.3391],[148.9285,-20.3369],[148.926,-20.3387]],[[148.8025,-20.2157],[148.8078,-20.2277],[148.8078,-20.2635],[148.8213,-20.2725],[148.8213,-20.2897],[148.859,-20.2897],[148.859,-20.257],[148.8538,-20.257],[148.8538,-20.2502],[148.836,-20.2502],[148.836,-20.2297],[148.818,-20.2087],[148.8025,-20.2087],[148.8025,-20.2157]],[[148.999,-20.19],[149.081,-20.19],[149.081,-20.146],[148.999,-20.146],[148.999,-20.19]],[[148.9518,-20.1557],[148.9571,-20.1074],[148.9547,-20.1021],[148.9565,-20.1011],[148.9559,-20.0982],[148.9598,-20.0955],[148.9564,-20.0922],[148.9551,-20.0942],[148.9491,-20.0934],[148.9475,-20.0911],[148.9498,-20.0917],[148.9506,-20.0889],[148.9477,-20.0853],[148.9486,-20.0832],[148.9506,-20.0835],[148.9503,-20.0806],[148.9526,-20.0827],[148.955,-20.0802],[148.9579,-20.0798],[148.9589,-20.0728],[148.9573,-20.0709],[148.9596,-20.0692],[148.9674,-20.0717],[148.9686,-20.0706],[148.9682,-20.0677],[148.9648,-20.0668],[148.9632,-20.0633],[148.9642,-20.0563],[148.9032,-20.0563],[148.9032,-20.0348],[148.8806,-20.0348],[148.87,-20.06],[148.8621,-20.0914],[148.89,-20.11],[148.888,-20.1188],[148.8839,-20.1225],[148.8873,-20.1277],[148.885,-20.1309],[148.886,-20.1349],[148.8843,-20.1385],[148.8857,-20.142],[148.8824,-20.1622],[148.8851,-20.159],[148.8873,-20.1616],[148.8878,-20.17],[148.9153,-20.1758],[148.9141,-20.1702],[148.9201,-20.1626],[148.9189,-20.1578],[148.9211,-20.1563],[148.9199,-20.1521],[148.9207,-20.1458],[148.9225,-20.1445],[148.9242,-20.1386],[148.9309,-20.1328],[148.9322,-20.1369],[148.9293,-20.1405],[148.9323,-20.1458],[148.9294,-20.1478],[148.9298,-20.1519],[148.9344,-20.155],[148.935,-20.1576],[148.9328,-20.1607],[148.9283,-20.1613],[148.9263,-20.1689],[148.9311,-20.1784],[148.9328,-20.178],[148.9342,-20.1728],[148.9371,-20.1721],[148.9429,-20.1657],[148.9449,-20.1588],[148.9474,-20.158],[148.9482,-20.1606],[148.9518,-20.1557]]]},"properties":{"id":"gbrmpa-zone-748","type":"Habitat Protection Zone","zone":"Dark Blue Zone","color":"#3f6fb0","name":"HP-19-5165","permit":"Whitsundays cross shelf transect","source":"GBRMPA"}},{"type":"Feature","geometry":{"type":"Polygon","coordinates":[[[148.884,-19.24],[148.884,-19.208],[148.9,-19.188],[148.92,-19.188],[148.92,-19.24],[148.884,-19.24]]]},"properties":{"id":"gbrmpa-zone-256","type":"Preservation Zone","zone":"Pink Zone","color":"#e58fb0","name":"P-19-19","permit":"Jacqueline Reef (19-061)","source":"GBRMPA"}},{"type":"Feature","geometry":{"type":"Polygon","coordinates":[[[149.258,-19.8119],[149.2527,-19.8119],[149.25,-19.7991],[149.2422,-19.7818],[149.2131,-19.7656],[149.1941,-19.7648],[149.1874,-19.7627],[149.1815,-19.758],[149.1795,-19.7514],[149.1777,-19.731],[149.1927,-19.7216],[149.1998,-19.7035],[149.2501,-19.748],[149.2641,-19.748],[149.2841,-19.77],[149.2821,-19.804],[149.2721,-19.8119],[149.258,-19.8119]]]},"properties":{"id":"gbrmpa-zone-287","type":"Marine National Park Zone","zone":"Green Zone","color":"#2fae5a","name":"MNP-19-1104","permit":"Hardy Reef (19-135)","source":"GBRMPA"}},{"type":"Feature","geometry":{"type":"Polygon","coordinates":[[[148.3767,-19.7799],[148.3528,-19.7799],[148.3528,-19.764],[148.3767,-19.764],[148.3767,-19.7799]]]},"properties":{"id":"gbrmpa-zone-279","type":"Habitat Protection Zone","zone":"Dark Blue Zone","color":"#3f6fb0","name":"HP-19-5175","permit":"Nares Rock (19-104)","source":"GBRMPA"}},{"type":"Feature","geometry":{"type":"Polygon","coordinates":[[[148.4665,-19.9666],[148.4665,-19.9791],[148.4832,-19.9958],[148.4832,-20.0458],[148.4706,-20.0583],[148.4581,-20.0583],[148.4373,-20.0458],[148.4331,-20.025],[148.4331,-19.9791],[148.4457,-19.9666],[148.4665,-19.9666]],[[148.45,-19.9719],[148.4462,-19.973],[148.4394,-19.9854],[148.4393,-19.9948],[148.4438,-20.0071],[148.4426,-20.0108],[148.4376,-20.0167],[148.4369,-20.0211],[148.4459,-20.0354],[148.4459,-20.0396],[148.4435,-20.0437],[148.4499,-20.0465],[148.4563,-20.0527],[148.459,-20.0507],[148.4646,-20.0523],[148.4732,-20.0508],[148.4761,-20.0469],[148.4749,-20.0409],[148.4767,-20.0342],[148.4754,-20.0331],[148.4761,-20.0247],[148.4733,-20.0216],[148.4751,-20.0198],[148.4744,-20.0172],[148.4756,-20.0155],[148.4744,-20.0144],[148.4769,-20.0139],[148.4781,-20.0106],[148.4761,-20.0058],[148.477,-20.0048],[148.4753,-20.0034],[148.4781,-20.0004],[148.476,-19.9996],[148.4763,-19.9968],[148.4677,-19.9959],[148.4673,-19.9943],[148.4697,-19.9932],[148.4659,-19.9923],[148.4663,-19.9887],[148.4578,-19.9741],[148.45,-19.9719]]]},"properties":{"id":"gbrmpa-zone-270","type":"Conservation Park Zone","zone":"Yellow Zone","color":"#e8c23f","name":"CP-19-4074","permit":"Gloucester Island","source":"GBRMPA"}},{"type":"Feature","geometry":{"type":"Polygon","coordinates":[[[146.0059,-16.1186],[146.1743,-16.3771],[146.1743,-16.5164],[146.259,-16.6253],[146.3529,-16.6253],[146.389,-16.6727],[146.2366,-16.6727],[146.2366,-16.78],[146.16,-16.78],[146.1599,-16.9201],[146.1103,-16.9679],[146.0124,-16.9679],[146.0124,-17.0327],[146.0903,-17.1601],[146.2677,-17.1601],[146.2675,-17.2137],[146.1277,-17.2137],[146.1277,-17.2866],[146.2207,-17.4],[146.3407,-17.4],[146.3407,-17.5397],[146.3606,-17.5595],[146.387,-17.5776],[146.3974,-17.6113],[146.3837,-17.6463],[146.3685,-17.6511],[146.3685,-17.6696],[146.3798,-17.6818],[146.3661,-17.7236],[146.3661,-17.7448],[146.3995,-17.7608],[146.434,-17.822],[146.457,-17.87],[146.5188,-17.9204],[146.6187,-17.9204],[146.6381,-17.9004],[146.6381,-17.8811],[146.6806,-17.8811],[146.72,-17.9467],[146.72,-18.18],[146.6266,-18.2156],[146.6266,-18.2333],[146.64,-18.26],[146.66,-18.28],[146.7,-18.28],[146.7,-18.3633],[146.6818,-18.3633],[146.6558,-18.375],[146.6558,-18.3918],[146.6694,-18.423],[146.6867,-18.4381],[146.7276,-18.4554],[146.7445,-18.4554],[146.7788,-18.42],[146.8431,-18.42],[146.9,-18.385],[146.971,-18.385],[146.971,-18.4645],[146.9865,-18.4864],[147.0194,-18.54],[147.1396,-18.58],[147.2466,-18.5641],[147.2466,-18.4853],[147.35,-18.4853],[147.3722,-18.5412],[147.3722,-18.6426],[147.5,-18.74],[147.5,-18.8268],[147.5931,-18.8268],[147.6708,-18.9042],[147.6708,-18.9658],[147.6925,-18.9903],[147.7251,-18.9903],[147.8201,-18.9531],[147.8201,-18.92],[147.7236,-18.8239],[147.8473,-18.8239],[147.8473,-18.8852],[147.86,-18.92],[147.9,-18.96],[147.96,-18.96],[148.0001,-19],[148.0562,-19],[148.0562,-19.0999],[148.08,-19.0999],[148.08,-19.2],[147.7994,-19.2],[147.7994,-19.3453],[147.845,-19.3453],[147.845,-19.371],[147.8746,-19.371],[147.8746,-19.3873],[147.9793,-19.4396],[148.1504,-19.4396],[148.1504,-19.25],[148.27,-19.25],[148.4858,-19.2583],[148.6202,-19.3596],[148.6303,-19.4502],[148.7301,-19.54],[148.8701,-19.55],[148.92,-19.55],[148.92,-19.5878],[149.1328,-19.5878],[149.21,-19.62],[149.14,-19.72],[149.14,-19.732],[149.0563,-19.7813],[149.0561,-19.8294],[148.8575,-19.8294],[148.8575,-19.6747],[148.7503,-19.6202],[148.5013,-19.6202],[148.5013,-19.9248],[148.55,-19.9474],[148.55,-20],[148.57,-20],[148.625,-20.0541],[148.8401,-20.0541],[148.8401,-20.1],[148.76,-20.22],[148.7531,-20.22],[148.7531,-20.2349],[148.7513,-20.2441],[148.7533,-20.2579],[148.7527,-20.2614],[148.7516,-20.2606],[148.753,-20.2623],[148.7517,-20.2613],[148.7501,-20.2628],[148.7475,-20.2624],[148.7409,-20.2587],[148.7399,-20.253],[148.7339,-20.2535],[148.6803,-20.231],[148.6713,-20.2381],[148.6706,-20.2441],[148.6683,-20.2471],[148.6633,-20.2473],[148.6627,-20.2375],[148.6679,-20.2353],[148.6681,-20.2317],[148.6614,-20.2213],[148.6605,-20.217],[148.6634,-20.2136],[148.6657,-20.2037],[148.6725,-20.1952],[148.6767,-20.1931],[148.6781,-20.187],[148.6769,-20.1757],[148.6736,-20.1817],[148.6764,-20.1851],[148.6765,-20.1882],[148.673,-20.1917],[148.6677,-20.1935],[148.6664,-20.1994],[148.6606,-20.2014],[148.6612,-20.2068],[148.6531,-20.2166],[148.6478,-20.2156],[148.6449,-20.2125],[148.6481,-20.2026],[148.6459,-20.195],[148.6461,-20.1739],[148.6386,-20.1706],[148.6359,-20.1734],[148.6335,-20.1826],[148.6302,-20.1856],[148.628,-20.1905],[148.6293,-20.2001],[148.6338,-20.2099],[148.6336,-20.2162],[148.63,-20.2198],[148.6258,-20.2194],[148.624,-20.2166],[148.6202,-20.2155],[148.6182,-20.2162],[148.6161,-20.2208],[148.6141,-20.221],[148.6116,-20.2162],[148.6047,-20.2137],[148.6015,-20.2105],[148.6044,-20.2066],[148.6037,-20.2024],[148.6131,-20.194],[148.6201,-20.1771],[148.6131,-20.1829],[148.6083,-20.184],[148.5976,-20.2011],[148.5898,-20.1993],[148.5854,-20.1958],[148.5823,-20.1965],[148.5817,-20.1902],[148.5835,-20.1809],[148.5868,-20.1774],[148.5931,-20.1757],[148.5977,-20.1678],[148.5951,-20.16],[148.6201,-20.16],[148.6201,-20.12],[148.6001,-20.12],[148.5918,-20.1529],[148.5797,-20.1275],[148.5674,-20.1133],[148.58,-20.1133],[148.5801,-20.0899],[148.5656,-20.09],[148.5601,-20.1062],[148.555,-20.1061],[148.5535,-20.1027],[148.5567,-20.0994],[148.5532,-20.0943],[148.5594,-20.091],[148.5611,-20.0885],[148.5607,-20.085],[148.5662,-20.0818],[148.5641,-20.0777],[148.5661,-20.0757],[148.5613,-20.0709],[148.5636,-20.067],[148.5563,-20.0659],[148.5535,-20.0691],[148.5563,-20.072],[148.556,-20.0737],[148.5467,-20.0731],[148.5454,-20.0753],[148.5406,-20.0763],[148.5398,-20.0788],[148.5369,-20.0788],[148.5302,-20.0847],[148.5146,-20.0768],[148.4832,-20.0458],[148.4832,-19.9958],[148.4665,-19.9791],[148.4665,-19.9666],[148.4457,-19.9666],[148.4331,-19.9791],[148.4331,-20.025],[148.4373,-20.0458],[148.4539,-20.0558],[148.4539,-20.0603],[148.3277,-20.0735],[148.3077,-20.0418],[148.3077,-20.0118],[148.2746,-20.0118],[148.2728,-20.006],[148.2659,-20.0002],[148.2661,-19.9943],[148.2681,-19.9924],[148.2663,-19.9901],[148.2679,-19.9885],[148.2671,-19.9846],[148.2645,-19.9838],[148.2602,-19.9745],[148.257,-19.9851],[148.241,-19.9848],[148.2323,-19.9769],[148.2266,-19.9658],[148.2216,-19.9641],[148.2233,-19.9594],[148.2213,-19.957],[148.2079,-19.9503],[148.2062,-19.9515],[148.1992,-19.9475],[148.1938,-19.949],[148.1963,-19.9501],[148.1939,-19.9516],[148.1912,-19.9494],[148.1789,-19.9469],[148.1731,-19.9504],[148.173,-19.9485],[148.1699,-19.9478],[148.1708,-19.9499],[148.1692,-19.9515],[148.1637,-19.95],[148.1631,-19.9484],[148.1492,-19.9452],[148.1458,-19.9452],[148.142,-19.9475],[148.141,-19.9448],[148.1364,-19.9465],[148.1254,-19.9428],[148.1206,-19.9423],[148.1203,-19.9447],[148.1077,-19.9385],[148.1077,-19.8452],[148.036,-19.8452],[148.036,-19.8913],[148.0265,-19.8937],[148.0198,-19.8994],[148.0181,-19.9019],[148.0174,-19.912],[148.0059,-19.9183],[148.0079,-19.9188],[148.0038,-19.92],[148.0053,-19.9204],[148.0011,-19.9241],[147.9961,-19.9265],[147.9939,-19.9251],[147.987,-19.9266],[147.9805,-19.9239],[147.908,-19.8437],[147.9,-19.7656],[147.8234,-19.6974],[147.7391,-19.6974],[147.7391,-19.7516],[147.5995,-19.7516],[147.5942,-19.7328],[147.5874,-19.7252],[147.5921,-19.7137],[147.5964,-19.7116],[147.5965,-19.7036],[147.6042,-19.6913],[147.6053,-19.6701],[147.6071,-19.6685],[147.6072,-19.6625],[147.598,-19.6486],[147.594,-19.6491],[147.5907,-19.6464],[147.5872,-19.6459],[147.5865,-19.6396],[147.5848,-19.64],[147.5826,-19.6369],[147.5738,-19.6323],[147.5729,-19.6287],[147.5751,-19.6272],[147.5772,-19.6279],[147.5791,-19.6235],[147.5764,-19.6097],[147.572,-19.6055],[147.572,-19.5976],[147.5738,-19.596],[147.5717,-19.5816],[147.5648,-19.5613],[147.551,-19.5334],[147.5457,-19.5261],[147.5445,-19.5265],[147.546,-19.5278],[147.5453,-19.5291],[147.5396,-19.5312],[147.5374,-19.526],[147.5299,-19.5167],[147.5289,-19.5128],[147.5185,-19.4987],[147.5174,-19.4911],[147.5142,-19.492],[147.5073,-19.4756],[147.4953,-19.4627],[147.4931,-19.4627],[147.4943,-19.4642],[147.4932,-19.4656],[147.4894,-19.467],[147.4877,-19.4658],[147.4803,-19.4491],[147.4804,-19.4478],[147.5215,-19.4478],[147.4724,-19.3646],[147.4121,-19.3],[147.378,-19.3],[147.378,-19.2667],[147.2614,-19.2667],[147.2614,-19.388],[147.1135,-19.388],[147.1081,-19.3804],[147.0868,-19.3642],[147.0726,-19.349],[147.0706,-19.3486],[147.0706,-19.3507],[147.0673,-19.3475],[147.0648,-19.3424],[147.0661,-19.34],[147.0498,-19.3067],[147.0455,-19.305],[147.0434,-19.3022],[147.0409,-19.302],[147.0403,-19.2929],[147.0491,-19.2924],[147.0491,-19.282],[147.0691,-19.282],[147.0691,-19.2625],[147.0772,-19.2625],[147.0772,-19.2526],[147.0691,-19.2526],[147.0761,-19.168],[147.012,-19.18],[146.8631,-19.2909],[146.8578,-19.2829],[147.001,-19.1267],[146.8943,-19.1266],[146.8873,-19.1125],[146.8873,-19.1001],[146.833,-19.1001],[146.833,-19.1048],[146.8023,-19.1155],[146.7975,-19.1137],[146.7914,-19.1159],[146.7897,-19.1151],[146.7872,-19.1217],[146.7813,-19.1237],[146.779,-19.1287],[146.7798,-19.1306],[146.6469,-19.1762],[146.6322,-19.1722],[146.6167,-19.1641],[146.6024,-19.1505],[146.6002,-19.1515],[146.5944,-19.1472],[146.5812,-19.145],[146.5708,-19.1461],[146.5631,-19.144],[146.5525,-19.1346],[146.545,-19.1213],[146.5333,-19.1157],[146.5167,-19.1008],[146.5142,-19.0998],[146.5126,-19.1017],[146.5056,-19.0988],[146.5012,-19.0998],[146.4961,-19.0986],[146.4909,-19.096],[146.481,-19.0865],[146.4774,-19.0804],[146.4708,-19.0756],[146.4551,-19.074],[146.4495,-19.0685],[146.4506,-19.0638],[146.4486,-19.0613],[146.4434,-19.0612],[146.4381,-19.0548],[146.4284,-19.0413],[146.4265,-19.0363],[146.4226,-19.0336],[146.4074,-19.0111],[146.4048,-19.0078],[146.4018,-19.0067],[146.4007,-19.0031],[146.3961,-18.9981],[146.3896,-18.9974],[146.3878,-18.9994],[146.3826,-18.9993],[146.3758,-18.9939],[146.3715,-18.9882],[146.3633,-18.9676],[146.3609,-18.9672],[146.3602,-18.9647],[146.3582,-18.9644],[146.3545,-18.9597],[146.3441,-18.9593],[146.3337,-18.9537],[146.3301,-18.9383],[146.3222,-18.9277],[146.3216,-18.9241],[146.3163,-18.9172],[146.3115,-18.9152],[146.305,-18.9066],[146.2995,-18.903],[146.2888,-18.8888],[146.2872,-18.8886],[146.285,-18.8833],[146.2846,-18.8743],[146.3626,-18.8743],[146.3626,-18.9281],[146.473,-18.9281],[146.473,-18.8519],[146.4468,-18.8519],[146.4468,-18.7495],[146.2878,-18.7495],[146.2889,-18.742],[146.2905,-18.7416],[146.2924,-18.7377],[146.3028,-18.7005],[146.3217,-18.6593],[146.3359,-18.6341],[146.337,-18.6272],[146.3323,-18.6207],[146.3357,-18.6161],[146.338,-18.6092],[146.3382,-18.6065],[146.3362,-18.604],[146.3368,-18.5957],[146.3408,-18.5785],[146.3896,-18.5785],[146.3928,-18.5639],[146.3924,-18.5474],[146.3944,-18.5358],[146.3935,-18.5178],[146.3914,-18.5102],[146.3846,-18.4985],[146.3363,-18.5129],[146.3296,-18.496],[146.3401,-18.496],[146.3401,-18.456],[146.3441,-18.444],[146.3681,-18.4312],[146.3681,-18.343],[146.3111,-18.343],[146.2931,-18.3175],[146.3007,-18.288],[146.3243,-18.2465],[146.331,-18.2399],[146.331,-18.216],[146.3767,-18.216],[146.3767,-18.127],[146.2306,-18.127],[146.1638,-18.1418],[146.013,-18.2132],[146.0098,-18.1883],[146.0073,-18.1806],[146.0075,-18.1624],[146.0092,-18.16],[146.006,-18.1409],[146.0063,-18.1276],[146.0099,-18.1164],[146.0209,-18.0976],[146.0255,-18.0925],[146.0261,-18.0857],[146.03,-18.0831],[146.0379,-18.0488],[146.0417,-18.0408],[146.0499,-18.0328],[146.1,-18.0328],[146.1913,-18.0571],[146.1913,-18.066],[146.2217,-18.066],[146.2217,-17.9922],[146.1994,-17.9922],[146.1702,-17.91],[146.1703,-17.7987],[146.1902,-17.7199],[146.1927,-17.6502],[146.171,-17.5818],[146.1183,-17.5818],[146.1026,-17.5702],[146.0793,-17.537],[146.079,-17.5307],[146.0698,-17.5232],[146.0696,-17.5118],[146.0774,-17.506],[146.0774,-17.4801],[146.0764,-17.477],[146.0733,-17.477],[146.0705,-17.4742],[146.0647,-17.461],[146.0639,-17.4547],[146.0658,-17.4348],[146.0697,-17.4186],[146.0914,-17.4186],[146.0914,-17.4009],[146.0724,-17.4009],[146.0724,-17.3945],[146.069,-17.392],[146.0672,-17.3878],[146.0611,-17.3845],[146.0556,-17.3874],[146.0513,-17.3854],[146.0431,-17.3753],[146.0358,-17.3607],[146.0196,-17.3456],[146.0056,-17.3147],[146.0008,-17.2916],[145.9987,-17.2894],[145.9968,-17.2819],[145.9962,-17.2742],[145.9832,-17.2497],[145.9794,-17.2473],[145.976,-17.2487],[145.9762,-17.2202],[145.9697,-17.2185],[145.97,-17.212],[145.9629,-17.1957],[145.9615,-17.1803],[145.9653,-17.1707],[145.9634,-17.1685],[145.9863,-17.1684],[145.9863,-17.1309],[145.9747,-17.1186],[145.9299,-17.1176],[145.9222,-17.1068],[145.9164,-17.0873],[145.9131,-17.0864],[145.9087,-17.0822],[145.9017,-17.0744],[145.8969,-17.0659],[145.8926,-17.0643],[145.891,-17.0599],[145.8905,-17.0377],[145.8963,-17.0149],[145.8996,-17.0078],[145.9063,-17.0078],[145.9632,-16.905],[145.9633,-16.8944],[145.929,-16.86],[145.915,-16.8601],[145.8494,-16.8702],[145.8493,-16.8185],[145.6941,-16.7753],[145.694,-16.74],[145.7,-16.734],[145.7,-16.722],[145.6273,-16.7048],[145.6212,-16.6992],[145.604,-16.6938],[145.5972,-16.6938],[145.5904,-16.6888],[145.582,-16.6872],[145.5737,-16.6705],[145.5709,-16.6595],[145.6176,-16.6595],[145.6176,-16.6371],[145.562,-16.566],[145.532,-16.5],[145.5321,-16.4583],[145.466,-16.4583],[145.461,-16.3509],[145.461,-16.3189],[145.5187,-16.3189],[145.5187,-16.2964],[145.4908,-16.274],[145.4908,-16.2374],[145.476,-16.2225],[145.476,-16.21],[145.461,-16.197],[145.454,-16.197],[145.454,-16.167],[145.461,-16.138],[145.481,-16.0809],[145.5595,-16.0809],[145.5595,-16.3392],[145.5423,-16.3392],[145.5423,-16.4142],[145.5791,-16.4533],[145.6802,-16.4532],[145.7235,-16.48],[145.84,-16.48],[145.86,-16.46],[145.86,-16.42],[145.9504,-16.3296],[145.9261,-16.3102],[145.9261,-16.1847],[145.8871,-16.164],[145.88,-16.1542],[145.88,-16.08],[145.9808,-16.08],[146.0059,-16.1186]],[[146.4751,-18.5611],[146.4751,-18.655],[146.4831,-18.673],[146.4915,-18.673],[146.4915,-18.6833],[146.505,-18.75],[146.505,-18.7916],[146.56,-18.7916],[146.56,-18.83],[146.5336,-18.82],[146.5183,-18.82],[146.5183,-18.8441],[146.53,-18.85],[146.54,-18.86],[146.56,-18.86],[146.56,-18.9017],[146.7268,-18.9017],[146.7268,-18.9504],[146.9951,-18.9504],[146.9951,-18.8297],[146.5511,-18.5333],[146.475,-18.5333],[146.4751,-18.5611]],[[145.965,-16.4512],[145.965,-16.5344],[145.94,-16.5344],[145.94,-16.56],[145.9,-16.64],[145.92,-16.7],[145.9373,-16.7],[145.9373,-16.7401],[145.961,-16.7761],[146,-16.8101],[146.04,-16.8101],[146.04,-16.7801],[146.0749,-16.7801],[146.1271,-16.7359],[146.1877,-16.6139],[146.0707,-16.3899],[146.021,-16.3899],[146.021,-16.4],[145.965,-16.4],[145.965,-16.4512]],[[147.5111,-19.2149],[147.5111,-19.3223],[147.6329,-19.3223],[147.6329,-19.4508],[147.7064,-19.4508],[147.7064,-19.2149],[147.5111,-19.2149]],[[146.56,-17.981],[146.5048,-18.034],[146.4894,-18.0642],[146.4894,-18.1106],[146.5041,-18.1244],[146.5269,-18.1286],[146.5764,-18.1041],[146.6393,-18.0422],[146.6393,-17.9598],[146.58,-17.9598],[146.58,-17.981],[146.56,-17.981]],[[147.0201,-18.65],[147.0401,-18.66],[147.0601,-18.66],[147.0901,-18.65],[147.0901,-18.61],[147.0201,-18.61],[147.0201,-18.65]],[[147.9165,-19.0083],[147.9165,-19.05],[147.9291,-19.0625],[147.954,-19.0625],[147.954,-19.025],[147.9373,-19.0083],[147.9165,-19.0083]],[[147.2732,-18.6108],[147.2732,-18.646],[147.3153,-18.646],[147.3153,-18.6108],[147.2732,-18.6108]],[[145.977,-16.929],[145.9854,-16.95],[146.02,-16.95],[146.02,-16.91],[145.996,-16.91],[145.977,-16.929]],[[147.08,-18.7],[147.0867,-18.7066],[147.1134,-18.7066],[147.1267,-18.7],[147.1267,-18.68],[147.1134,-18.6733],[147.1001,-18.6733],[147.08,-18.6867],[147.08,-18.7]],[[146.066,-17.2],[146.066,-17.238],[146.1,-17.238],[146.1,-17.2],[146.066,-17.2]],[[147.2481,-18.7551],[147.2636,-18.7659],[147.2757,-18.7659],[147.2997,-18.7423],[147.2762,-18.7259],[147.2481,-18.7465],[147.2481,-18.7551]],[[145.98,-16.31],[146,-16.33],[146.02,-16.31],[146.02,-16.29],[145.99,-16.29],[145.98,-16.3],[145.98,-16.31]],[[146.6483,-19.0347],[146.6422,-19.0164],[146.59,-19.0279],[146.5828,-19.0312],[146.5828,-19.0375],[146.5955,-19.0454],[146.6483,-19.0347]],[[148.6361,-20.087],[148.6361,-20.118],[148.6691,-20.118],[148.6691,-20.087],[148.6361,-20.087]],[[145.9997,-17.1655],[146.0113,-17.1759],[146.0239,-17.1759],[146.0239,-17.1304],[145.9997,-17.1304],[145.9997,-17.1655]],[[148.4501,-19.34],[148.4501,-19.3057],[148.4307,-19.3057],[148.42,-19.3154],[148.42,-19.34],[148.4501,-19.34]],[[146.8657,-18.4956],[146.8901,-18.4957],[146.89,-18.47],[146.8818,-18.4617],[146.86,-18.4687],[146.86,-18.49],[146.8657,-18.4956]],[[146.4601,-18.1],[146.4601,-18.07],[146.43,-18.07],[146.43,-18.09],[146.44,-18.1],[146.4601,-18.1]],[[148.3501,-19.38],[148.3501,-19.35],[148.3301,-19.35],[148.32,-19.3642],[148.32,-19.38],[148.3501,-19.38]],[[148.36,-19.2943],[148.36,-19.2648],[148.3376,-19.2648],[148.33,-19.28],[148.33,-19.2943],[148.36,-19.2943]],[[148.3396,-19.7182],[148.3396,-19.7421],[148.3718,-19.7421],[148.3718,-19.7182],[148.3396,-19.7182]],[[146.6267,-18.9534],[146.62,-18.96],[146.614,-18.9721],[146.614,-18.9821],[146.6241,-18.9821],[146.6467,-18.9734],[146.6467,-18.9534],[146.6267,-18.9534]],[[147.6222,-19.1498],[147.6243,-19.1533],[147.6446,-19.1533],[147.6446,-19.1282],[147.6151,-19.1282],[147.6151,-19.1379],[147.6222,-19.1498]],[[146.5467,-19.0867],[146.5467,-19.1],[146.5734,-19.1133],[146.5801,-19.1],[146.5601,-19.0867],[146.5467,-19.0867]],[[146.6734,-18.9867],[146.6734,-19.0067],[146.7001,-19.0067],[146.7001,-18.9933],[146.6934,-18.9867],[146.6734,-18.9867]],[[148.7021,-20.106],[148.7021,-20.119],[148.711,-20.119],[148.7291,-20.105],[148.7291,-20.096],[148.7151,-20.096],[148.7021,-20.106]],[[148.528,-20.062],[148.528,-20.074],[148.5401,-20.074],[148.5501,-20.064],[148.5501,-20.052],[148.538,-20.052],[148.528,-20.062]],[[148.3528,-19.764],[148.3528,-19.7799],[148.3767,-19.7799],[148.3767,-19.764],[148.3528,-19.764]],[[148.7067,-20.1733],[148.7001,-20.18],[148.7001,-20.1933],[148.7134,-20.1933],[148.7201,-20.1867],[148.7201,-20.1733],[148.7067,-20.1733]],[[148.356,-19.976],[148.356,-19.992],[148.3761,-19.992],[148.3761,-19.976],[148.356,-19.976]],[[148.6001,-20.0867],[148.6001,-20.1067],[148.6157,-20.1068],[148.6157,-20.0867],[148.6001,-20.0867]],[[146.3385,-18.6934],[146.3385,-18.6734],[146.3251,-18.6734],[146.3251,-18.6934],[146.3385,-18.6934]],[[146.3537,-18.9448],[146.3537,-18.9284],[146.3382,-18.9284],[146.3382,-18.9448],[146.3537,-18.9448]],[[145.8688,-16.5557],[145.8688,-16.5404],[145.8533,-16.5404],[145.8533,-16.5557],[145.8688,-16.5557]],[[146.752,-19.114],[146.752,-19.124],[146.7601,-19.124],[146.7601,-19.114],[146.752,-19.114]],[[147.8791,-19.4413],[147.8791,-19.4513],[147.8871,-19.4513],[147.8871,-19.4413],[147.8791,-19.4413]],[[146.7061,-19.124],[146.7061,-19.134],[146.7141,-19.134],[146.7141,-19.124],[146.7061,-19.124]],[[146.1123,-17.475],[146.1123,-17.4833],[146.1206,-17.4833],[146.1206,-17.475],[146.1123,-17.475]],[[146.1581,-17.5666],[146.1581,-17.5749],[146.1664,-17.5749],[146.1664,-17.5666],[146.1581,-17.5666]],[[147.9863,-19.9245],[147.993,-19.9221],[147.9894,-19.9217],[147.9863,-19.9245]],[[148.0003,-19.9223],[147.9977,-19.9234],[148.0015,-19.9229],[148.0003,-19.9223]],[[147.5946,-19.6459],[147.5963,-19.6481],[147.5966,-19.647],[147.5946,-19.6459]],[[147.9967,-19.9231],[147.9991,-19.9224],[147.9983,-19.9222],[147.9967,-19.9231]]]},"properties":{"id":"gbrmpa-zone-419","type":"General Use Zone","zone":"Light Blue Zone","color":"#7fc3dd","name":"GU-16-6004","permit":null,"source":"GBRMPA"}},{"type":"Feature","geometry":{"type":"Polygon","coordinates":[[[149.48,-19.85],[149.58,-19.9],[149.61,-19.98],[149.69,-20.05],[149.7517,-20.062],[149.77,-20.0749],[149.77,-20.1072],[149.8629,-20.1072],[149.8629,-20.2588],[150.0232,-20.2588],[150.0232,-20.42],[150.12,-20.42],[150.12,-20.4927],[150.073,-20.5153],[149.9447,-20.5153],[149.9128,-20.5474],[149.9128,-20.58],[150,-20.6],[150.1125,-20.6123],[150.1617,-20.5874],[150.18,-20.56],[150.26,-20.52],[150.2829,-20.52],[150.3145,-20.479],[150.3145,-20.42],[150.3001,-20.42],[150.3001,-20.3903],[150.1881,-20.1681],[150.13,-20.11],[149.9992,-19.8762],[150.1168,-19.8762],[150.1691,-19.9463],[150.2228,-20.0476],[150.28,-20.12],[150.4765,-20.3017],[150.4458,-20.3017],[150.4458,-20.5243],[150.52,-20.5243],[150.52,-20.5596],[150.58,-20.6196],[150.6,-20.6196],[150.62,-20.5996],[150.66,-20.5996],[150.72,-20.6397],[150.74,-20.7196],[150.8605,-20.8],[150.828,-20.8],[150.8281,-20.788],[150.82,-20.78],[150.8,-20.78],[150.8,-20.8],[150.6908,-20.8],[150.6908,-20.8886],[150.8242,-20.8886],[150.824,-21.04],[150.74,-21.04],[150.74,-21],[150.72,-21],[150.6,-21.14],[150.6,-21.1603],[150.64,-21.2203],[150.72,-21.1603],[150.8317,-21.1601],[150.8321,-21.1848],[150.7706,-21.2094],[150.76,-21.22],[150.76,-21.2356],[150.8512,-21.2049],[150.86,-21.2403],[150.9,-21.2803],[150.9,-21.3],[150.88,-21.32],[150.78,-21.32],[150.72,-21.26],[150.7,-21.28],[150.7,-21.3589],[150.7396,-21.38],[150.84,-21.38],[150.9882,-21.4397],[151.1027,-21.4397],[151.1025,-21.4],[151.1768,-21.4577],[151.1491,-21.4866],[151.1491,-21.5156],[151.3394,-21.5156],[151.3394,-21.6007],[151.0999,-21.6007],[150.8802,-21.4702],[150.6623,-21.4702],[150.4687,-21.2518],[149.9753,-21.2518],[149.9753,-21.5],[149.94,-21.5],[149.9373,-21.4958],[149.9373,-21.4875],[149.9289,-21.4875],[149.9289,-21.4708],[149.9039,-21.4708],[149.9039,-21.4791],[149.8873,-21.4791],[149.8873,-21.4958],[149.88,-21.5003],[149.8551,-21.5003],[149.855,-21.4852],[149.595,-21.485],[149.595,-21.6553],[149.64,-21.6553],[149.65,-21.6456],[149.65,-21.6703],[149.66,-21.6803],[149.66,-21.7303],[149.67,-21.7403],[149.68,-21.7403],[149.7033,-21.8564],[149.6912,-21.8812],[149.6912,-21.918],[149.651,-21.918],[149.651,-21.9036],[149.6259,-21.9036],[149.6259,-21.9421],[149.6373,-21.9421],[149.6373,-22.1815],[149.7131,-22.356],[149.6975,-22.3564],[149.6936,-22.3514],[149.6935,-22.3482],[149.6878,-22.348],[149.6841,-22.3452],[149.6578,-22.3393],[149.6544,-22.3326],[149.6524,-22.3316],[149.6523,-22.3293],[149.6458,-22.3243],[149.6328,-22.304],[149.6306,-22.3026],[149.6302,-22.2981],[149.6032,-22.2723],[149.6032,-22.2703],[149.598,-22.2685],[149.5952,-22.2643],[149.5952,-22.2553],[149.5928,-22.2558],[149.5912,-22.2595],[149.5899,-22.2593],[149.5907,-22.2518],[149.5867,-22.2487],[149.5836,-22.2415],[149.577,-22.2381],[149.5757,-22.2347],[149.5728,-22.2329],[149.5676,-22.2112],[149.5621,-22.2003],[149.5609,-22.194],[149.5624,-22.1917],[149.5552,-22.1905],[149.5567,-22.1834],[149.5748,-22.1834],[149.5748,-22.1714],[149.5883,-22.1714],[149.5883,-22.1469],[149.6015,-22.1609],[149.6141,-22.1609],[149.6141,-22.1468],[149.5808,-22.1134],[149.5764,-22.1134],[149.5764,-22.0332],[149.5199,-22.0332],[149.5191,-22.0308],[149.5216,-22.0316],[149.5231,-22.0304],[149.5224,-22.0246],[149.5155,-22.019],[149.5142,-22.0151],[149.515,-22.013],[149.511,-22.0108],[149.5101,-22.006],[149.4955,-21.9988],[149.4904,-21.993],[149.4857,-21.9806],[149.4826,-21.978],[149.4841,-21.9751],[149.4825,-21.9664],[149.4842,-21.9599],[149.4774,-21.9578],[149.4799,-21.9573],[149.474,-21.9476],[149.4694,-21.9319],[149.465,-21.9296],[149.4632,-21.9268],[149.4658,-21.9259],[149.4642,-21.9095],[149.4613,-21.9108],[149.4594,-21.9087],[149.464,-21.9066],[149.4653,-21.9009],[149.464,-21.8981],[149.4656,-21.899],[149.4617,-21.8834],[149.4617,-21.8758],[149.4646,-21.8573],[149.4682,-21.8458],[149.4716,-21.8405],[149.4646,-21.839],[149.4589,-21.8299],[149.4604,-21.8277],[149.4818,-21.8415],[149.4945,-21.8415],[149.5043,-21.8353],[149.5043,-21.8277],[149.4944,-21.8161],[149.4493,-21.8161],[149.4463,-21.8133],[149.442,-21.8138],[149.4356,-21.8092],[149.4633,-21.8092],[149.4633,-21.7544],[149.4346,-21.7544],[149.4338,-21.7519],[149.4363,-21.7452],[149.4423,-21.7422],[149.4592,-21.7293],[149.4592,-21.7405],[149.474,-21.7523],[149.4856,-21.7523],[149.4856,-21.7189],[149.4742,-21.7038],[149.4619,-21.7039],[149.4619,-21.7129],[149.4584,-21.7138],[149.4572,-21.7121],[149.4572,-21.7072],[149.4523,-21.6879],[149.4551,-21.6852],[149.462,-21.6852],[149.462,-21.67],[149.4499,-21.67],[149.4488,-21.6728],[149.4449,-21.6687],[149.4443,-21.6639],[149.4529,-21.6639],[149.4529,-21.6529],[149.45,-21.65],[149.45,-21.628],[149.4438,-21.6218],[149.451,-21.6071],[149.4594,-21.5994],[149.47,-21.6103],[149.51,-21.6103],[149.51,-21.5899],[149.4867,-21.5899],[149.4947,-21.5504],[149.49,-21.53],[149.49,-21.51],[149.44,-21.5],[149.41,-21.5],[149.41,-21.48],[149.4,-21.48],[149.4,-21.4667],[149.38,-21.4667],[149.38,-21.4966],[149.3725,-21.4987],[149.3697,-21.5017],[149.3625,-21.5046],[149.3531,-21.5036],[149.3542,-21.5002],[149.357,-21.4982],[149.353,-21.4922],[149.3538,-21.4899],[149.3455,-21.4823],[149.3438,-21.4761],[149.3403,-21.4761],[149.3391,-21.4747],[149.3364,-21.4755],[149.3366,-21.4811],[149.3331,-21.4873],[149.3287,-21.4869],[149.3186,-21.4905],[149.3053,-21.5014],[149.2905,-21.5008],[149.2878,-21.4881],[149.2841,-21.4845],[149.2841,-21.476],[149.2925,-21.4749],[149.298,-21.4703],[149.2938,-21.4663],[149.2902,-21.4673],[149.2869,-21.4581],[149.2914,-21.4583],[149.2924,-21.4404],[149.2976,-21.4268],[149.3022,-21.4275],[149.3058,-21.4261],[149.3101,-21.4272],[149.3126,-21.4255],[149.3151,-21.426],[149.3133,-21.4235],[149.3148,-21.4206],[149.3194,-21.4184],[149.3231,-21.4188],[149.3257,-21.4201],[149.3253,-21.4216],[149.3235,-21.4204],[149.325,-21.424],[149.33,-21.4278],[149.33,-21.4383],[149.344,-21.4383],[149.344,-21.428],[149.338,-21.406],[149.326,-21.406],[149.3246,-21.4153],[149.3146,-21.4106],[149.3058,-21.4108],[149.3033,-21.4126],[149.301,-21.412],[149.2954,-21.4162],[149.2847,-21.4108],[149.2812,-21.4105],[149.282,-21.4075],[149.2891,-21.4046],[149.2843,-21.4017],[149.2816,-21.3938],[149.2746,-21.3898],[149.2773,-21.3891],[149.2811,-21.391],[149.2877,-21.3898],[149.292,-21.396],[149.2972,-21.3972],[149.3005,-21.4004],[149.302,-21.3998],[149.3028,-21.3942],[149.3081,-21.3902],[149.3117,-21.3911],[149.3129,-21.3956],[149.3156,-21.3933],[149.3145,-21.392],[149.3343,-21.392],[149.3343,-21.2985],[149.326,-21.2485],[149.2729,-21.1854],[149.28,-21.1803],[149.29,-21.1803],[149.3,-21.1703],[149.3,-21.12],[149.29,-21.11],[149.2746,-21.11],[149.281,-21.0635],[149.142,-20.944],[149.0899,-20.9761],[149.0656,-20.9752],[149.0663,-20.9799],[149.0575,-20.985],[149.0497,-20.9793],[149.0448,-20.984],[149.0422,-20.9901],[149.0357,-20.9887],[149.0312,-20.9908],[149.0318,-20.989],[149.0302,-20.9875],[149.0222,-20.9938],[149.0165,-20.9946],[149.0143,-20.9914],[149.0203,-20.9804],[149.02,-20.976],[149.0159,-20.9721],[149.016,-20.9676],[149.0187,-20.969],[149.0201,-20.9681],[149.0227,-20.9573],[149.0305,-20.9598],[149.0314,-20.9573],[149.0269,-20.9502],[149.0254,-20.9445],[149.0173,-20.9415],[149.0149,-20.938],[149.0133,-20.9388],[149.0124,-20.9357],[149.0204,-20.9275],[149.0287,-20.9236],[149.0304,-20.925],[149.0405,-20.9247],[149.0441,-20.9307],[149.0491,-20.9313],[149.0594,-20.9294],[149.0632,-20.9226],[149.0375,-20.8942],[149.0278,-20.8942],[149.0228,-20.8971],[149.0223,-20.9063],[149.0186,-20.9125],[149.009,-20.9125],[149.005,-20.9146],[149.0051,-20.9124],[148.9954,-20.902],[148.9983,-20.8965],[148.9969,-20.8885],[148.8897,-20.803],[148.8738,-20.82],[148.8839,-20.8302],[148.8838,-20.8448],[148.8768,-20.8448],[148.8768,-20.8599],[148.8749,-20.8646],[148.8625,-20.8693],[148.858,-20.8694],[148.8523,-20.8725],[148.8446,-20.8698],[148.8444,-20.8647],[148.8471,-20.8571],[148.8423,-20.8557],[148.8421,-20.8511],[148.8495,-20.8463],[148.845,-20.8429],[148.8409,-20.8346],[148.8533,-20.8346],[148.8533,-20.82],[148.8467,-20.8133],[148.8328,-20.8133],[148.8328,-20.8221],[148.8243,-20.8213],[148.8211,-20.8261],[148.8194,-20.8192],[148.8121,-20.8151],[148.8122,-20.8045],[148.8199,-20.801],[148.821,-20.7989],[148.8183,-20.7957],[148.8201,-20.7947],[148.8413,-20.795],[148.8413,-20.8],[148.8634,-20.8],[148.8634,-20.7791],[148.8316,-20.7791],[148.829,-20.7766],[148.8107,-20.7719],[148.8107,-20.7243],[148.7584,-20.7243],[148.7521,-20.7235],[148.7485,-20.7207],[148.7431,-20.7204],[148.7254,-20.7143],[148.7305,-20.7131],[148.732,-20.707],[148.7467,-20.707],[148.76,-20.7],[148.7733,-20.7],[148.7733,-20.6867],[148.7667,-20.68],[148.7667,-20.6622],[148.88,-20.6622],[148.88,-20.63],[148.89,-20.61],[148.89,-20.59],[148.87,-20.57],[148.87,-20.544],[148.744,-20.544],[148.744,-20.6622],[148.7236,-20.6621],[148.7236,-20.6551],[148.7263,-20.6485],[148.7306,-20.6466],[148.7324,-20.6431],[148.7317,-20.6414],[148.7363,-20.6416],[148.7344,-20.637],[148.7308,-20.6397],[148.7282,-20.639],[148.7296,-20.6341],[148.7277,-20.6323],[148.7214,-20.6314],[148.713,-20.6359],[148.7036,-20.6363],[148.6957,-20.6326],[148.6936,-20.6264],[148.6893,-20.6221],[148.6862,-20.6068],[148.6838,-20.6056],[148.683,-20.6022],[148.6816,-20.606],[148.6807,-20.6037],[148.6822,-20.6029],[148.6756,-20.6008],[148.6745,-20.5939],[148.6701,-20.5902],[148.67,-20.5871],[148.6683,-20.5859],[148.677,-20.5815],[148.6709,-20.5804],[148.6675,-20.5757],[148.6686,-20.5708],[148.6721,-20.5796],[148.6762,-20.5768],[148.6784,-20.5771],[148.6771,-20.5762],[148.6769,-20.5716],[148.6804,-20.5687],[148.6805,-20.5584],[148.677,-20.5554],[148.677,-20.5526],[148.6807,-20.5503],[148.6808,-20.5573],[148.6813,-20.5557],[148.6858,-20.555],[148.6937,-20.5397],[148.7075,-20.5214],[148.7099,-20.5158],[148.7158,-20.5086],[148.7154,-20.5071],[148.7194,-20.504],[148.7206,-20.4949],[148.7178,-20.4872],[148.7197,-20.4872],[148.719,-20.4851],[148.7218,-20.4848],[148.7187,-20.4835],[148.727,-20.4764],[148.7296,-20.4766],[148.737,-20.4837],[148.7418,-20.4774],[148.7551,-20.4718],[148.7599,-20.4722],[148.7645,-20.4806],[148.7648,-20.4759],[148.7723,-20.4694],[148.7762,-20.4686],[148.7818,-20.4646],[148.7846,-20.4551],[148.7832,-20.4484],[148.7868,-20.4471],[148.7929,-20.4521],[148.7933,-20.4542],[148.7954,-20.4503],[148.7995,-20.4487],[148.8073,-20.4507],[148.81,-20.4561],[148.8144,-20.4558],[148.8156,-20.4608],[148.8236,-20.4689],[148.8225,-20.4803],[148.8268,-20.4871],[148.8251,-20.4942],[148.8218,-20.4963],[148.8249,-20.4983],[148.8251,-20.5003],[148.8278,-20.5021],[148.8326,-20.502],[148.8367,-20.4989],[148.8451,-20.5026],[148.8491,-20.5075],[148.8482,-20.5088],[148.8459,-20.5078],[148.8464,-20.5053],[148.8436,-20.5074],[148.8463,-20.5149],[148.8481,-20.5147],[148.8482,-20.51],[148.8501,-20.5084],[148.8544,-20.511],[148.8522,-20.5107],[148.8522,-20.5151],[148.858,-20.5128],[148.8563,-20.5157],[148.8567,-20.5189],[148.8526,-20.5215],[148.8586,-20.5289],[148.8652,-20.5288],[148.8702,-20.523],[148.8727,-20.5252],[148.8785,-20.522],[148.881,-20.5237],[148.8825,-20.5226],[148.8861,-20.5235],[148.8896,-20.5284],[148.8895,-20.5335],[148.8928,-20.5415],[148.8945,-20.5438],[148.8976,-20.5434],[148.8996,-20.5456],[148.8996,-20.5384],[148.9069,-20.5353],[148.9126,-20.5366],[148.9192,-20.5325],[148.9264,-20.5372],[148.9294,-20.5371],[148.9318,-20.5349],[148.9493,-20.5401],[149.0775,-20.5401],[149.0775,-20.5484],[149.0733,-20.5518],[149.0733,-20.5558],[149.0756,-20.5583],[149.078,-20.5583],[149.078,-20.56],[149.138,-20.56],[149.138,-20.508],[149.14,-20.46],[149.1179,-20.46],[149.1179,-20.388],[149.0014,-20.388],[149.0014,-20.4195],[148.93,-20.4195],[148.93,-20.41],[148.96,-20.38],[148.97,-20.38],[148.97,-20.37],[149.0017,-20.366],[149.004,-20.36],[149.02,-20.3518],[149.02,-20.36],[149.03,-20.36],[149.03,-20.35],[149.19,-20.26],[149.41,-19.82],[149.45,-19.82],[149.48,-19.85]],[[148.8193,-20.5053],[148.8192,-20.5053],[148.8193,-20.5054],[148.8193,-20.5053]],[[148.9259,-20.5415],[148.9255,-20.5416],[148.9257,-20.5419],[148.9259,-20.5415]],[[149.5985,-21.9567],[149.5997,-21.9581],[149.5996,-21.9572],[149.5985,-21.9567]],[[148.8143,-20.4729],[148.8155,-20.4726],[148.8163,-20.4661],[148.8143,-20.4729]],[[148.8086,-20.4869],[148.8077,-20.4897],[148.8095,-20.4913],[148.8086,-20.4869]],[[148.8693,-20.8057],[148.8718,-20.8056],[148.8737,-20.8033],[148.8693,-20.8057]],[[148.8183,-20.5051],[148.8212,-20.5049],[148.8213,-20.503],[148.8176,-20.502],[148.8183,-20.5051]],[[148.8799,-20.7989],[148.8808,-20.7978],[148.8783,-20.7953],[148.8746,-20.798],[148.8769,-20.7972],[148.8799,-20.7989]],[[149.6414,-21.3041],[149.6498,-21.3041],[149.6498,-21.2958],[149.6414,-21.2958],[149.6414,-21.3041]],[[149.4686,-21.6692],[149.4769,-21.6692],[149.4769,-21.6608],[149.4686,-21.6608],[149.4686,-21.6692]],[[149.5287,-21.9617],[149.5301,-21.9535],[149.528,-21.9535],[149.5277,-21.9606],[149.5244,-21.9726],[149.5272,-21.9782],[149.5295,-21.9779],[149.5297,-21.9763],[149.5287,-21.9617]],[[149.2157,-20.7606],[149.2257,-20.7606],[149.2257,-20.7506],[149.2157,-20.7506],[149.2157,-20.7606]],[[149.16,-20.58],[149.16,-20.59],[149.17,-20.59],[149.17,-20.58],[149.16,-20.58]],[[149.22,-20.64],[149.22,-20.65],[149.23,-20.65],[149.23,-20.64],[149.22,-20.64]],[[149.35,-20.9203],[149.36,-20.9203],[149.36,-20.91],[149.35,-20.91],[149.35,-20.9203]],[[149.6248,-21.2625],[149.6248,-21.2708],[149.6373,-21.2708],[149.6373,-21.2625],[149.6248,-21.2625]],[[149.6498,-21.3746],[149.6664,-21.3746],[149.6664,-21.3666],[149.6498,-21.3669],[149.6498,-21.3746]],[[149.176,-20.61],[149.176,-20.622],[149.188,-20.622],[149.188,-20.61],[149.176,-20.61]],[[149.6081,-22.05],[149.6081,-22.0624],[149.6206,-22.0624],[149.6206,-22.05],[149.6081,-22.05]],[[150.2334,-21.1067],[150.2334,-21.12],[150.2467,-21.12],[150.2467,-21.1067],[150.2334,-21.1067]],[[149.18,-20.6067],[149.1933,-20.6067],[149.1933,-20.5933],[149.18,-20.5933],[149.18,-20.6067]],[[149.8164,-21.475],[149.8247,-21.475],[149.8331,-21.467],[149.8331,-21.4583],[149.8247,-21.4583],[149.8164,-21.4666],[149.8164,-21.475]],[[149.22,-20.74],[149.24,-20.74],[149.24,-20.7267],[149.22,-20.7267],[149.22,-20.74]],[[149.8068,-21.4266],[149.8067,-21.44],[149.8267,-21.44],[149.8267,-21.4266],[149.8068,-21.4266]],[[149.4867,-21.48],[149.5,-21.48],[149.5,-21.46],[149.4867,-21.46],[149.4867,-21.48]],[[149.624,-21.67],[149.636,-21.6823],[149.644,-21.6823],[149.644,-21.67],[149.638,-21.6643],[149.624,-21.6643],[149.624,-21.67]],[[149.304,-21.1783],[149.316,-21.1783],[149.316,-21.1703],[149.3219,-21.1647],[149.322,-21.154],[149.31,-21.154],[149.31,-21.162],[149.304,-21.168],[149.304,-21.1783]],[[149.54,-21.0403],[149.56,-21.0403],[149.56,-21.03],[149.55,-21.02],[149.54,-21.02],[149.54,-21.0403]],[[149.6534,-21.48],[149.6734,-21.48],[149.6734,-21.46],[149.66,-21.46],[149.6534,-21.467],[149.6534,-21.48]],[[149.74,-20.5467],[149.7467,-20.5533],[149.76,-20.5533],[149.76,-20.5334],[149.74,-20.5334],[149.74,-20.5467]],[[150.2467,-21.0733],[150.2667,-21.0733],[150.2667,-21.0533],[150.2534,-21.0533],[150.2467,-21.06],[150.2467,-21.0733]],[[149.48,-21.4266],[149.4867,-21.4336],[149.5,-21.4336],[149.5,-21.4133],[149.48,-21.4133],[149.48,-21.4266]],[[149.4467,-21.46],[149.4534,-21.467],[149.4667,-21.467],[149.4667,-21.4467],[149.4467,-21.4467],[149.4467,-21.46]],[[149.7267,-20.9604],[149.7467,-20.9604],[149.7467,-20.94],[149.7334,-20.94],[149.7267,-20.9466],[149.7267,-20.9604]],[[149.2933,-21.0663],[149.3067,-21.0663],[149.3198,-21.0535],[149.3134,-21.0467],[149.2933,-21.0467],[149.2933,-21.0663]],[[150.1867,-20.1133],[150.1934,-20.12],[150.2067,-20.12],[150.2067,-20.0933],[150.1934,-20.0933],[150.1867,-20.1],[150.1867,-20.1133]],[[149.4267,-20.7733],[149.4334,-20.7803],[149.4467,-20.7803],[149.4467,-20.76],[149.44,-20.7533],[149.4267,-20.7533],[149.4267,-20.7733]],[[149.2334,-20.8737],[149.2467,-20.8737],[149.2534,-20.867],[149.2534,-20.8467],[149.24,-20.8467],[149.2334,-20.8533],[149.2334,-20.8737]],[[149.7667,-20.9937],[149.8067,-20.9937],[149.8067,-20.98],[149.7667,-20.98],[149.7667,-20.9937]],[[149.6408,-21.7201],[149.6141,-21.7468],[149.6141,-21.7534],[149.6274,-21.7534],[149.6539,-21.7266],[149.6474,-21.7201],[149.6408,-21.7201]],[[150.68,-20.65],[150.68,-20.67],[150.71,-20.67],[150.71,-20.65],[150.68,-20.65]],[[150.3669,-20.5402],[150.3733,-20.5467],[150.3934,-20.5467],[150.3934,-20.5267],[150.3867,-20.52],[150.3738,-20.52],[150.3669,-20.5271],[150.3669,-20.5402]],[[149.51,-21.91],[149.5,-21.9303],[149.5,-21.95],[149.51,-21.95],[149.5298,-21.91],[149.51,-21.91]],[[149.6134,-20.7533],[149.6067,-20.7667],[149.6067,-20.7867],[149.6267,-20.7867],[149.6333,-20.7803],[149.6333,-20.7667],[149.6267,-20.7533],[149.6134,-20.7533]],[[149.94,-21.1133],[149.9467,-21.1067],[149.9467,-21.1203],[149.96,-21.1203],[149.9667,-21.1137],[149.9734,-21.1137],[149.9734,-21.1],[149.9534,-21.1],[149.9467,-21.1067],[149.9467,-21.0933],[149.9267,-21.0933],[149.9267,-21.1067],[149.9333,-21.1133],[149.94,-21.1133]],[[149.5936,-22.0203],[149.5936,-22.0337],[149.6002,-22.0403],[149.6135,-22.027],[149.6269,-22.027],[149.6269,-22.0067],[149.6291,-22.0067],[149.6291,-21.9958],[149.6208,-21.9958],[149.6208,-22.0067],[149.6069,-22.0067],[149.5936,-22.0203]],[[149.1,-20.593],[149.1096,-20.6024],[149.123,-20.6073],[149.13,-20.6003],[149.13,-20.57],[149.1,-20.57],[149.1,-20.593]],[[149.8334,-21.4333],[149.8334,-21.4533],[149.8667,-21.4533],[149.8667,-21.4603],[149.8734,-21.467],[149.8734,-21.4737],[149.8934,-21.4737],[149.8934,-21.46],[149.8734,-21.4467],[149.8667,-21.4467],[149.8667,-21.44],[149.8533,-21.4333],[149.8334,-21.4333]],[[150.38,-20.7103],[150.38,-20.73],[150.42,-20.73],[150.42,-20.7],[150.39,-20.7],[150.38,-20.7103]],[[150.35,-21.03],[150.36,-21.0403],[150.39,-21.0403],[150.39,-21],[150.35,-21.02],[150.35,-21.03]],[[149.53,-21.6603],[149.53,-21.72],[149.55,-21.72],[149.55,-21.6603],[149.53,-21.6603]],[[149.46,-20.76],[149.48,-20.76],[149.5,-20.7403],[149.48,-20.72],[149.46,-20.72],[149.46,-20.76]],[[149.81,-21.36],[149.81,-21.3711],[149.7998,-21.3916],[149.7998,-21.3999],[149.8081,-21.3999],[149.8165,-21.3836],[149.83,-21.3903],[149.85,-21.3903],[149.85,-21.37],[149.83,-21.36],[149.81,-21.36]],[[149.38,-20.79],[149.4,-20.8003],[149.42,-20.7803],[149.42,-20.77],[149.41,-20.76],[149.38,-20.76],[149.38,-20.79]],[[149.56,-21.81],[149.53,-21.84],[149.53,-21.8603],[149.55,-21.8603],[149.57,-21.8403],[149.57,-21.81],[149.56,-21.81]],[[149.8751,-21.002],[149.889,-21.035],[149.909,-21.035],[149.9229,-21.028],[149.908,-20.991],[149.887,-20.991],[149.8751,-21.002]],[[149.69,-21.48],[149.71,-21.48],[149.71,-21.4704],[149.73,-21.4704],[149.73,-21.44],[149.72,-21.43],[149.7,-21.43],[149.7,-21.45],[149.69,-21.46],[149.69,-21.48]],[[149.61,-21.84],[149.6,-21.87],[149.62,-21.87],[149.64,-21.8503],[149.66,-21.8396],[149.66,-21.82],[149.64,-21.82],[149.62,-21.84],[149.61,-21.84]],[[149.5934,-21.44],[149.6,-21.447],[149.6134,-21.447],[149.62,-21.4336],[149.62,-21.3866],[149.6134,-21.38],[149.6,-21.38],[149.5934,-21.387],[149.5934,-21.44]],[[149.54,-21.7803],[149.5467,-21.787],[149.5533,-21.787],[149.5771,-21.7538],[149.5941,-21.7538],[149.6008,-21.7464],[149.6008,-21.7331],[149.5867,-21.7331],[149.5867,-21.7267],[149.5733,-21.7267],[149.54,-21.7666],[149.54,-21.7803]],[[149.57,-21.95],[149.57,-21.96],[149.56,-21.98],[149.55,-21.98],[149.55,-22],[149.5613,-22],[149.5597,-22.0023],[149.5603,-22.0078],[149.5661,-22.0159],[149.5692,-22.0275],[149.5703,-22.0205],[149.5666,-22.0026],[149.5775,-22.0045],[149.5823,-22.0278],[149.5845,-22.0292],[149.5901,-22.0187],[149.5927,-22.0051],[149.5907,-21.9841],[149.5866,-21.9869],[149.5807,-22.0017],[149.5737,-22.0026],[149.5674,-22],[149.57,-22],[149.59,-21.9812],[149.59,-21.96],[149.58,-21.95],[149.57,-21.95]],[[149.66,-21.2933],[149.6534,-21.3067],[149.6534,-21.3533],[149.6667,-21.3533],[149.7,-21.3337],[149.7067,-21.327],[149.7067,-21.3133],[149.7,-21.3067],[149.68,-21.2933],[149.66,-21.2933]],[[149.5667,-21.4737],[149.5733,-21.4937],[149.5867,-21.4937],[149.5867,-21.4667],[149.58,-21.46],[149.574,-21.46],[149.58,-21.4536],[149.58,-21.38],[149.56,-21.38],[149.5533,-21.3866],[149.5533,-21.453],[149.56,-21.46],[149.5667,-21.46],[149.5667,-21.4737]],[[149.57,-20.8923],[149.633,-20.8923],[149.633,-20.84],[149.5913,-20.84],[149.57,-20.8565],[149.57,-20.8923]],[[149.3789,-20.9506],[149.485,-20.9506],[149.485,-20.891],[149.3789,-20.891],[149.3789,-20.9506]],[[149.2733,-20.847],[149.28,-20.8537],[149.2867,-20.8537],[149.2867,-20.834],[149.313,-20.834],[149.313,-20.7534],[149.2364,-20.7534],[149.2364,-20.834],[149.2733,-20.834],[149.2733,-20.847]],[[150.02,-20.89],[150.02,-21.0335],[150.1003,-21.0335],[150.1003,-20.89],[150.02,-20.89]],[[149.05,-20.6496],[149.16,-20.7596],[149.17,-20.7596],[149.17,-20.7503],[149.2,-20.71],[149.22,-20.71],[149.22,-20.6903],[149.2,-20.67],[149.16,-20.65],[149.15,-20.65],[149.07,-20.61],[149.05,-20.61],[149.05,-20.6496]],[[150.5,-20.9],[150.5,-21.04],[150.46,-21.06],[150.4,-21.06],[150.38,-21.0803],[150.4,-21.1203],[150.48,-21.1603],[150.5,-21.1603],[150.54,-21.1003],[150.6,-21.0203],[150.68,-20.9604],[150.6998,-20.9398],[150.62,-20.88],[150.6,-20.9],[150.5,-20.9]],[[150.4131,-20.5469],[150.32,-20.64],[150.28,-20.64],[150.16,-20.7003],[150.16,-20.7196],[150.18,-20.7196],[150.26,-20.68],[150.36,-20.68],[150.4,-20.64],[150.42,-20.64],[150.4399,-20.6801],[150.444,-20.7581],[150.4417,-20.7874],[150.4081,-20.7874],[150.3498,-20.8083],[150.3039,-20.8375],[150.3039,-20.8586],[150.3498,-20.8586],[150.3498,-20.875],[150.3748,-20.875],[150.44,-20.858],[150.5399,-20.8],[150.5,-20.7196],[150.5,-20.64],[150.48,-20.64],[150.48,-20.6],[150.42,-20.54],[150.4131,-20.5469]]]},"properties":{"id":"gbrmpa-zone-745","type":"General Use Zone","zone":"Light Blue Zone","color":"#7fc3dd","name":"GU-19-6010","permit":null,"source":"GBRMPA"}},{"type":"Feature","geometry":{"type":"Polygon","coordinates":[[[148.8575,-19.7484],[148.8575,-19.8294],[148.96,-19.8294],[148.96,-19.9158],[148.7302,-19.9158],[148.7302,-20.0541],[148.625,-20.0541],[148.57,-20],[148.57,-19.9905],[148.5609,-19.98],[148.55,-19.98],[148.55,-19.9474],[148.5013,-19.9248],[148.5013,-19.6202],[148.7503,-19.6202],[148.8575,-19.6747],[148.8575,-19.7484]],[[148.616,-20.008],[148.616,-20.032],[148.64,-20.032],[148.64,-20.008],[148.616,-20.008]]]},"properties":{"id":"gbrmpa-zone-290","type":"Marine National Park Zone","zone":"Green Zone","color":"#2fae5a","name":"MNP-19-1102","permit":"Lagoon area north-east of Bowen","source":"GBRMPA"}},{"type":"Feature","geometry":{"type":"Polygon","coordinates":[[[148.09,-19.4396],[147.9793,-19.4396],[147.9793,-19.3166],[148.0332,-19.3166],[148.1504,-19.3689],[148.1504,-19.4396],[148.09,-19.4396]]]},"properties":{"id":"gbrmpa-zone-247","type":"Conservation Park Zone","zone":"Yellow Zone","color":"#e8c23f","name":"CP-19-4062","permit":"Old Reef (19-048)","source":"GBRMPA"}},{"type":"Feature","geometry":{"type":"Polygon","coordinates":[[[148.6436,-18.9235],[148.15,-18.75],[148.0911,-18.6991],[148.2154,-18.5469],[148.62,-18.76],[149.18,-19],[149.12,-19.1],[148.6436,-18.9235]]]},"properties":{"id":"gbrmpa-zone-503","type":"General Use Zone","zone":"Light Blue Zone","color":"#7fc3dd","name":"GU-18-6007","permit":null,"source":"GBRMPA"}},{"type":"Feature","geometry":{"type":"Polygon","coordinates":[[[149.892,-19.648],[149.864,-19.648],[149.864,-19.632],[149.828,-19.632],[149.828,-19.596],[149.86,-19.596],[149.892,-19.62],[149.892,-19.648]]]},"properties":{"id":"gbrmpa-zone-291","type":"Preservation Zone","zone":"Pink Zone","color":"#e58fb0","name":"P-19-20","permit":"Tile Reef (19-151 and 19-152)","source":"GBRMPA"}},{"type":"Feature","geometry":{"type":"Polygon","coordinates":[[[150.2062,-19.437],[150.2565,-19.4666],[150.0428,-19.7572],[150.0427,-19.8256],[150.1168,-19.8762],[149.9992,-19.8762],[150.13,-20.11],[150.1881,-20.1681],[150.3001,-20.3903],[150.3001,-20.42],[150.0232,-20.42],[150.0232,-20.2588],[149.8629,-20.2588],[149.8629,-19.7017],[149.75,-19.62],[149.7,-19.66],[149.63,-19.65],[149.61,-19.63],[149.61,-19.59],[149.7885,-19.4115],[149.8811,-19.4591],[149.9894,-19.309],[150.2062,-19.437]],[[149.828,-19.596],[149.828,-19.632],[149.864,-19.632],[149.864,-19.648],[149.892,-19.648],[149.892,-19.62],[149.86,-19.596],[149.828,-19.596]],[[150.116,-20.328],[150.116,-20.364],[150.148,-20.364],[150.152,-20.316],[150.132,-20.316],[150.116,-20.328]],[[149.9639,-20.0958],[149.965,-20.0957],[149.9664,-20.0937],[149.9639,-20.0958]],[[149.958,-19.736],[149.9595,-19.7365],[149.9587,-19.7345],[149.958,-19.736]]]},"properties":{"id":"gbrmpa-zone-248","type":"Marine National Park Zone","zone":"Green Zone","color":"#2fae5a","name":"MNP-19-1098","permit":"Rafter Reef (19-146) to Bax Reef (20-138) mid-shelf transect","source":"GBRMPA"}},{"type":"Feature","geometry":{"type":"Polygon","coordinates":[[[148.561,-19.9801],[148.57,-19.9905],[148.57,-20],[148.55,-20],[148.55,-19.98],[148.561,-19.9801]],[[148.5603,-19.9888],[148.5546,-19.9943],[148.553,-19.9986],[148.5606,-19.9913],[148.5603,-19.9888]]]},"properties":{"id":"gbrmpa-zone-268","type":"Habitat Protection Zone","zone":"Dark Blue Zone","color":"#3f6fb0","name":"HP-19-5185","permit":"Rattray Island Reef (19-110)","source":"GBRMPA"}},{"type":"Feature","geometry":{"type":"Polygon","coordinates":[[[148.36,-19.2943],[148.33,-19.2943],[148.33,-19.28],[148.3376,-19.2648],[148.36,-19.2648],[148.36,-19.2943]]]},"properties":{"id":"gbrmpa-zone-251","type":"Habitat Protection Zone","zone":"Dark Blue Zone","color":"#3f6fb0","name":"HP-19-5167","permit":"Faith Reef (19-044)","source":"GBRMPA"}},{"type":"Feature","geometry":{"type":"Polygon","coordinates":[[[148.3501,-19.38],[148.32,-19.38],[148.32,-19.3642],[148.3301,-19.35],[148.3501,-19.35],[148.3501,-19.38]]]},"properties":{"id":"gbrmpa-zone-245","type":"Habitat Protection Zone","zone":"Dark Blue Zone","color":"#3f6fb0","name":"HP-19-5170","permit":"Charity Reef (19-047)","source":"GBRMPA"}},{"type":"Feature","geometry":{"type":"Polygon","coordinates":[[[147.8287,-18.3629],[147.7879,-18.416],[147.1276,-17.9916],[147.4003,-17.7454],[148.014,-18.1218],[147.8287,-18.3629]]]},"properties":{"id":"gbrmpa-zone-380","type":"Buffer Zone","zone":"Olive Green Zone","color":"#94a84f","name":"B-17-3011","permit":"Offshore Townsville - adjacent to Marine Park boundary","source":"GBRMPA"}},{"type":"Feature","geometry":{"type":"Polygon","coordinates":[[[148.3718,-19.7182],[148.3718,-19.7421],[148.3396,-19.7421],[148.3396,-19.7182],[148.3718,-19.7182]],[[148.3568,-19.729],[148.3612,-19.7285],[148.3635,-19.7299],[148.3641,-19.7286],[148.3593,-19.7263],[148.358,-19.724],[148.3568,-19.729]]]},"properties":{"id":"gbrmpa-zone-286","type":"Conservation Park Zone","zone":"Yellow Zone","color":"#e8c23f","name":"CP-19-4065","permit":"Holbourne Island","source":"GBRMPA"}},{"type":"Feature","geometry":{"type":"Polygon","coordinates":[[[149.9894,-19.309],[149.8811,-19.4591],[149.4452,-19.2351],[149.7604,-19.1733],[149.9894,-19.309]]]},"properties":{"id":"gbrmpa-zone-257","type":"General Use Zone","zone":"Light Blue Zone","color":"#7fc3dd","name":"GU-19-6008","permit":null,"source":"GBRMPA"}},{"type":"Feature","geometry":{"type":"Polygon","coordinates":[[[148.3703,-18.8275],[148.3554,-18.9872],[148.4568,-19.0162],[148.5168,-18.879],[148.6436,-18.9235],[148.4858,-19.2583],[148.27,-19.25],[148.08,-19.25],[148.08,-19.0999],[148.0562,-19.0999],[148.0562,-19],[148.0001,-19],[147.96,-18.96],[147.9972,-18.96],[147.9972,-18.8401],[147.9141,-18.8401],[147.9141,-18.7258],[148.0911,-18.6991],[148.15,-18.75],[148.3703,-18.8275]],[[148.1031,-19.0315],[148.1047,-19.0313],[148.1052,-19.029],[148.1031,-19.0315]],[[148.2229,-19.0806],[148.2244,-19.0801],[148.2236,-19.0792],[148.2229,-19.0806]],[[148.1374,-19.1657],[148.1388,-19.1656],[148.139,-19.1644],[148.1374,-19.1657]],[[148.4188,-19.1075],[148.42,-19.107],[148.4185,-19.1065],[148.4188,-19.1075]],[[148.4276,-19.1868],[148.4294,-19.1866],[148.4286,-19.1859],[148.4276,-19.1868]],[[148.5035,-19.1721],[148.5048,-19.1727],[148.5049,-19.1719],[148.5035,-19.1721]]]},"properties":{"id":"gbrmpa-zone-409","type":"Habitat Protection Zone","zone":"Dark Blue Zone","color":"#3f6fb0","name":"HP-18-5149","permit":"Burdekin/Flinders Passage offshore","source":"GBRMPA"}},{"type":"Feature","geometry":{"type":"Polygon","coordinates":[[[148.3761,-19.976],[148.3761,-19.992],[148.356,-19.992],[148.356,-19.976],[148.3761,-19.976]],[[148.3636,-19.9831],[148.3596,-19.9837],[148.3606,-19.9866],[148.3629,-19.9876],[148.3708,-19.9857],[148.3703,-19.9838],[148.3636,-19.9831]]]},"properties":{"id":"gbrmpa-zone-269","type":"Habitat Protection Zone","zone":"Dark Blue Zone","color":"#3f6fb0","name":"HP-19-5184","permit":"Middle Island Reef (19-106)","source":"GBRMPA"}},{"type":"Feature","geometry":{"type":"Polygon","coordinates":[[[149.1777,-19.731],[149.1795,-19.7514],[149.1815,-19.758],[149.1874,-19.7627],[149.1941,-19.7648],[149.2131,-19.7656],[149.2422,-19.7818],[149.25,-19.7991],[149.2527,-19.8119],[149.258,-19.8119],[149.258,-19.83],[149.22,-19.84],[149.186,-19.84],[149.156,-19.8294],[149.092,-19.8294],[149.092,-19.7813],[149.0563,-19.7813],[149.14,-19.732],[149.146,-19.738],[149.16,-19.738],[149.1654,-19.7299],[149.1717,-19.7293],[149.1777,-19.731]]]},"properties":{"id":"gbrmpa-zone-283","type":"Conservation Park Zone","zone":"Yellow Zone","color":"#e8c23f","name":"CP-19-4067","permit":"Hook Reef (19-136a)","source":"GBRMPA"}},{"type":"Feature","geometry":{"type":"Polygon","coordinates":[[[148.4501,-19.34],[148.42,-19.34],[148.42,-19.3154],[148.4307,-19.3057],[148.4501,-19.3057],[148.4501,-19.34]]]},"properties":{"id":"gbrmpa-zone-249","type":"Habitat Protection Zone","zone":"Dark Blue Zone","color":"#3f6fb0","name":"HP-19-5168","permit":"Hope Reef (19-046)","source":"GBRMPA"}},{"type":"Feature","geometry":{"type":"Polygon","coordinates":[[[148.677,-18.5245],[149.2382,-18.862],[149.7604,-19.1733],[149.4452,-19.2351],[149.1848,-19.2544],[149.0253,-19.2544],[148.9554,-19.3806],[148.8968,-19.3806],[148.84,-19.32],[148.84,-19.2699],[148.7404,-19.2699],[148.6816,-19.3292],[148.6202,-19.3596],[148.4852,-19.2588],[148.6436,-18.9235],[149.12,-19.1],[149.18,-19],[148.62,-18.76],[148.2154,-18.5469],[148.0911,-18.6991],[147.9141,-18.7258],[147.9141,-18.8401],[147.9972,-18.8401],[147.9972,-18.96],[147.96,-18.96],[147.9142,-18.8852],[147.8473,-18.8852],[147.8473,-18.8239],[147.704,-18.8239],[147.6312,-18.757],[147.68,-18.7],[147.7879,-18.6813],[147.7879,-18.416],[148.014,-18.1218],[148.677,-18.5245]],[[148.884,-19.208],[148.884,-19.24],[148.92,-19.24],[148.92,-19.188],[148.9,-19.188],[148.884,-19.208]]]},"properties":{"id":"gbrmpa-zone-349","type":"Marine National Park Zone","zone":"Green Zone","color":"#2fae5a","name":"MNP-18-1076","permit":"Townsville-Bowen Outer Shelf: including Lynchs (18-091), Saville-Kent (18-099), Judith Wright (18-101), the Anzac Reefs, Kangaroo (19-063), Tiger (19-054) and Leopard Reefs (19-050, 19-051), and areas adjacent to the boundary of the Marine Park","source":"GBRMPA"}}]}