{"type":"FeatureCollection","meta":{"tile":"t-20e146","built":"2026-08-25"},"features":[{"type":"Feature","geometry":{"type":"Polygon","coordinates":[[[147.8565,-19.727],[147.9,-19.7656],[147.9064,-19.8275],[147.858,-19.8275],[147.8511,-19.7877],[147.847,-19.7806],[147.8498,-19.7772],[147.8498,-19.768],[147.8525,-19.7692],[147.8508,-19.7669],[147.8529,-19.7645],[147.8511,-19.75],[147.8527,-19.7434],[147.845,-19.727],[147.8565,-19.727]]]},"properties":{"id":"gbrmpa-zone-284","type":"Marine National Park Zone","zone":"Green Zone","color":"#2fae5a","name":"MNP-19-1105","permit":"Cape Upstart","source":"GBRMPA"}},{"type":"Feature","geometry":{"type":"Polygon","coordinates":[[[146.3062,-18.1591],[146.3015,-18.1563],[146.3053,-18.1557],[146.3069,-18.1572],[146.3062,-18.1591]]]},"properties":{"id":"gbrmpa-zone-699","type":"Commonwealth Islands Zone (GBRMPA)","zone":"Commonwealth Island Zone","color":"#b0b8bd","name":"South Island (18008103)","permit":null,"source":"GBRMPA"}},{"type":"Feature","geometry":{"type":"Polygon","coordinates":[[[146.6272,-19.0224],[146.6276,-19.0227],[146.6266,-19.0228],[146.6272,-19.0224]]]},"properties":{"id":"gbrmpa-zone-742","type":"Commonwealth Islands Zone (Other)","zone":"Commonwealth Island","color":"#9aa7ad","name":"Bramble Rock (19001100)","permit":null,"source":"GBRMPA"}},{"type":"Feature","geometry":{"type":"Polygon","coordinates":[[[147.393,-19.388],[147.393,-19.4186],[147.3892,-19.4177],[147.3627,-19.419],[147.3603,-19.4207],[147.353,-19.4177],[147.3433,-19.4177],[147.3282,-19.4142],[147.3277,-19.4159],[147.3253,-19.4154],[147.3221,-19.412],[147.3183,-19.4106],[147.3186,-19.4089],[147.3048,-19.4085],[147.2923,-19.4125],[147.2851,-19.4212],[147.2786,-19.4236],[147.2675,-19.4244],[147.2614,-19.4278],[147.2614,-19.388],[147.393,-19.388]]]},"properties":{"id":"gbrmpa-zone-244","type":"Habitat Protection Zone","zone":"Dark Blue Zone","color":"#3f6fb0","name":"HP-19-5171","permit":"Bowling Green Bay","source":"GBRMPA"}},{"type":"Feature","geometry":{"type":"Polygon","coordinates":[[[147.0691,-19.2625],[147.0691,-19.282],[147.0451,-19.2818],[147.0437,-19.2786],[147.0506,-19.2732],[147.0586,-19.2773],[147.0616,-19.2773],[147.0575,-19.2592],[147.058,-19.2574],[147.0608,-19.257],[147.0601,-19.2551],[147.0691,-19.2551],[147.0691,-19.2625]],[[147.0627,-19.2723],[147.0627,-19.2732],[147.0637,-19.2732],[147.0627,-19.2723]]]},"properties":{"id":"gbrmpa-zone-252","type":"Scientific Research Zone (closed to public access)","zone":"Orange Zone","color":"#e0822e","name":"SR-19-2008","permit":"Australian Institute of Marine Science","source":"GBRMPA"}},{"type":"Feature","geometry":{"type":"Polygon","coordinates":[[[146.0775,-17.991],[146.1098,-17.9911],[146.1098,-18.0354],[146.1,-18.0328],[146.0499,-18.0328],[146.0513,-18.0303],[146.0547,-18.0302],[146.064,-18.0067],[146.0757,-17.9906],[146.0775,-17.991]]]},"properties":{"id":"gbrmpa-zone-295","type":"Habitat Protection Zone","zone":"Dark Blue Zone","color":"#3f6fb0","name":"HP-17-5142","permit":"Tully Heads coastal area","source":"GBRMPA"}},{"type":"Feature","geometry":{"type":"Polygon","coordinates":[[[147.3762,-19.3041],[147.378,-19.3034],[147.378,-19.3196],[147.3933,-19.3196],[147.3933,-19.3768],[147.448,-19.3769],[147.4544,-19.385],[147.4561,-19.3929],[147.4538,-19.404],[147.4493,-19.4125],[147.4453,-19.4153],[147.4424,-19.4206],[147.428,-19.4246],[147.4147,-19.4261],[147.4061,-19.425],[147.4051,-19.423],[147.393,-19.4186],[147.393,-19.388],[147.2614,-19.388],[147.2614,-19.2667],[147.378,-19.2667],[147.378,-19.302],[147.3762,-19.3041]]]},"properties":{"id":"gbrmpa-zone-753","type":"Marine National Park Zone","zone":"Green Zone","color":"#2fae5a","name":"MNP-19-1097","permit":"Bowling Green Bay","source":"GBRMPA"}},{"type":"Feature","geometry":{"type":"Polygon","coordinates":[[[146.3385,-18.6934],[146.3251,-18.6934],[146.3251,-18.6734],[146.3385,-18.6734],[146.3385,-18.6934]]]},"properties":{"id":"gbrmpa-zone-410","type":"Habitat Protection Zone","zone":"Dark Blue Zone","color":"#3f6fb0","name":"HP-18-5148","permit":"Lady Elliot Reef (18-050)","source":"GBRMPA"}},{"type":"Feature","geometry":{"type":"Polygon","coordinates":[[[147.908,-19.8437],[147.9805,-19.9239],[147.9718,-19.9245],[147.9644,-19.923],[147.9503,-19.9162],[147.9391,-19.9189],[147.9261,-19.9148],[147.913,-19.9035],[147.8976,-19.8833],[147.8854,-19.8783],[147.8851,-19.8763],[147.8783,-19.8711],[147.8657,-19.8527],[147.858,-19.8275],[147.9064,-19.8275],[147.908,-19.8437]],[[147.8981,-19.853],[147.9001,-19.8513],[147.9029,-19.8522],[147.9048,-19.8485],[147.8998,-19.8496],[147.8981,-19.853]]]},"properties":{"id":"gbrmpa-zone-275","type":"Habitat Protection Zone","zone":"Dark Blue Zone","color":"#3f6fb0","name":"HP-19-5179","permit":"Abbot Bay coastal area: Camp Island Reef (19-102)","source":"GBRMPA"}},{"type":"Feature","geometry":{"type":"Polygon","coordinates":[[[146.6172,-19.0293],[146.6196,-19.0289],[146.6211,-19.0324],[146.6153,-19.038],[146.6083,-19.0356],[146.6018,-19.0384],[146.5996,-19.0361],[146.597,-19.0358],[146.6002,-19.0302],[146.6083,-19.0313],[146.6126,-19.0294],[146.6138,-19.0259],[146.6172,-19.0293]]]},"properties":{"id":"gbrmpa-zone-690","type":"Commonwealth Islands Zone (Other)","zone":"Commonwealth Island","color":"#9aa7ad","name":"Rattlesnake Island (19003100)","permit":null,"source":"GBRMPA"}},{"type":"Feature","geometry":{"type":"Polygon","coordinates":[[[147.0491,-19.282],[147.0491,-19.2924],[147.0425,-19.2924],[147.0449,-19.2873],[147.0451,-19.2818],[147.0491,-19.282]]]},"properties":{"id":"gbrmpa-zone-250","type":"Conservation Park Zone","zone":"Yellow Zone","color":"#e8c23f","name":"CP-19-4060","permit":"Chunda Bay","source":"GBRMPA"}},{"type":"Feature","geometry":{"type":"Polygon","coordinates":[[[146.6422,-19.0164],[146.6483,-19.0347],[146.5955,-19.0454],[146.5828,-19.0375],[146.5828,-19.0312],[146.59,-19.0279],[146.6422,-19.0164]],[[146.6267,-19.0228],[146.6278,-19.0224],[146.6267,-19.0223],[146.6267,-19.0228]],[[146.6323,-19.0258],[146.6284,-19.0336],[146.6405,-19.0336],[146.6427,-19.0324],[146.6357,-19.0294],[146.636,-19.0257],[146.6342,-19.0231],[146.6318,-19.0232],[146.6323,-19.0258]],[[146.6199,-19.0338],[146.6211,-19.0324],[146.6196,-19.0289],[146.6172,-19.0293],[146.6138,-19.0259],[146.6126,-19.0294],[146.6083,-19.0313],[146.5992,-19.0306],[146.597,-19.0358],[146.5996,-19.0361],[146.6018,-19.0384],[146.6083,-19.0356],[146.6153,-19.038],[146.6199,-19.0338]]]},"properties":{"id":"gbrmpa-zone-310","type":"Habitat Protection Zone","zone":"Dark Blue Zone","color":"#3f6fb0","name":"HP-19-5158","permit":"Bramble Rock (19-001), Herald Island Reef (19-002), Rattlesnake Island Reef (19-003) and Lorne Reef (19-004)","source":"GBRMPA"}},{"type":"Feature","geometry":{"type":"Polygon","coordinates":[[[146.0059,-16.1186],[146.1743,-16.3771],[146.1743,-16.5164],[146.259,-16.6253],[146.3529,-16.6253],[146.389,-16.6727],[146.2366,-16.6727],[146.2366,-16.78],[146.16,-16.78],[146.1599,-16.9201],[146.1103,-16.9679],[146.0124,-16.9679],[146.0124,-17.0327],[146.0903,-17.1601],[146.2677,-17.1601],[146.2675,-17.2137],[146.1277,-17.2137],[146.1277,-17.2866],[146.2207,-17.4],[146.3407,-17.4],[146.3407,-17.5397],[146.3606,-17.5595],[146.387,-17.5776],[146.3974,-17.6113],[146.3837,-17.6463],[146.3685,-17.6511],[146.3685,-17.6696],[146.3798,-17.6818],[146.3661,-17.7236],[146.3661,-17.7448],[146.3995,-17.7608],[146.434,-17.822],[146.457,-17.87],[146.5188,-17.9204],[146.6187,-17.9204],[146.6381,-17.9004],[146.6381,-17.8811],[146.6806,-17.8811],[146.72,-17.9467],[146.72,-18.18],[146.6266,-18.2156],[146.6266,-18.2333],[146.64,-18.26],[146.66,-18.28],[146.7,-18.28],[146.7,-18.3633],[146.6818,-18.3633],[146.6558,-18.375],[146.6558,-18.3918],[146.6694,-18.423],[146.6867,-18.4381],[146.7276,-18.4554],[146.7445,-18.4554],[146.7788,-18.42],[146.8431,-18.42],[146.9,-18.385],[146.971,-18.385],[146.971,-18.4645],[146.9865,-18.4864],[147.0194,-18.54],[147.1396,-18.58],[147.2466,-18.5641],[147.2466,-18.4853],[147.35,-18.4853],[147.3722,-18.5412],[147.3722,-18.6426],[147.5,-18.74],[147.5,-18.8268],[147.5931,-18.8268],[147.6708,-18.9042],[147.6708,-18.9658],[147.6925,-18.9903],[147.7251,-18.9903],[147.8201,-18.9531],[147.8201,-18.92],[147.7236,-18.8239],[147.8473,-18.8239],[147.8473,-18.8852],[147.86,-18.92],[147.9,-18.96],[147.96,-18.96],[148.0001,-19],[148.0562,-19],[148.0562,-19.0999],[148.08,-19.0999],[148.08,-19.2],[147.7994,-19.2],[147.7994,-19.3453],[147.845,-19.3453],[147.845,-19.371],[147.8746,-19.371],[147.8746,-19.3873],[147.9793,-19.4396],[148.1504,-19.4396],[148.1504,-19.25],[148.27,-19.25],[148.4858,-19.2583],[148.6202,-19.3596],[148.6303,-19.4502],[148.7301,-19.54],[148.8701,-19.55],[148.92,-19.55],[148.92,-19.5878],[149.1328,-19.5878],[149.21,-19.62],[149.14,-19.72],[149.14,-19.732],[149.0563,-19.7813],[149.0561,-19.8294],[148.8575,-19.8294],[148.8575,-19.6747],[148.7503,-19.6202],[148.5013,-19.6202],[148.5013,-19.9248],[148.55,-19.9474],[148.55,-20],[148.57,-20],[148.625,-20.0541],[148.8401,-20.0541],[148.8401,-20.1],[148.76,-20.22],[148.7531,-20.22],[148.7531,-20.2349],[148.7513,-20.2441],[148.7533,-20.2579],[148.7527,-20.2614],[148.7516,-20.2606],[148.753,-20.2623],[148.7517,-20.2613],[148.7501,-20.2628],[148.7475,-20.2624],[148.7409,-20.2587],[148.7399,-20.253],[148.7339,-20.2535],[148.6803,-20.231],[148.6713,-20.2381],[148.6706,-20.2441],[148.6683,-20.2471],[148.6633,-20.2473],[148.6627,-20.2375],[148.6679,-20.2353],[148.6681,-20.2317],[148.6614,-20.2213],[148.6605,-20.217],[148.6634,-20.2136],[148.6657,-20.2037],[148.6725,-20.1952],[148.6767,-20.1931],[148.6781,-20.187],[148.6769,-20.1757],[148.6736,-20.1817],[148.6764,-20.1851],[148.6765,-20.1882],[148.673,-20.1917],[148.6677,-20.1935],[148.6664,-20.1994],[148.6606,-20.2014],[148.6612,-20.2068],[148.6531,-20.2166],[148.6478,-20.2156],[148.6449,-20.2125],[148.6481,-20.2026],[148.6459,-20.195],[148.6461,-20.1739],[148.6386,-20.1706],[148.6359,-20.1734],[148.6335,-20.1826],[148.6302,-20.1856],[148.628,-20.1905],[148.6293,-20.2001],[148.6338,-20.2099],[148.6336,-20.2162],[148.63,-20.2198],[148.6258,-20.2194],[148.624,-20.2166],[148.6202,-20.2155],[148.6182,-20.2162],[148.6161,-20.2208],[148.6141,-20.221],[148.6116,-20.2162],[148.6047,-20.2137],[148.6015,-20.2105],[148.6044,-20.2066],[148.6037,-20.2024],[148.6131,-20.194],[148.6201,-20.1771],[148.6131,-20.1829],[148.6083,-20.184],[148.5976,-20.2011],[148.5898,-20.1993],[148.5854,-20.1958],[148.5823,-20.1965],[148.5817,-20.1902],[148.5835,-20.1809],[148.5868,-20.1774],[148.5931,-20.1757],[148.5977,-20.1678],[148.5951,-20.16],[148.6201,-20.16],[148.6201,-20.12],[148.6001,-20.12],[148.5918,-20.1529],[148.5797,-20.1275],[148.5674,-20.1133],[148.58,-20.1133],[148.5801,-20.0899],[148.5656,-20.09],[148.5601,-20.1062],[148.555,-20.1061],[148.5535,-20.1027],[148.5567,-20.0994],[148.5532,-20.0943],[148.5594,-20.091],[148.5611,-20.0885],[148.5607,-20.085],[148.5662,-20.0818],[148.5641,-20.0777],[148.5661,-20.0757],[148.5613,-20.0709],[148.5636,-20.067],[148.5563,-20.0659],[148.5535,-20.0691],[148.5563,-20.072],[148.556,-20.0737],[148.5467,-20.0731],[148.5454,-20.0753],[148.5406,-20.0763],[148.5398,-20.0788],[148.5369,-20.0788],[148.5302,-20.0847],[148.5146,-20.0768],[148.4832,-20.0458],[148.4832,-19.9958],[148.4665,-19.9791],[148.4665,-19.9666],[148.4457,-19.9666],[148.4331,-19.9791],[148.4331,-20.025],[148.4373,-20.0458],[148.4539,-20.0558],[148.4539,-20.0603],[148.3277,-20.0735],[148.3077,-20.0418],[148.3077,-20.0118],[148.2746,-20.0118],[148.2728,-20.006],[148.2659,-20.0002],[148.2661,-19.9943],[148.2681,-19.9924],[148.2663,-19.9901],[148.2679,-19.9885],[148.2671,-19.9846],[148.2645,-19.9838],[148.2602,-19.9745],[148.257,-19.9851],[148.241,-19.9848],[148.2323,-19.9769],[148.2266,-19.9658],[148.2216,-19.9641],[148.2233,-19.9594],[148.2213,-19.957],[148.2079,-19.9503],[148.2062,-19.9515],[148.1992,-19.9475],[148.1938,-19.949],[148.1963,-19.9501],[148.1939,-19.9516],[148.1912,-19.9494],[148.1789,-19.9469],[148.1731,-19.9504],[148.173,-19.9485],[148.1699,-19.9478],[148.1708,-19.9499],[148.1692,-19.9515],[148.1637,-19.95],[148.1631,-19.9484],[148.1492,-19.9452],[148.1458,-19.9452],[148.142,-19.9475],[148.141,-19.9448],[148.1364,-19.9465],[148.1254,-19.9428],[148.1206,-19.9423],[148.1203,-19.9447],[148.1077,-19.9385],[148.1077,-19.8452],[148.036,-19.8452],[148.036,-19.8913],[148.0265,-19.8937],[148.0198,-19.8994],[148.0181,-19.9019],[148.0174,-19.912],[148.0059,-19.9183],[148.0079,-19.9188],[148.0038,-19.92],[148.0053,-19.9204],[148.0011,-19.9241],[147.9961,-19.9265],[147.9939,-19.9251],[147.987,-19.9266],[147.9805,-19.9239],[147.908,-19.8437],[147.9,-19.7656],[147.8234,-19.6974],[147.7391,-19.6974],[147.7391,-19.7516],[147.5995,-19.7516],[147.5942,-19.7328],[147.5874,-19.7252],[147.5921,-19.7137],[147.5964,-19.7116],[147.5965,-19.7036],[147.6042,-19.6913],[147.6053,-19.6701],[147.6071,-19.6685],[147.6072,-19.6625],[147.598,-19.6486],[147.594,-19.6491],[147.5907,-19.6464],[147.5872,-19.6459],[147.5865,-19.6396],[147.5848,-19.64],[147.5826,-19.6369],[147.5738,-19.6323],[147.5729,-19.6287],[147.5751,-19.6272],[147.5772,-19.6279],[147.5791,-19.6235],[147.5764,-19.6097],[147.572,-19.6055],[147.572,-19.5976],[147.5738,-19.596],[147.5717,-19.5816],[147.5648,-19.5613],[147.551,-19.5334],[147.5457,-19.5261],[147.5445,-19.5265],[147.546,-19.5278],[147.5453,-19.5291],[147.5396,-19.5312],[147.5374,-19.526],[147.5299,-19.5167],[147.5289,-19.5128],[147.5185,-19.4987],[147.5174,-19.4911],[147.5142,-19.492],[147.5073,-19.4756],[147.4953,-19.4627],[147.4931,-19.4627],[147.4943,-19.4642],[147.4932,-19.4656],[147.4894,-19.467],[147.4877,-19.4658],[147.4803,-19.4491],[147.4804,-19.4478],[147.5215,-19.4478],[147.4724,-19.3646],[147.4121,-19.3],[147.378,-19.3],[147.378,-19.2667],[147.2614,-19.2667],[147.2614,-19.388],[147.1135,-19.388],[147.1081,-19.3804],[147.0868,-19.3642],[147.0726,-19.349],[147.0706,-19.3486],[147.0706,-19.3507],[147.0673,-19.3475],[147.0648,-19.3424],[147.0661,-19.34],[147.0498,-19.3067],[147.0455,-19.305],[147.0434,-19.3022],[147.0409,-19.302],[147.0403,-19.2929],[147.0491,-19.2924],[147.0491,-19.282],[147.0691,-19.282],[147.0691,-19.2625],[147.0772,-19.2625],[147.0772,-19.2526],[147.0691,-19.2526],[147.0761,-19.168],[147.012,-19.18],[146.8631,-19.2909],[146.8578,-19.2829],[147.001,-19.1267],[146.8943,-19.1266],[146.8873,-19.1125],[146.8873,-19.1001],[146.833,-19.1001],[146.833,-19.1048],[146.8023,-19.1155],[146.7975,-19.1137],[146.7914,-19.1159],[146.7897,-19.1151],[146.7872,-19.1217],[146.7813,-19.1237],[146.779,-19.1287],[146.7798,-19.1306],[146.6469,-19.1762],[146.6322,-19.1722],[146.6167,-19.1641],[146.6024,-19.1505],[146.6002,-19.1515],[146.5944,-19.1472],[146.5812,-19.145],[146.5708,-19.1461],[146.5631,-19.144],[146.5525,-19.1346],[146.545,-19.1213],[146.5333,-19.1157],[146.5167,-19.1008],[146.5142,-19.0998],[146.5126,-19.1017],[146.5056,-19.0988],[146.5012,-19.0998],[146.4961,-19.0986],[146.4909,-19.096],[146.481,-19.0865],[146.4774,-19.0804],[146.4708,-19.0756],[146.4551,-19.074],[146.4495,-19.0685],[146.4506,-19.0638],[146.4486,-19.0613],[146.4434,-19.0612],[146.4381,-19.0548],[146.4284,-19.0413],[146.4265,-19.0363],[146.4226,-19.0336],[146.4074,-19.0111],[146.4048,-19.0078],[146.4018,-19.0067],[146.4007,-19.0031],[146.3961,-18.9981],[146.3896,-18.9974],[146.3878,-18.9994],[146.3826,-18.9993],[146.3758,-18.9939],[146.3715,-18.9882],[146.3633,-18.9676],[146.3609,-18.9672],[146.3602,-18.9647],[146.3582,-18.9644],[146.3545,-18.9597],[146.3441,-18.9593],[146.3337,-18.9537],[146.3301,-18.9383],[146.3222,-18.9277],[146.3216,-18.9241],[146.3163,-18.9172],[146.3115,-18.9152],[146.305,-18.9066],[146.2995,-18.903],[146.2888,-18.8888],[146.2872,-18.8886],[146.285,-18.8833],[146.2846,-18.8743],[146.3626,-18.8743],[146.3626,-18.9281],[146.473,-18.9281],[146.473,-18.8519],[146.4468,-18.8519],[146.4468,-18.7495],[146.2878,-18.7495],[146.2889,-18.742],[146.2905,-18.7416],[146.2924,-18.7377],[146.3028,-18.7005],[146.3217,-18.6593],[146.3359,-18.6341],[146.337,-18.6272],[146.3323,-18.6207],[146.3357,-18.6161],[146.338,-18.6092],[146.3382,-18.6065],[146.3362,-18.604],[146.3368,-18.5957],[146.3408,-18.5785],[146.3896,-18.5785],[146.3928,-18.5639],[146.3924,-18.5474],[146.3944,-18.5358],[146.3935,-18.5178],[146.3914,-18.5102],[146.3846,-18.4985],[146.3363,-18.5129],[146.3296,-18.496],[146.3401,-18.496],[146.3401,-18.456],[146.3441,-18.444],[146.3681,-18.4312],[146.3681,-18.343],[146.3111,-18.343],[146.2931,-18.3175],[146.3007,-18.288],[146.3243,-18.2465],[146.331,-18.2399],[146.331,-18.216],[146.3767,-18.216],[146.3767,-18.127],[146.2306,-18.127],[146.1638,-18.1418],[146.013,-18.2132],[146.0098,-18.1883],[146.0073,-18.1806],[146.0075,-18.1624],[146.0092,-18.16],[146.006,-18.1409],[146.0063,-18.1276],[146.0099,-18.1164],[146.0209,-18.0976],[146.0255,-18.0925],[146.0261,-18.0857],[146.03,-18.0831],[146.0379,-18.0488],[146.0417,-18.0408],[146.0499,-18.0328],[146.1,-18.0328],[146.1913,-18.0571],[146.1913,-18.066],[146.2217,-18.066],[146.2217,-17.9922],[146.1994,-17.9922],[146.1702,-17.91],[146.1703,-17.7987],[146.1902,-17.7199],[146.1927,-17.6502],[146.171,-17.5818],[146.1183,-17.5818],[146.1026,-17.5702],[146.0793,-17.537],[146.079,-17.5307],[146.0698,-17.5232],[146.0696,-17.5118],[146.0774,-17.506],[146.0774,-17.4801],[146.0764,-17.477],[146.0733,-17.477],[146.0705,-17.4742],[146.0647,-17.461],[146.0639,-17.4547],[146.0658,-17.4348],[146.0697,-17.4186],[146.0914,-17.4186],[146.0914,-17.4009],[146.0724,-17.4009],[146.0724,-17.3945],[146.069,-17.392],[146.0672,-17.3878],[146.0611,-17.3845],[146.0556,-17.3874],[146.0513,-17.3854],[146.0431,-17.3753],[146.0358,-17.3607],[146.0196,-17.3456],[146.0056,-17.3147],[146.0008,-17.2916],[145.9987,-17.2894],[145.9968,-17.2819],[145.9962,-17.2742],[145.9832,-17.2497],[145.9794,-17.2473],[145.976,-17.2487],[145.9762,-17.2202],[145.9697,-17.2185],[145.97,-17.212],[145.9629,-17.1957],[145.9615,-17.1803],[145.9653,-17.1707],[145.9634,-17.1685],[145.9863,-17.1684],[145.9863,-17.1309],[145.9747,-17.1186],[145.9299,-17.1176],[145.9222,-17.1068],[145.9164,-17.0873],[145.9131,-17.0864],[145.9087,-17.0822],[145.9017,-17.0744],[145.8969,-17.0659],[145.8926,-17.0643],[145.891,-17.0599],[145.8905,-17.0377],[145.8963,-17.0149],[145.8996,-17.0078],[145.9063,-17.0078],[145.9632,-16.905],[145.9633,-16.8944],[145.929,-16.86],[145.915,-16.8601],[145.8494,-16.8702],[145.8493,-16.8185],[145.6941,-16.7753],[145.694,-16.74],[145.7,-16.734],[145.7,-16.722],[145.6273,-16.7048],[145.6212,-16.6992],[145.604,-16.6938],[145.5972,-16.6938],[145.5904,-16.6888],[145.582,-16.6872],[145.5737,-16.6705],[145.5709,-16.6595],[145.6176,-16.6595],[145.6176,-16.6371],[145.562,-16.566],[145.532,-16.5],[145.5321,-16.4583],[145.466,-16.4583],[145.461,-16.3509],[145.461,-16.3189],[145.5187,-16.3189],[145.5187,-16.2964],[145.4908,-16.274],[145.4908,-16.2374],[145.476,-16.2225],[145.476,-16.21],[145.461,-16.197],[145.454,-16.197],[145.454,-16.167],[145.461,-16.138],[145.481,-16.0809],[145.5595,-16.0809],[145.5595,-16.3392],[145.5423,-16.3392],[145.5423,-16.4142],[145.5791,-16.4533],[145.6802,-16.4532],[145.7235,-16.48],[145.84,-16.48],[145.86,-16.46],[145.86,-16.42],[145.9504,-16.3296],[145.9261,-16.3102],[145.9261,-16.1847],[145.8871,-16.164],[145.88,-16.1542],[145.88,-16.08],[145.9808,-16.08],[146.0059,-16.1186]],[[146.4751,-18.5611],[146.4751,-18.655],[146.4831,-18.673],[146.4915,-18.673],[146.4915,-18.6833],[146.505,-18.75],[146.505,-18.7916],[146.56,-18.7916],[146.56,-18.83],[146.5336,-18.82],[146.5183,-18.82],[146.5183,-18.8441],[146.53,-18.85],[146.54,-18.86],[146.56,-18.86],[146.56,-18.9017],[146.7268,-18.9017],[146.7268,-18.9504],[146.9951,-18.9504],[146.9951,-18.8297],[146.5511,-18.5333],[146.475,-18.5333],[146.4751,-18.5611]],[[145.965,-16.4512],[145.965,-16.5344],[145.94,-16.5344],[145.94,-16.56],[145.9,-16.64],[145.92,-16.7],[145.9373,-16.7],[145.9373,-16.7401],[145.961,-16.7761],[146,-16.8101],[146.04,-16.8101],[146.04,-16.7801],[146.0749,-16.7801],[146.1271,-16.7359],[146.1877,-16.6139],[146.0707,-16.3899],[146.021,-16.3899],[146.021,-16.4],[145.965,-16.4],[145.965,-16.4512]],[[147.5111,-19.2149],[147.5111,-19.3223],[147.6329,-19.3223],[147.6329,-19.4508],[147.7064,-19.4508],[147.7064,-19.2149],[147.5111,-19.2149]],[[146.56,-17.981],[146.5048,-18.034],[146.4894,-18.0642],[146.4894,-18.1106],[146.5041,-18.1244],[146.5269,-18.1286],[146.5764,-18.1041],[146.6393,-18.0422],[146.6393,-17.9598],[146.58,-17.9598],[146.58,-17.981],[146.56,-17.981]],[[147.0201,-18.65],[147.0401,-18.66],[147.0601,-18.66],[147.0901,-18.65],[147.0901,-18.61],[147.0201,-18.61],[147.0201,-18.65]],[[147.9165,-19.0083],[147.9165,-19.05],[147.9291,-19.0625],[147.954,-19.0625],[147.954,-19.025],[147.9373,-19.0083],[147.9165,-19.0083]],[[147.2732,-18.6108],[147.2732,-18.646],[147.3153,-18.646],[147.3153,-18.6108],[147.2732,-18.6108]],[[145.977,-16.929],[145.9854,-16.95],[146.02,-16.95],[146.02,-16.91],[145.996,-16.91],[145.977,-16.929]],[[147.08,-18.7],[147.0867,-18.7066],[147.1134,-18.7066],[147.1267,-18.7],[147.1267,-18.68],[147.1134,-18.6733],[147.1001,-18.6733],[147.08,-18.6867],[147.08,-18.7]],[[146.066,-17.2],[146.066,-17.238],[146.1,-17.238],[146.1,-17.2],[146.066,-17.2]],[[147.2481,-18.7551],[147.2636,-18.7659],[147.2757,-18.7659],[147.2997,-18.7423],[147.2762,-18.7259],[147.2481,-18.7465],[147.2481,-18.7551]],[[145.98,-16.31],[146,-16.33],[146.02,-16.31],[146.02,-16.29],[145.99,-16.29],[145.98,-16.3],[145.98,-16.31]],[[146.6483,-19.0347],[146.6422,-19.0164],[146.59,-19.0279],[146.5828,-19.0312],[146.5828,-19.0375],[146.5955,-19.0454],[146.6483,-19.0347]],[[148.6361,-20.087],[148.6361,-20.118],[148.6691,-20.118],[148.6691,-20.087],[148.6361,-20.087]],[[145.9997,-17.1655],[146.0113,-17.1759],[146.0239,-17.1759],[146.0239,-17.1304],[145.9997,-17.1304],[145.9997,-17.1655]],[[148.4501,-19.34],[148.4501,-19.3057],[148.4307,-19.3057],[148.42,-19.3154],[148.42,-19.34],[148.4501,-19.34]],[[146.8657,-18.4956],[146.8901,-18.4957],[146.89,-18.47],[146.8818,-18.4617],[146.86,-18.4687],[146.86,-18.49],[146.8657,-18.4956]],[[146.4601,-18.1],[146.4601,-18.07],[146.43,-18.07],[146.43,-18.09],[146.44,-18.1],[146.4601,-18.1]],[[148.3501,-19.38],[148.3501,-19.35],[148.3301,-19.35],[148.32,-19.3642],[148.32,-19.38],[148.3501,-19.38]],[[148.36,-19.2943],[148.36,-19.2648],[148.3376,-19.2648],[148.33,-19.28],[148.33,-19.2943],[148.36,-19.2943]],[[148.3396,-19.7182],[148.3396,-19.7421],[148.3718,-19.7421],[148.3718,-19.7182],[148.3396,-19.7182]],[[146.6267,-18.9534],[146.62,-18.96],[146.614,-18.9721],[146.614,-18.9821],[146.6241,-18.9821],[146.6467,-18.9734],[146.6467,-18.9534],[146.6267,-18.9534]],[[147.6222,-19.1498],[147.6243,-19.1533],[147.6446,-19.1533],[147.6446,-19.1282],[147.6151,-19.1282],[147.6151,-19.1379],[147.6222,-19.1498]],[[146.5467,-19.0867],[146.5467,-19.1],[146.5734,-19.1133],[146.5801,-19.1],[146.5601,-19.0867],[146.5467,-19.0867]],[[146.6734,-18.9867],[146.6734,-19.0067],[146.7001,-19.0067],[146.7001,-18.9933],[146.6934,-18.9867],[146.6734,-18.9867]],[[148.7021,-20.106],[148.7021,-20.119],[148.711,-20.119],[148.7291,-20.105],[148.7291,-20.096],[148.7151,-20.096],[148.7021,-20.106]],[[148.528,-20.062],[148.528,-20.074],[148.5401,-20.074],[148.5501,-20.064],[148.5501,-20.052],[148.538,-20.052],[148.528,-20.062]],[[148.3528,-19.764],[148.3528,-19.7799],[148.3767,-19.7799],[148.3767,-19.764],[148.3528,-19.764]],[[148.7067,-20.1733],[148.7001,-20.18],[148.7001,-20.1933],[148.7134,-20.1933],[148.7201,-20.1867],[148.7201,-20.1733],[148.7067,-20.1733]],[[148.356,-19.976],[148.356,-19.992],[148.3761,-19.992],[148.3761,-19.976],[148.356,-19.976]],[[148.6001,-20.0867],[148.6001,-20.1067],[148.6157,-20.1068],[148.6157,-20.0867],[148.6001,-20.0867]],[[146.3385,-18.6934],[146.3385,-18.6734],[146.3251,-18.6734],[146.3251,-18.6934],[146.3385,-18.6934]],[[146.3537,-18.9448],[146.3537,-18.9284],[146.3382,-18.9284],[146.3382,-18.9448],[146.3537,-18.9448]],[[145.8688,-16.5557],[145.8688,-16.5404],[145.8533,-16.5404],[145.8533,-16.5557],[145.8688,-16.5557]],[[146.752,-19.114],[146.752,-19.124],[146.7601,-19.124],[146.7601,-19.114],[146.752,-19.114]],[[147.8791,-19.4413],[147.8791,-19.4513],[147.8871,-19.4513],[147.8871,-19.4413],[147.8791,-19.4413]],[[146.7061,-19.124],[146.7061,-19.134],[146.7141,-19.134],[146.7141,-19.124],[146.7061,-19.124]],[[146.1123,-17.475],[146.1123,-17.4833],[146.1206,-17.4833],[146.1206,-17.475],[146.1123,-17.475]],[[146.1581,-17.5666],[146.1581,-17.5749],[146.1664,-17.5749],[146.1664,-17.5666],[146.1581,-17.5666]],[[147.9863,-19.9245],[147.993,-19.9221],[147.9894,-19.9217],[147.9863,-19.9245]],[[148.0003,-19.9223],[147.9977,-19.9234],[148.0015,-19.9229],[148.0003,-19.9223]],[[147.5946,-19.6459],[147.5963,-19.6481],[147.5966,-19.647],[147.5946,-19.6459]],[[147.9967,-19.9231],[147.9991,-19.9224],[147.9983,-19.9222],[147.9967,-19.9231]]]},"properties":{"id":"gbrmpa-zone-419","type":"General Use Zone","zone":"Light Blue Zone","color":"#7fc3dd","name":"GU-16-6004","permit":null,"source":"GBRMPA"}},{"type":"Feature","geometry":{"type":"Polygon","coordinates":[[[147.0691,-19.2625],[147.0691,-19.2526],[147.0772,-19.2526],[147.0772,-19.2625],[147.0691,-19.2625]]]},"properties":{"id":"gbrmpa-zone-253","type":"Habitat Protection Zone","zone":"Dark Blue Zone","color":"#3f6fb0","name":"HP-19-5166","permit":"Bare Islet Reef (19-017)","source":"GBRMPA"}},{"type":"Feature","geometry":{"type":"Polygon","coordinates":[[[148.09,-19.4396],[147.9793,-19.4396],[147.9793,-19.3166],[148.0332,-19.3166],[148.1504,-19.3689],[148.1504,-19.4396],[148.09,-19.4396]]]},"properties":{"id":"gbrmpa-zone-247","type":"Conservation Park Zone","zone":"Yellow Zone","color":"#e8c23f","name":"CP-19-4062","permit":"Old Reef (19-048)","source":"GBRMPA"}},{"type":"Feature","geometry":{"type":"Polygon","coordinates":[[[146.7924,-18.0121],[146.7472,-18.0121],[146.7472,-17.9785],[146.7924,-17.9785],[146.7924,-18.0121]]]},"properties":{"id":"gbrmpa-zone-296","type":"Preservation Zone","zone":"Pink Zone","color":"#e58fb0","name":"P-17-16","permit":"Unnamed reef 17-069","source":"GBRMPA"}},{"type":"Feature","geometry":{"type":"Polygon","coordinates":[[[147.8234,-19.6974],[147.8565,-19.727],[147.845,-19.727],[147.8428,-19.7306],[147.8364,-19.7264],[147.8336,-19.7185],[147.8233,-19.7096],[147.8192,-19.7087],[147.8155,-19.7105],[147.8074,-19.7082],[147.7904,-19.7111],[147.7865,-19.7108],[147.7839,-19.7084],[147.7778,-19.7111],[147.7755,-19.7081],[147.7668,-19.7055],[147.7563,-19.7074],[147.7552,-19.7058],[147.7526,-19.7067],[147.7561,-19.7121],[147.7611,-19.7276],[147.7559,-19.7366],[147.7566,-19.7391],[147.7532,-19.7425],[147.7547,-19.7444],[147.7501,-19.7498],[147.7492,-19.7553],[147.7465,-19.7551],[147.7478,-19.7565],[147.7455,-19.7655],[147.7471,-19.7667],[147.7453,-19.7693],[147.7484,-19.7731],[147.751,-19.7737],[147.75,-19.774],[147.7537,-19.7784],[147.7564,-19.7788],[147.7641,-19.7855],[147.7644,-19.7841],[147.7693,-19.8066],[147.7693,-19.8079],[147.7658,-19.8094],[147.7701,-19.8107],[147.7681,-19.8157],[147.7665,-19.8162],[147.772,-19.8263],[147.7391,-19.8263],[147.7391,-19.6974],[147.8234,-19.6974]]]},"properties":{"id":"gbrmpa-zone-288","type":"Conservation Park Zone","zone":"Yellow Zone","color":"#e8c23f","name":"CP-19-4064","permit":"Cape Upstart","source":"GBRMPA"}},{"type":"Feature","geometry":{"type":"Polygon","coordinates":[[[147.9291,-19.0625],[147.9165,-19.05],[147.9165,-19.0083],[147.9373,-19.0083],[147.954,-19.025],[147.954,-19.0625],[147.9291,-19.0625]]]},"properties":{"id":"gbrmpa-zone-311","type":"Habitat Protection Zone","zone":"Dark Blue Zone","color":"#3f6fb0","name":"HP-19-5157","permit":"Bowden Reef (19-019)","source":"GBRMPA"}},{"type":"Feature","geometry":{"type":"Polygon","coordinates":[[[147.1134,-18.7066],[147.0867,-18.7066],[147.08,-18.7],[147.08,-18.6867],[147.1001,-18.6733],[147.1134,-18.6733],[147.1267,-18.68],[147.1267,-18.7],[147.1134,-18.7066]]]},"properties":{"id":"gbrmpa-zone-411","type":"Habitat Protection Zone","zone":"Dark Blue Zone","color":"#3f6fb0","name":"HP-18-5147","permit":"Lodestone Reef (18-078)","source":"GBRMPA"}},{"type":"Feature","geometry":{"type":"Polygon","coordinates":[[[146.8816,-19.1207],[146.8831,-19.1215],[146.8836,-19.1262],[146.878,-19.1232],[146.8791,-19.1212],[146.8816,-19.1207]]]},"properties":{"id":"gbrmpa-zone-265","type":"Marine National Park Zone","zone":"Green Zone","color":"#2fae5a","name":"MNP-19-1092","permit":"Magnetic Island - Florence Bay","source":"GBRMPA"}},{"type":"Feature","geometry":{"type":"Polygon","coordinates":[[[147.6329,-19.4508],[147.6329,-19.3223],[147.5111,-19.3223],[147.5111,-19.2149],[147.7064,-19.2149],[147.7064,-19.4508],[147.6329,-19.4508]]]},"properties":{"id":"gbrmpa-zone-254","type":"Marine National Park Zone","zone":"Green Zone","color":"#2fae5a","name":"MNP-19-1096","permit":"Yongala Shipwreck","source":"GBRMPA"}},{"type":"Feature","geometry":{"type":"Polygon","coordinates":[[[146.6835,-18.997],[146.6837,-18.9958],[146.6845,-18.9959],[146.6835,-18.997]]]},"properties":{"id":"gbrmpa-zone-740","type":"Commonwealth Islands Zone (Other)","zone":"Commonwealth Island","color":"#9aa7ad","name":"Cordelia Rocks (West) (18068101)","permit":null,"source":"GBRMPA"}},{"type":"Feature","geometry":{"type":"Polygon","coordinates":[[[147.8871,-19.4513],[147.8791,-19.4513],[147.8791,-19.4413],[147.8871,-19.4413],[147.8871,-19.4513]]]},"properties":{"id":"gbrmpa-zone-294","type":"Habitat Protection Zone","zone":"Dark Blue Zone","color":"#3f6fb0","name":"HP-19-5172","permit":"Pakhoi Bank (19-023)","source":"GBRMPA"}},{"type":"Feature","geometry":{"type":"Polygon","coordinates":[[[146.6423,-18.9615],[146.6428,-18.9631],[146.6409,-18.9642],[146.6361,-18.9648],[146.6322,-18.9634],[146.6405,-18.9601],[146.6423,-18.9615]]]},"properties":{"id":"gbrmpa-zone-601","type":"Commonwealth Islands Zone (Other)","zone":"Commonwealth Island","color":"#9aa7ad","name":"Acheron Island (18066100)","permit":null,"source":"GBRMPA"}},{"type":"Feature","geometry":{"type":"Polygon","coordinates":[[[146.6377,-19.0306],[146.6422,-19.0315],[146.6405,-19.0336],[146.6284,-19.0336],[146.6296,-19.0298],[146.6327,-19.0271],[146.6322,-19.0229],[146.6357,-19.0245],[146.6352,-19.0285],[146.6377,-19.0306]]]},"properties":{"id":"gbrmpa-zone-675","type":"Commonwealth Islands Zone (Other)","zone":"Commonwealth Island","color":"#9aa7ad","name":"Herald Island (19002100)","permit":null,"source":"GBRMPA"}},{"type":"Feature","geometry":{"type":"Polygon","coordinates":[[[147.8746,-19.371],[147.845,-19.371],[147.845,-19.3453],[147.8746,-19.3453],[147.8746,-19.371]]]},"properties":{"id":"gbrmpa-zone-246","type":"Habitat Protection Zone","zone":"Dark Blue Zone","color":"#3f6fb0","name":"HP-19-5169","permit":"Tink Shoal (19-021)","source":"GBRMPA"}},{"type":"Feature","geometry":{"type":"Polygon","coordinates":[[[146.6863,-18.9958],[146.6857,-18.9954],[146.6864,-18.9955],[146.6863,-18.9958]]]},"properties":{"id":"gbrmpa-zone-741","type":"Commonwealth Islands Zone (Other)","zone":"Commonwealth Island","color":"#9aa7ad","name":"Cordelia Rocks (East) (18068102)","permit":null,"source":"GBRMPA"}},{"type":"Feature","geometry":{"type":"Polygon","coordinates":[[[147.2614,-19.388],[147.2614,-19.4278],[147.2542,-19.4331],[147.2428,-19.4312],[147.2345,-19.4202],[147.2318,-19.42],[147.2311,-19.4185],[147.2206,-19.4203],[147.2151,-19.4232],[147.2113,-19.423],[147.2098,-19.4214],[147.2015,-19.4204],[147.1972,-19.4156],[147.196,-19.4162],[147.1852,-19.4111],[147.1762,-19.4105],[147.1701,-19.4128],[147.1628,-19.4075],[147.1621,-19.4053],[147.1512,-19.4079],[147.1433,-19.4061],[147.1351,-19.407],[147.1133,-19.3884],[147.2614,-19.388]]]},"properties":{"id":"gbrmpa-zone-243","type":"Conservation Park Zone","zone":"Yellow Zone","color":"#e8c23f","name":"CP-19-4063","permit":"Bowling Green Bay - west","source":"GBRMPA"}},{"type":"Feature","geometry":{"type":"Polygon","coordinates":[[[148.677,-18.5245],[149.2382,-18.862],[149.7604,-19.1733],[149.4452,-19.2351],[149.1848,-19.2544],[149.0253,-19.2544],[148.9554,-19.3806],[148.8968,-19.3806],[148.84,-19.32],[148.84,-19.2699],[148.7404,-19.2699],[148.6816,-19.3292],[148.6202,-19.3596],[148.4852,-19.2588],[148.6436,-18.9235],[149.12,-19.1],[149.18,-19],[148.62,-18.76],[148.2154,-18.5469],[148.0911,-18.6991],[147.9141,-18.7258],[147.9141,-18.8401],[147.9972,-18.8401],[147.9972,-18.96],[147.96,-18.96],[147.9142,-18.8852],[147.8473,-18.8852],[147.8473,-18.8239],[147.704,-18.8239],[147.6312,-18.757],[147.68,-18.7],[147.7879,-18.6813],[147.7879,-18.416],[148.014,-18.1218],[148.677,-18.5245]],[[148.884,-19.208],[148.884,-19.24],[148.92,-19.24],[148.92,-19.188],[148.9,-19.188],[148.884,-19.208]]]},"properties":{"id":"gbrmpa-zone-349","type":"Marine National Park Zone","zone":"Green Zone","color":"#2fae5a","name":"MNP-18-1076","permit":"Townsville-Bowen Outer Shelf: including Lynchs (18-091), Saville-Kent (18-099), Judith Wright (18-101), the Anzac Reefs, Kangaroo (19-063), Tiger (19-054) and Leopard Reefs (19-050, 19-051), and areas adjacent to the boundary of the Marine Park","source":"GBRMPA"}},{"type":"Feature","geometry":{"type":"Polygon","coordinates":[[[146.8043,-17.9078],[146.841,-17.9491],[146.895,-17.9491],[146.9456,-17.9916],[146.9456,-18.2748],[147.0145,-18.2748],[147.0145,-18.4864],[146.9865,-18.4864],[146.971,-18.4645],[146.971,-18.385],[146.9,-18.385],[146.9,-18.29],[146.89,-18.28],[146.8845,-18.28],[146.8845,-18.145],[146.72,-18.145],[146.72,-17.9685],[146.7703,-17.9685],[146.7703,-17.9078],[146.8043,-17.9078]],[[146.7472,-17.9785],[146.7472,-18.0121],[146.7924,-18.0121],[146.7924,-17.9785],[146.7472,-17.9785]]]},"properties":{"id":"gbrmpa-zone-300","type":"Marine National Park Zone","zone":"Green Zone","color":"#2fae5a","name":"MNP-17-1072","permit":"Bandjin Reefs","source":"GBRMPA"}},{"type":"Feature","geometry":{"type":"Polygon","coordinates":[[[146.3363,-18.5129],[146.3177,-18.5185],[146.3177,-18.496],[146.3296,-18.496],[146.3363,-18.5129]]]},"properties":{"id":"gbrmpa-zone-506","type":"Habitat Protection Zone","zone":"Dark Blue Zone","color":"#3f6fb0","name":"HP-18-5378","permit":"Lucinda coastal area","source":"GBRMPA"}},{"type":"Feature","geometry":{"type":"Polygon","coordinates":[[[147.2172,-18.377],[147.1867,-18.377],[147.1867,-18.3412],[147.2172,-18.3412],[147.2172,-18.377]]]},"properties":{"id":"gbrmpa-zone-512","type":"Conservation Park Zone","zone":"Yellow Zone","color":"#e8c23f","name":"CP-18-4050","permit":"Needle Reef (18-037)","source":"GBRMPA"}},{"type":"Feature","geometry":{"type":"Polygon","coordinates":[[[147.4058,-18.2891],[147.3628,-18.2891],[147.3628,-18.2424],[147.4058,-18.2424],[147.4058,-18.2891]]]},"properties":{"id":"gbrmpa-zone-515","type":"Marine National Park Zone","zone":"Green Zone","color":"#2fae5a","name":"MNP-18-1078","permit":"Myrmidon Reef (18-034)","source":"GBRMPA"}},{"type":"Feature","geometry":{"type":"Polygon","coordinates":[[[147.96,-18.96],[147.9,-18.96],[147.86,-18.92],[147.8473,-18.8852],[147.9142,-18.8852],[147.96,-18.96]]]},"properties":{"id":"gbrmpa-zone-469","type":"Habitat Protection Zone","zone":"Dark Blue Zone","color":"#3f6fb0","name":"HP-18-5153","permit":"Banfield Reef (18-105a and b) and unnamed reefs (18-102 to 18-104)","source":"GBRMPA"}},{"type":"Feature","geometry":{"type":"Polygon","coordinates":[[[146.4468,-18.7495],[146.4468,-18.8519],[146.473,-18.8519],[146.473,-18.9281],[146.3626,-18.9281],[146.3626,-18.8743],[146.2846,-18.8743],[146.2845,-18.8731],[146.283,-18.8746],[146.2815,-18.8702],[146.274,-18.8615],[146.2767,-18.8519],[146.2745,-18.831],[146.2786,-18.7971],[146.2806,-18.7897],[146.3056,-18.7897],[146.3057,-18.7495],[146.4468,-18.7495]]]},"properties":{"id":"gbrmpa-zone-406","type":"Marine National Park Zone","zone":"Green Zone","color":"#2fae5a","name":"MNP-18-1086","permit":"Halifax Bay/Pandora Reef (18-051)","source":"GBRMPA"}},{"type":"Feature","geometry":{"type":"Polygon","coordinates":[[[146.8737,-19.146],[146.8719,-19.1501],[146.8694,-19.149],[146.8737,-19.146]]]},"properties":{"id":"gbrmpa-zone-260","type":"Marine National Park Zone","zone":"Green Zone","color":"#2fae5a","name":"MNP-19-1093","permit":"Magnetic Island - Alma Bay","source":"GBRMPA"}},{"type":"Feature","geometry":{"type":"Polygon","coordinates":[[[146.488,-18.6217],[146.4909,-18.6222],[146.4933,-18.6272],[146.4986,-18.6307],[146.4991,-18.6339],[146.4978,-18.6359],[146.4983,-18.6412],[146.4945,-18.6407],[146.4909,-18.6439],[146.4917,-18.6479],[146.4901,-18.6505],[146.4857,-18.6501],[146.4881,-18.6532],[146.4893,-18.6595],[146.4869,-18.6648],[146.4896,-18.6672],[146.4896,-18.673],[146.4831,-18.673],[146.4751,-18.655],[146.4751,-18.6149],[146.4833,-18.6151],[146.488,-18.6217]]]},"properties":{"id":"gbrmpa-zone-498","type":"Conservation Park Zone","zone":"Yellow Zone","color":"#e8c23f","name":"CP-18-4053","permit":"Orpheus Island Reef south-west (18-049b)","source":"GBRMPA"}},{"type":"Feature","geometry":{"type":"Polygon","coordinates":[[[146.8835,-19.1143],[146.8835,-19.1206],[146.8798,-19.1161],[146.8835,-19.1143]]]},"properties":{"id":"gbrmpa-zone-303","type":"Marine National Park Zone","zone":"Green Zone","color":"#2fae5a","name":"MNP-19-1091","permit":"Magnetic Island - Gowrie Bay","source":"GBRMPA"}},{"type":"Feature","geometry":{"type":"Polygon","coordinates":[[[146.8901,-18.4957],[146.8657,-18.4956],[146.86,-18.49],[146.86,-18.4687],[146.8818,-18.4617],[146.89,-18.47],[146.8901,-18.4957]]]},"properties":{"id":"gbrmpa-zone-509","type":"Habitat Protection Zone","zone":"Dark Blue Zone","color":"#3f6fb0","name":"HP-18-5145","permit":"Rib Reef (18-032)","source":"GBRMPA"}},{"type":"Feature","geometry":{"type":"Polygon","coordinates":[[[146.7001,-18.9933],[146.7001,-19.0067],[146.6734,-19.0067],[146.6734,-18.9867],[146.6934,-18.9867],[146.7001,-18.9933]],[[146.6857,-18.9954],[146.686,-18.9959],[146.6864,-18.9955],[146.6857,-18.9954]],[[146.6845,-18.9959],[146.6831,-18.997],[146.6845,-18.9965],[146.6845,-18.9959]]]},"properties":{"id":"gbrmpa-zone-466","type":"Habitat Protection Zone","zone":"Dark Blue Zone","color":"#3f6fb0","name":"HP-18-5156","permit":"Cordelia Rock (18-068)","source":"GBRMPA"}},{"type":"Feature","geometry":{"type":"Polygon","coordinates":[[[148.3703,-18.8275],[148.3554,-18.9872],[148.4568,-19.0162],[148.5168,-18.879],[148.6436,-18.9235],[148.4858,-19.2583],[148.27,-19.25],[148.08,-19.25],[148.08,-19.0999],[148.0562,-19.0999],[148.0562,-19],[148.0001,-19],[147.96,-18.96],[147.9972,-18.96],[147.9972,-18.8401],[147.9141,-18.8401],[147.9141,-18.7258],[148.0911,-18.6991],[148.15,-18.75],[148.3703,-18.8275]],[[148.1031,-19.0315],[148.1047,-19.0313],[148.1052,-19.029],[148.1031,-19.0315]],[[148.2229,-19.0806],[148.2244,-19.0801],[148.2236,-19.0792],[148.2229,-19.0806]],[[148.1374,-19.1657],[148.1388,-19.1656],[148.139,-19.1644],[148.1374,-19.1657]],[[148.4188,-19.1075],[148.42,-19.107],[148.4185,-19.1065],[148.4188,-19.1075]],[[148.4276,-19.1868],[148.4294,-19.1866],[148.4286,-19.1859],[148.4276,-19.1868]],[[148.5035,-19.1721],[148.5048,-19.1727],[148.5049,-19.1719],[148.5035,-19.1721]]]},"properties":{"id":"gbrmpa-zone-409","type":"Habitat Protection Zone","zone":"Dark Blue Zone","color":"#3f6fb0","name":"HP-18-5149","permit":"Burdekin/Flinders Passage offshore","source":"GBRMPA"}},{"type":"Feature","geometry":{"type":"Polygon","coordinates":[[[147.6288,-19.7704],[147.7014,-19.8263],[147.772,-19.8263],[147.7713,-19.8307],[147.766,-19.8377],[147.7466,-19.8341],[147.7423,-19.8366],[147.7317,-19.8364],[147.7281,-19.8414],[147.7096,-19.8381],[147.7059,-19.8339],[147.7061,-19.8322],[147.6919,-19.8332],[147.674,-19.8297],[147.6673,-19.8247],[147.667,-19.818],[147.6625,-19.8165],[147.6635,-19.8098],[147.631,-19.7887],[147.6166,-19.7763],[147.606,-19.7646],[147.5995,-19.7516],[147.6146,-19.7516],[147.6288,-19.7704]]]},"properties":{"id":"gbrmpa-zone-280","type":"Habitat Protection Zone","zone":"Dark Blue Zone","color":"#3f6fb0","name":"HP-19-5174","permit":"Upstart Bay coastal area","source":"GBRMPA"}},{"type":"Feature","geometry":{"type":"Polygon","coordinates":[[[146.8801,-19.1288],[146.8764,-19.1319],[146.8767,-19.1285],[146.8801,-19.1288]]]},"properties":{"id":"gbrmpa-zone-263","type":"Conservation Park Zone","zone":"Yellow Zone","color":"#e8c23f","name":"CP-19-4057","permit":"Magnetic Island - Arthur Bay","source":"GBRMPA"}},{"type":"Feature","geometry":{"type":"Polygon","coordinates":[[[147.6436,-18.8772],[147.704,-18.8239],[147.7236,-18.8239],[147.8201,-18.92],[147.8201,-18.9531],[147.7251,-18.9903],[147.6925,-18.9903],[147.6708,-18.9658],[147.6708,-18.9042],[147.6436,-18.8772]]]},"properties":{"id":"gbrmpa-zone-471","type":"Habitat Protection Zone","zone":"Dark Blue Zone","color":"#3f6fb0","name":"HP-18-5152","permit":"Broadhurst Reef (18-100a and b) and Little Broadhurst Reef (18-106)","source":"GBRMPA"}},{"type":"Feature","geometry":{"type":"Polygon","coordinates":[[[147.2757,-18.7659],[147.2636,-18.7659],[147.2481,-18.7551],[147.2481,-18.7465],[147.2762,-18.7259],[147.2997,-18.7423],[147.2757,-18.7659]]]},"properties":{"id":"gbrmpa-zone-408","type":"Habitat Protection Zone","zone":"Dark Blue Zone","color":"#3f6fb0","name":"HP-18-5150","permit":"Keeper Reef (18-079)","source":"GBRMPA"}},{"type":"Feature","geometry":{"type":"Polygon","coordinates":[[[147.0601,-18.66],[147.0401,-18.66],[147.0201,-18.65],[147.0201,-18.61],[147.0901,-18.61],[147.0901,-18.65],[147.0601,-18.66]]]},"properties":{"id":"gbrmpa-zone-500","type":"Conservation Park Zone","zone":"Yellow Zone","color":"#e8c23f","name":"CP-18-4052","permit":"John Brewer Reef (18-075)","source":"GBRMPA"}},{"type":"Feature","geometry":{"type":"Polygon","coordinates":[[[147.627,-19.1533],[147.6243,-19.1533],[147.6151,-19.1379],[147.6151,-19.1282],[147.6446,-19.1282],[147.6446,-19.1533],[147.627,-19.1533]]]},"properties":{"id":"gbrmpa-zone-262","type":"Habitat Protection Zone","zone":"Dark Blue Zone","color":"#3f6fb0","name":"HP-19-5164","permit":"Morinda Shoal (19-020)","source":"GBRMPA"}},{"type":"Feature","geometry":{"type":"Polygon","coordinates":[[[146.327,-18.3799],[146.3342,-18.3861],[146.3681,-18.386],[146.3681,-18.4312],[146.3441,-18.444],[146.3401,-18.456],[146.3401,-18.496],[146.3177,-18.496],[146.3177,-18.4891],[146.3275,-18.4842],[146.33,-18.4759],[146.3259,-18.4613],[146.3279,-18.4462],[146.3245,-18.446],[146.3289,-18.4448],[146.3308,-18.447],[146.3329,-18.4469],[146.3316,-18.4437],[146.334,-18.4427],[146.3358,-18.439],[146.3353,-18.434],[146.3371,-18.4306],[146.3438,-18.4312],[146.3486,-18.4248],[146.3516,-18.4244],[146.3509,-18.4206],[146.3547,-18.42],[146.3567,-18.4212],[146.3577,-18.4196],[146.356,-18.4179],[146.3545,-18.4194],[146.3535,-18.4166],[146.3505,-18.4151],[146.3457,-18.4159],[146.3414,-18.4109],[146.3379,-18.4103],[146.3385,-18.407],[146.3324,-18.4003],[146.3281,-18.3994],[146.3266,-18.4023],[146.3228,-18.399],[146.3224,-18.3925],[146.3264,-18.3815],[146.3243,-18.3802],[146.3256,-18.3788],[146.327,-18.3799]]]},"properties":{"id":"gbrmpa-zone-511","type":"Conservation Park Zone","zone":"Yellow Zone","color":"#e8c23f","name":"CP-18-4051","permit":"Hillock Point","source":"GBRMPA"}},{"type":"Feature","geometry":{"type":"Polygon","coordinates":[[[146.2931,-18.3175],[146.3111,-18.343],[146.3681,-18.343],[146.3681,-18.386],[146.3353,-18.3858],[146.3386,-18.3848],[146.3381,-18.3814],[146.3398,-18.3815],[146.3376,-18.3784],[146.3381,-18.3763],[146.3319,-18.3746],[146.3288,-18.3708],[146.3346,-18.3694],[146.3323,-18.3675],[146.3318,-18.363],[146.3179,-18.3528],[146.3177,-18.3555],[146.3133,-18.3568],[146.311,-18.3537],[146.3089,-18.3563],[146.3044,-18.3553],[146.3,-18.3481],[146.3013,-18.344],[146.2994,-18.3398],[146.2927,-18.3379],[146.2889,-18.334],[146.29,-18.3269],[146.2802,-18.3217],[146.2779,-18.3226],[146.2746,-18.3169],[146.2759,-18.2985],[146.2798,-18.2849],[146.2955,-18.2489],[146.2994,-18.2465],[146.3243,-18.2465],[146.3007,-18.288],[146.2931,-18.3175]],[[146.3269,-18.3562],[146.3305,-18.3556],[146.3273,-18.3535],[146.3258,-18.355],[146.3269,-18.3562]]]},"properties":{"id":"gbrmpa-zone-514","type":"Marine National Park Zone","zone":"Green Zone","color":"#2fae5a","name":"MNP-18-1079","permit":"Ramsay Bay and Agnes Island","source":"GBRMPA"}},{"type":"Feature","geometry":{"type":"Polygon","coordinates":[[[146.8695,-19.1075],[146.877,-19.1103],[146.8766,-19.1124],[146.8733,-19.1124],[146.8717,-19.1092],[146.8694,-19.1106],[146.8695,-19.1075]]]},"properties":{"id":"gbrmpa-zone-305","type":"Marine National Park Zone","zone":"Green Zone","color":"#2fae5a","name":"MNP-19-1090","permit":"Magnetic Island - Balding Bay and Radical Bay","source":"GBRMPA"}},{"type":"Feature","geometry":{"type":"Polygon","coordinates":[[[147.8511,-19.7512],[147.8521,-19.7569],[147.8508,-19.7578],[147.8484,-19.7539],[147.8486,-19.7516],[147.8511,-19.7512]]]},"properties":{"id":"gbrmpa-zone-282","type":"Conservation Park Zone","zone":"Yellow Zone","color":"#e8c23f","name":"CP-19-4068","permit":"Coconut Bay","source":"GBRMPA"}},{"type":"Feature","geometry":{"type":"Polygon","coordinates":[[[146.5392,-18.6596],[146.5439,-18.6598],[146.5516,-18.6723],[146.5532,-18.6767],[146.5518,-18.6814],[146.5392,-18.6596]]]},"properties":{"id":"gbrmpa-zone-497","type":"Marine National Park Zone","zone":"Green Zone","color":"#2fae5a","name":"MNP-18-1085","permit":"Curacoa (Noogoo) Island Reef (18-052)","source":"GBRMPA"}},{"type":"Feature","geometry":{"type":"Polygon","coordinates":[[[147.412,-18.488],[147.388,-18.488],[147.388,-18.468],[147.412,-18.468],[147.412,-18.488]]]},"properties":{"id":"gbrmpa-zone-508","type":"Preservation Zone","zone":"Pink Zone","color":"#e58fb0","name":"P-18-17","permit":"Cotton Shoal (18-045)","source":"GBRMPA"}},{"type":"Feature","geometry":{"type":"Polygon","coordinates":[[[146.4837,-18.561],[146.502,-18.5723],[146.502,-18.587],[146.51,-18.6],[146.5041,-18.6],[146.4993,-18.5953],[146.496,-18.5908],[146.4959,-18.5834],[146.4929,-18.5749],[146.4894,-18.5699],[146.4823,-18.5671],[146.4847,-18.5754],[146.4797,-18.5821],[146.4815,-18.5874],[146.4832,-18.5874],[146.4825,-18.5918],[146.485,-18.5938],[146.4894,-18.5926],[146.4933,-18.594],[146.4936,-18.5989],[146.4882,-18.602],[146.4906,-18.6104],[146.4894,-18.6126],[146.4874,-18.6134],[146.4828,-18.6121],[146.4833,-18.6151],[146.4751,-18.6149],[146.4751,-18.561],[146.4837,-18.561]]]},"properties":{"id":"gbrmpa-zone-502","type":"Scientific Research Zone","zone":"Orange Zone","color":"#e0822e","name":"SR-18-2007","permit":"Orpheus Island north (18-049a and 18-049e)","source":"GBRMPA"}},{"type":"Feature","geometry":{"type":"Polygon","coordinates":[[[146.5511,-18.5333],[146.9951,-18.8297],[146.9951,-18.9504],[146.7268,-18.9504],[146.7268,-18.9017],[146.56,-18.9017],[146.56,-18.7916],[146.6999,-18.7916],[146.6999,-18.7976],[146.7259,-18.7976],[146.7259,-18.7468],[146.588,-18.672],[146.588,-18.6658],[146.5088,-18.5543],[146.5088,-18.5333],[146.5511,-18.5333]]]},"properties":{"id":"gbrmpa-zone-505","type":"Marine National Park Zone","zone":"Green Zone","color":"#2fae5a","name":"MNP-18-1082","permit":"South-east of Great Palm Island","source":"GBRMPA"}},{"type":"Feature","geometry":{"type":"Polygon","coordinates":[[[146.3537,-18.9448],[146.3382,-18.9448],[146.3382,-18.9284],[146.3537,-18.9284],[146.3537,-18.9448]]]},"properties":{"id":"gbrmpa-zone-468","type":"Habitat Protection Zone","zone":"Dark Blue Zone","color":"#3f6fb0","name":"HP-18-5154","permit":"Unnamed reef 18-800","source":"GBRMPA"}},{"type":"Feature","geometry":{"type":"Polygon","coordinates":[[[146.8689,-19.153],[146.8711,-19.1545],[146.8582,-19.1596],[146.8631,-19.1524],[146.8674,-19.1511],[146.8689,-19.153]]]},"properties":{"id":"gbrmpa-zone-259","type":"Marine National Park Zone","zone":"Green Zone","color":"#2fae5a","name":"MNP-19-1094","permit":"Magnetic Island - Geoffrey Bay","source":"GBRMPA"}},{"type":"Feature","geometry":{"type":"Polygon","coordinates":[[[147.704,-18.8239],[147.6436,-18.8772],[147.5931,-18.8268],[147.5931,-18.77],[147.6312,-18.757],[147.704,-18.8239]]]},"properties":{"id":"gbrmpa-zone-405","type":"Conservation Park Zone","zone":"Yellow Zone","color":"#e8c23f","name":"CP-18-4056","permit":"Davies Reef (18-096)","source":"GBRMPA"}},{"type":"Feature","geometry":{"type":"Polygon","coordinates":[[[147.3153,-18.646],[147.2732,-18.646],[147.2732,-18.6108],[147.3153,-18.6108],[147.3153,-18.646]]]},"properties":{"id":"gbrmpa-zone-499","type":"Marine National Park Zone","zone":"Green Zone","color":"#2fae5a","name":"MNP-18-1084","permit":"Helix Reef (18-076)","source":"GBRMPA"}},{"type":"Feature","geometry":{"type":"Polygon","coordinates":[[[146.5269,-18.1286],[146.5041,-18.1244],[146.4894,-18.1106],[146.4894,-18.0642],[146.5048,-18.034],[146.56,-17.981],[146.58,-17.981],[146.58,-17.9598],[146.6393,-17.9598],[146.6393,-18.0422],[146.5764,-18.1041],[146.5269,-18.1286]]]},"properties":{"id":"gbrmpa-zone-298","type":"Habitat Protection Zone","zone":"Dark Blue Zone","color":"#3f6fb0","name":"HP-17-5141","permit":"Otter Reef (18-018)","source":"GBRMPA"}},{"type":"Feature","geometry":{"type":"Polygon","coordinates":[[[146.7601,-19.124],[146.752,-19.124],[146.752,-19.114],[146.7601,-19.114],[146.7601,-19.124]]]},"properties":{"id":"gbrmpa-zone-304","type":"Habitat Protection Zone","zone":"Dark Blue Zone","color":"#3f6fb0","name":"HP-19-5162","permit":"Bay Rock (19-007)","source":"GBRMPA"}},{"type":"Feature","geometry":{"type":"Polygon","coordinates":[[[148.08,-19.2],[148.08,-19.25],[148.1504,-19.25],[148.1504,-19.3689],[148.0332,-19.3166],[147.9793,-19.3166],[147.9793,-19.4396],[147.8746,-19.3873],[147.8746,-19.3453],[147.7994,-19.3453],[147.7994,-19.2],[148.08,-19.2]],[[148.1023,-19.3106],[148.1032,-19.3109],[148.1037,-19.3096],[148.1023,-19.3106]],[[148.1112,-19.3146],[148.1126,-19.3143],[148.1119,-19.3137],[148.1112,-19.3146]]]},"properties":{"id":"gbrmpa-zone-255","type":"Marine National Park Zone","zone":"Green Zone","color":"#2fae5a","name":"MNP-19-1095","permit":"Stanley Reef (19-045) and Wilson Shoal (19-022)","source":"GBRMPA"}},{"type":"Feature","geometry":{"type":"Polygon","coordinates":[[[146.5088,-18.5333],[146.5088,-18.5543],[146.588,-18.6658],[146.588,-18.672],[146.5735,-18.672],[146.5722,-18.6826],[146.5798,-18.6908],[146.5799,-18.6975],[146.5861,-18.707],[146.5855,-18.7098],[146.591,-18.7112],[146.5874,-18.7156],[146.5856,-18.715],[146.5857,-18.7168],[146.5833,-18.7168],[146.5835,-18.7187],[146.5781,-18.7255],[146.5763,-18.7386],[146.5746,-18.7408],[146.5761,-18.7423],[146.5764,-18.7498],[146.5707,-18.7522],[146.5674,-18.7502],[146.564,-18.7507],[146.564,-18.764],[146.56,-18.7916],[146.505,-18.7916],[146.505,-18.75],[146.4915,-18.6833],[146.4915,-18.673],[146.493,-18.673],[146.514,-18.647],[146.514,-18.619],[146.51,-18.6],[146.502,-18.587],[146.502,-18.5723],[146.4837,-18.561],[146.4751,-18.561],[146.475,-18.5333],[146.5088,-18.5333]],[[146.5211,-18.6616],[146.5147,-18.6606],[146.5117,-18.6621],[146.5067,-18.6596],[146.5057,-18.6606],[146.5133,-18.6668],[146.5124,-18.6736],[146.5187,-18.6837],[146.5089,-18.6972],[146.5084,-18.7],[146.512,-18.7066],[146.5171,-18.7101],[146.5184,-18.7141],[146.5202,-18.7149],[146.523,-18.7112],[146.5223,-18.7056],[146.5247,-18.7036],[146.5251,-18.6925],[146.5232,-18.6861],[146.5264,-18.6821],[146.525,-18.6776],[146.5272,-18.6753],[146.525,-18.6664],[146.5211,-18.6616]],[[146.5388,-18.6594],[146.5521,-18.682],[146.5549,-18.6839],[146.5551,-18.6875],[146.5573,-18.6876],[146.5617,-18.6768],[146.5673,-18.6701],[146.5644,-18.6689],[146.557,-18.6591],[146.5478,-18.6525],[146.5432,-18.6534],[146.5388,-18.6594]],[[146.4895,-18.5585],[146.4921,-18.5615],[146.4984,-18.5632],[146.5041,-18.5549],[146.5022,-18.5428],[146.4954,-18.5378],[146.4892,-18.5395],[146.4871,-18.5459],[146.489,-18.5515],[146.4874,-18.5569],[146.4895,-18.5585]],[[146.5427,-18.7882],[146.5479,-18.7893],[146.548,-18.7878],[146.5402,-18.7797],[146.536,-18.7777],[146.5357,-18.7794],[146.538,-18.7805],[146.5427,-18.7882]],[[146.5205,-18.7737],[146.5222,-18.7696],[146.5203,-18.7667],[146.5165,-18.7651],[146.5164,-18.7705],[146.5205,-18.7737]],[[146.529,-18.7648],[146.5328,-18.771],[146.5371,-18.7733],[146.5342,-18.7679],[146.529,-18.7648]],[[146.5513,-18.7721],[146.5539,-18.7735],[146.5539,-18.7706],[146.5488,-18.7689],[146.5513,-18.7721]]]},"properties":{"id":"gbrmpa-zone-504","type":"Habitat Protection Zone","zone":"Dark Blue Zone","color":"#3f6fb0","name":"HP-18-5146","permit":"Palm Islands Group: Pelorus Island Reef (18-048), Curacoa Island Reef (18-052a and b), Fantome Island Reef (18-053), Great Palm Reef (18-054a), unnamed reefs 18-058, 18-059, 18-060 and 18-062","source":"GBRMPA"}},{"type":"Feature","geometry":{"type":"Polygon","coordinates":[[[147.3722,-18.5827],[147.3722,-18.5412],[147.35,-18.4853],[147.3001,-18.4853],[147.335,-18.3883],[147.6383,-18.3883],[147.6383,-18.681],[147.4933,-18.681],[147.4933,-18.5827],[147.3722,-18.5827]],[[147.456,-18.508],[147.456,-18.484],[147.436,-18.484],[147.436,-18.508],[147.456,-18.508]],[[147.412,-18.488],[147.412,-18.468],[147.388,-18.468],[147.388,-18.488],[147.412,-18.488]]]},"properties":{"id":"gbrmpa-zone-510","type":"Marine National Park Zone","zone":"Green Zone","color":"#2fae5a","name":"MNP-18-1081","permit":"Townsville mid-shelf: Faraday Reef (18-041) to Saucer Reef (18-084)","source":"GBRMPA"}},{"type":"Feature","geometry":{"type":"Polygon","coordinates":[[[146.6467,-18.9534],[146.6467,-18.9734],[146.6241,-18.9821],[146.614,-18.9821],[146.614,-18.9721],[146.62,-18.96],[146.6267,-18.9534],[146.6467,-18.9534]],[[146.6374,-18.9619],[146.6325,-18.9625],[146.6324,-18.9639],[146.6361,-18.9648],[146.6429,-18.9627],[146.6405,-18.9601],[146.6374,-18.9619]]]},"properties":{"id":"gbrmpa-zone-467","type":"Habitat Protection Zone","zone":"Dark Blue Zone","color":"#3f6fb0","name":"HP-18-5155","permit":"Acheron Island Reef (18-066)","source":"GBRMPA"}},{"type":"Feature","geometry":{"type":"Polygon","coordinates":[[[146.7891,-18.42],[146.7788,-18.42],[146.74,-18.37],[146.79,-18.31],[146.8306,-18.31],[146.86,-18.28],[146.89,-18.28],[146.9,-18.29],[146.9,-18.385],[146.8431,-18.42],[146.7891,-18.42]]]},"properties":{"id":"gbrmpa-zone-513","type":"Conservation Park Zone","zone":"Yellow Zone","color":"#e8c23f","name":"CP-18-4048","permit":"Trunk Reef (18-027)","source":"GBRMPA"}},{"type":"Feature","geometry":{"type":"Polygon","coordinates":[[[147.7391,-19.8263],[147.7014,-19.8263],[147.6288,-19.7704],[147.6146,-19.7516],[147.7391,-19.7516],[147.7391,-19.8263]]]},"properties":{"id":"gbrmpa-zone-281","type":"Marine National Park Zone","zone":"Green Zone","color":"#2fae5a","name":"MNP-19-1107","permit":"Upstart Bay","source":"GBRMPA"}},{"type":"Feature","geometry":{"type":"Polygon","coordinates":[[[147.0761,-19.168],[147.0691,-19.2551],[147.0601,-19.2551],[147.0578,-19.2532],[147.056,-19.2472],[147.0527,-19.2454],[147.0505,-19.2398],[147.0458,-19.2389],[147.0433,-19.2311],[147.0452,-19.2285],[147.0433,-19.2226],[147.0444,-19.2206],[147.0422,-19.2172],[147.04,-19.207],[147.0341,-19.2022],[147.0301,-19.2011],[147.0221,-19.1929],[147.0206,-19.1879],[147.0174,-19.1865],[147.0166,-19.1829],[147.0133,-19.1818],[147.0144,-19.1884],[147.0178,-19.1912],[147.021,-19.1994],[147.0186,-19.2032],[147.0229,-19.2074],[147.0233,-19.2123],[147.0195,-19.218],[147.0078,-19.2259],[147.0051,-19.2319],[147.0022,-19.2343],[147.0017,-19.2362],[147.005,-19.2409],[147.002,-19.2453],[147.0017,-19.2491],[146.9822,-19.2769],[146.9805,-19.2822],[146.9665,-19.2893],[146.9535,-19.2994],[146.9477,-19.2967],[146.9379,-19.296],[146.9321,-19.2983],[146.9283,-19.2978],[146.9233,-19.3025],[146.9131,-19.3019],[146.9112,-19.3034],[146.9103,-19.3022],[146.9043,-19.3062],[146.8982,-19.3067],[146.8825,-19.3042],[146.8647,-19.2896],[147.012,-19.18],[147.0761,-19.168]],[[147.0618,-19.2469],[147.063,-19.2476],[147.064,-19.2459],[147.0618,-19.2456],[147.0618,-19.2469]]]},"properties":{"id":"gbrmpa-zone-258","type":"Conservation Park Zone","zone":"Yellow Zone","color":"#e8c23f","name":"CP-19-4059","permit":"Cleveland Bay/Cape Cleveland","source":"GBRMPA"}},{"type":"Feature","geometry":{"type":"Polygon","coordinates":[[[146.7141,-19.134],[146.7061,-19.134],[146.7061,-19.124],[146.7141,-19.124],[146.7141,-19.134]]]},"properties":{"id":"gbrmpa-zone-264","type":"Habitat Protection Zone","zone":"Dark Blue Zone","color":"#3f6fb0","name":"HP-19-5163","permit":"Burdekin Rock (19-008)","source":"GBRMPA"}},{"type":"Feature","geometry":{"type":"Polygon","coordinates":[[[147.5931,-18.8268],[147.5,-18.8268],[147.5,-18.77],[147.5931,-18.77],[147.5931,-18.8268]]]},"properties":{"id":"gbrmpa-zone-404","type":"Marine National Park Zone","zone":"Green Zone","color":"#2fae5a","name":"MNP-18-1087","permit":"Wheeler Reef (18-095)","source":"GBRMPA"}},{"type":"Feature","geometry":{"type":"Polygon","coordinates":[[[146.1702,-17.8801],[146.1702,-17.91],[146.1994,-17.9922],[146.1913,-17.9922],[146.1913,-18.0571],[146.1098,-18.0354],[146.1098,-17.9781],[146.1014,-17.9781],[146.1009,-17.967],[146.0976,-17.969],[146.0944,-17.967],[146.0914,-17.9542],[146.0981,-17.9278],[146.0974,-17.9084],[146.0983,-17.8972],[146.1011,-17.8863],[146.1003,-17.8849],[146.1022,-17.8851],[146.106,-17.876],[146.1702,-17.876],[146.1702,-17.8801]],[[146.1393,-17.9361],[146.1358,-17.9362],[146.1453,-17.944],[146.1468,-17.9486],[146.1468,-17.9872],[146.178,-17.9872],[146.1786,-17.9678],[146.1741,-17.9626],[146.1747,-17.9582],[146.1733,-17.956],[146.176,-17.9522],[146.1748,-17.948],[146.1658,-17.9433],[146.163,-17.9389],[146.1568,-17.9371],[146.1524,-17.9283],[146.1465,-17.9271],[146.143,-17.9308],[146.1438,-17.9347],[146.1393,-17.9361]],[[146.152,-17.9978],[146.149,-17.9995],[146.1476,-17.9979],[146.1474,-18.0003],[146.1429,-18.002],[146.1421,-18.0044],[146.1507,-18.0099],[146.1528,-18.0084],[146.1544,-18.0098],[146.1545,-18.0072],[146.1513,-18.0061],[146.1509,-18.0014],[146.153,-17.9998],[146.152,-17.9978]],[[146.1754,-18.0377],[146.173,-18.0379],[146.1722,-18.0398],[146.1772,-18.0424],[146.1812,-18.0422],[146.1809,-18.0381],[146.1754,-18.0377]],[[146.1663,-18.029],[146.169,-18.0287],[146.1691,-18.026],[146.1686,-18.0244],[146.1657,-18.0235],[146.1637,-18.0264],[146.1663,-18.029]],[[146.1382,-17.9807],[146.1339,-17.9816],[146.1385,-17.9837],[146.1392,-17.9812],[146.1382,-17.9807]],[[146.1434,-17.9544],[146.1405,-17.9565],[146.1428,-17.9564],[146.1434,-17.9544]],[[146.1805,-17.9701],[146.1805,-17.9674],[146.1797,-17.9687],[146.1805,-17.9701]],[[146.1423,-17.9498],[146.1414,-17.9505],[146.1416,-17.9518],[146.1423,-17.9498]],[[146.1408,-17.9788],[146.14,-17.9785],[146.1403,-17.9795],[146.1408,-17.9788]],[[146.1365,-17.9254],[146.1372,-17.9256],[146.137,-17.9247],[146.1365,-17.9254]]]},"properties":{"id":"gbrmpa-zone-301","type":"Conservation Park Zone","zone":"Yellow Zone","color":"#e8c23f","name":"CP-17-4045","permit":"Mission Beach","source":"GBRMPA"}},{"type":"Feature","geometry":{"type":"Polygon","coordinates":[[[147.456,-18.508],[147.436,-18.508],[147.436,-18.484],[147.456,-18.484],[147.456,-18.508]]]},"properties":{"id":"gbrmpa-zone-507","type":"Preservation Zone","zone":"Pink Zone","color":"#e58fb0","name":"P-18-18","permit":"Arc Reef (18-070)","source":"GBRMPA"}},{"type":"Feature","geometry":{"type":"Polygon","coordinates":[[[146.3057,-18.7495],[146.3056,-18.7897],[146.2806,-18.7897],[146.2859,-18.7674],[146.284,-18.7636],[146.2875,-18.7592],[146.2886,-18.7549],[146.2878,-18.7495],[146.3057,-18.7495]]]},"properties":{"id":"gbrmpa-zone-407","type":"Conservation Park Zone","zone":"Yellow Zone","color":"#e8c23f","name":"CP-18-4055","permit":"Palm Creek/Titch Creek inshore","source":"GBRMPA"}},{"type":"Feature","geometry":{"type":"Polygon","coordinates":[[[146.4915,-18.673],[146.4896,-18.673],[146.4896,-18.6672],[146.4923,-18.6659],[146.4922,-18.663],[146.4971,-18.6611],[146.5032,-18.6554],[146.5024,-18.6494],[146.5045,-18.6439],[146.5037,-18.6394],[146.5063,-18.6378],[146.5037,-18.6285],[146.5066,-18.627],[146.5077,-18.6227],[146.5049,-18.6172],[146.4993,-18.6122],[146.4992,-18.6078],[146.5041,-18.6],[146.51,-18.6],[146.514,-18.619],[146.514,-18.647],[146.493,-18.673],[146.4915,-18.673]]]},"properties":{"id":"gbrmpa-zone-501","type":"Marine National Park Zone","zone":"Green Zone","color":"#2fae5a","name":"MNP-18-1083","permit":"Orpheus Island Reef east (18-049d)","source":"GBRMPA"}},{"type":"Feature","geometry":{"type":"Polygon","coordinates":[[[146.7836,-19.1347],[146.7898,-19.136],[146.7923,-19.1388],[146.7961,-19.1461],[146.7958,-19.1488],[146.8016,-19.155],[146.803,-19.1609],[146.8229,-19.1705],[146.8359,-19.1816],[146.8415,-19.1786],[146.8448,-19.1816],[146.8477,-19.1817],[146.8546,-19.1881],[146.8475,-19.1912],[146.842,-19.1906],[146.8369,-19.199],[146.791,-19.2258],[146.791,-19.2405],[146.7856,-19.2342],[146.7789,-19.2218],[146.7762,-19.2122],[146.7744,-19.1901],[146.7673,-19.1848],[146.7611,-19.1851],[146.7499,-19.1811],[146.7332,-19.1809],[146.7266,-19.1827],[146.7237,-19.1816],[146.7211,-19.1839],[146.721,-19.1863],[146.715,-19.1885],[146.7132,-19.1913],[146.703,-19.191],[146.6886,-19.1936],[146.6639,-19.1855],[146.6469,-19.1762],[146.7798,-19.1306],[146.7836,-19.1347]]]},"properties":{"id":"gbrmpa-zone-261","type":"Conservation Park Zone","zone":"Yellow Zone","color":"#e8c23f","name":"CP-19-4058","permit":"Pallarenda/Cleveland Bay","source":"GBRMPA"}},{"type":"Feature","geometry":{"type":"Polygon","coordinates":[[[146.8324,-19.1054],[146.828,-19.1085],[146.8293,-19.1103],[146.827,-19.1138],[146.8227,-19.1138],[146.8191,-19.1165],[146.8161,-19.1155],[146.8151,-19.1175],[146.8084,-19.1168],[146.8058,-19.1182],[146.8023,-19.1155],[146.8324,-19.1054]]]},"properties":{"id":"gbrmpa-zone-306","type":"Marine National Park Zone","zone":"Green Zone","color":"#2fae5a","name":"MNP-19-1089","permit":"Magnetic Island - Five Beach Bay","source":"GBRMPA"}},{"type":"Feature","geometry":{"type":"Polygon","coordinates":[[[146.2306,-18.127],[146.2306,-18.1963],[146.2289,-18.1961],[146.2292,-18.1948],[146.2258,-18.1973],[146.2236,-18.1955],[146.2239,-18.1938],[146.2225,-18.195],[146.2209,-18.2027],[146.2262,-18.2111],[146.2266,-18.2146],[146.2233,-18.2221],[146.2167,-18.2264],[146.2233,-18.2294],[146.2272,-18.2339],[146.229,-18.2391],[146.2272,-18.2454],[146.2326,-18.2553],[146.2327,-18.2656],[146.2254,-18.2776],[146.2146,-18.2823],[146.1974,-18.2782],[146.1925,-18.2719],[146.1848,-18.2683],[146.182,-18.2649],[146.1687,-18.2633],[146.1613,-18.2574],[146.1561,-18.2558],[146.1496,-18.2447],[146.1424,-18.2463],[146.1381,-18.2439],[146.1371,-18.2405],[146.1311,-18.2398],[146.1281,-18.2355],[146.1223,-18.2337],[146.1121,-18.2357],[146.1051,-18.2341],[146.0706,-18.2469],[146.0164,-18.2469],[146.0156,-18.2404],[146.0179,-18.2307],[146.013,-18.2132],[146.1638,-18.1418],[146.2306,-18.127]],[[146.167,-18.1517],[146.16,-18.153],[146.1602,-18.1581],[146.1574,-18.1619],[146.1585,-18.1703],[146.1531,-18.1755],[146.1559,-18.1753],[146.1615,-18.1805],[146.1704,-18.178],[146.1755,-18.181],[146.1918,-18.1663],[146.1879,-18.1666],[146.1833,-18.1613],[146.1826,-18.1576],[146.1732,-18.1549],[146.1715,-18.1517],[146.167,-18.1517]],[[146.1434,-18.1862],[146.145,-18.1863],[146.1452,-18.1822],[146.1426,-18.1843],[146.1434,-18.1862]],[[146.195,-18.1657],[146.1927,-18.1678],[146.1963,-18.1674],[146.1973,-18.166],[146.195,-18.1657]]]},"properties":{"id":"gbrmpa-zone-518","type":"Conservation Park Zone","zone":"Yellow Zone","color":"#e8c23f","name":"CP-18-4046","permit":"Missionary Bay and Goold Island","source":"GBRMPA"}},{"type":"Feature","geometry":{"type":"Polygon","coordinates":[[[146.5336,-18.82],[146.56,-18.83],[146.56,-18.86],[146.54,-18.86],[146.53,-18.85],[146.5183,-18.8441],[146.5183,-18.82],[146.5336,-18.82]],[[146.5423,-18.844],[146.5442,-18.8439],[146.5499,-18.8487],[146.551,-18.8441],[146.5496,-18.8387],[146.5433,-18.8375],[146.5375,-18.8324],[146.5327,-18.8346],[146.5343,-18.8378],[146.5423,-18.844]],[[146.5272,-18.828],[146.5279,-18.8273],[146.5263,-18.8267],[146.5272,-18.828]]]},"properties":{"id":"gbrmpa-zone-472","type":"Habitat Protection Zone","zone":"Dark Blue Zone","color":"#3f6fb0","name":"HP-18-5151","permit":"Havannah Island Reef (18-065) and Fly Island (18-064)","source":"GBRMPA"}},{"type":"Feature","geometry":{"type":"Polygon","coordinates":[[[146.4496,-19.0684],[146.4434,-19.0612],[146.4486,-19.0613],[146.4506,-19.0638],[146.4496,-19.0684]]]},"properties":{"id":"gbrmpa-zone-309","type":"Habitat Protection Zone","zone":"Dark Blue Zone","color":"#3f6fb0","name":"HP-19-5159","permit":"Boar Creek coastal area","source":"GBRMPA"}},{"type":"Feature","geometry":{"type":"Polygon","coordinates":[[[147.8287,-18.3629],[147.7879,-18.416],[147.1276,-17.9916],[147.4003,-17.7454],[148.014,-18.1218],[147.8287,-18.3629]]]},"properties":{"id":"gbrmpa-zone-380","type":"Buffer Zone","zone":"Olive Green Zone","color":"#94a84f","name":"B-17-3011","permit":"Offshore Townsville - adjacent to Marine Park boundary","source":"GBRMPA"}},{"type":"Feature","geometry":{"type":"Polygon","coordinates":[[[146.2217,-17.9922],[146.2217,-18.066],[146.1913,-18.066],[146.1913,-17.9922],[146.2217,-17.9922]],[[146.2018,-18.0524],[146.2039,-18.0508],[146.1996,-18.0476],[146.2018,-18.0524]],[[146.1993,-18.0385],[146.2018,-18.0379],[146.1993,-18.0368],[146.1983,-18.0376],[146.1993,-18.0385]],[[146.1974,-18.0441],[146.198,-18.0414],[146.1964,-18.0412],[146.1974,-18.0441]]]},"properties":{"id":"gbrmpa-zone-351","type":"Marine National Park Zone","zone":"Green Zone","color":"#2fae5a","name":"MNP-17-1075","permit":"Family Islands","source":"GBRMPA"}},{"type":"Feature","geometry":{"type":"Polygon","coordinates":[[[146.8845,-18.145],[146.8845,-18.28],[146.86,-18.28],[146.8306,-18.31],[146.79,-18.31],[146.74,-18.37],[146.7788,-18.42],[146.7445,-18.4554],[146.7276,-18.4554],[146.6867,-18.4381],[146.6694,-18.423],[146.6558,-18.3918],[146.6558,-18.375],[146.6818,-18.3633],[146.7,-18.3633],[146.7,-18.28],[146.66,-18.28],[146.64,-18.26],[146.6266,-18.2333],[146.6266,-18.2156],[146.72,-18.18],[146.72,-18.145],[146.8845,-18.145]],[[146.7973,-18.204],[146.7985,-18.2042],[146.7997,-18.2024],[146.7973,-18.204]],[[146.8311,-18.2195],[146.8322,-18.2171],[146.8312,-18.2173],[146.8311,-18.2195]]]},"properties":{"id":"gbrmpa-zone-517","type":"Habitat Protection Zone","zone":"Dark Blue Zone","color":"#3f6fb0","name":"HP-18-5144","permit":"Britomart Reef (18-024), unnamed reef 18-026 and Bramble Reef (18-029)","source":"GBRMPA"}},{"type":"Feature","geometry":{"type":"Polygon","coordinates":[[[146.5734,-19.1133],[146.5467,-19.1],[146.5467,-19.0867],[146.5601,-19.0867],[146.5801,-19.1],[146.5734,-19.1133]]]},"properties":{"id":"gbrmpa-zone-308","type":"Habitat Protection Zone","zone":"Dark Blue Zone","color":"#3f6fb0","name":"HP-19-5160","permit":"Paluma Shoals (19-005)","source":"GBRMPA"}},{"type":"Feature","geometry":{"type":"MultiPolygon","coordinates":[[[[147.4121,-19.3],[147.4724,-19.3646],[147.5215,-19.4478],[147.4804,-19.4478],[147.4751,-19.4314],[147.4703,-19.4039],[147.4662,-19.3923],[147.4567,-19.3721],[147.4347,-19.3335],[147.428,-19.3257],[147.4106,-19.3112],[147.3916,-19.302],[147.3824,-19.3008],[147.378,-19.302],[147.378,-19.3],[147.4121,-19.3]]],[[[147.38,-19.303],[147.3891,-19.3045],[147.402,-19.3092],[147.405,-19.3125],[147.413,-19.3159],[147.4211,-19.3221],[147.4209,-19.3238],[147.4176,-19.3249],[147.4176,-19.3322],[147.4197,-19.3356],[147.4262,-19.3368],[147.4252,-19.3384],[147.4271,-19.3444],[147.4347,-19.3541],[147.4454,-19.3637],[147.448,-19.3769],[147.3933,-19.3768],[147.3933,-19.3196],[147.378,-19.3196],[147.378,-19.3034],[147.38,-19.303]]]]},"properties":{"id":"gbrmpa-zone-752","type":"Conservation Park Zone","zone":"Yellow Zone","color":"#e8c23f","name":"CP-19-4061","permit":"Cape Bowling Green","source":"GBRMPA"}},{"type":"Feature","geometry":{"type":"Polygon","coordinates":[[[146.588,-18.672],[146.7259,-18.7468],[146.7259,-18.7976],[146.6999,-18.7976],[146.6999,-18.7916],[146.56,-18.7916],[146.564,-18.764],[146.564,-18.7507],[146.5666,-18.7507],[146.5696,-18.7547],[146.57,-18.758],[146.5679,-18.7598],[146.5681,-18.7627],[146.582,-18.7719],[146.5797,-18.7646],[146.582,-18.7621],[146.5846,-18.7624],[146.5872,-18.7581],[146.5912,-18.7569],[146.6036,-18.7611],[146.6102,-18.7577],[146.6171,-18.7647],[146.618,-18.7611],[146.6233,-18.7603],[146.6318,-18.7618],[146.6429,-18.7753],[146.6475,-18.7766],[146.6622,-18.7711],[146.6707,-18.7632],[146.6758,-18.7617],[146.6775,-18.7656],[146.6821,-18.7647],[146.6839,-18.7596],[146.6869,-18.7588],[146.6887,-18.756],[146.6908,-18.7576],[146.6901,-18.761],[146.6927,-18.7618],[146.6947,-18.7604],[146.6938,-18.7553],[146.687,-18.7524],[146.6894,-18.7473],[146.6895,-18.7414],[146.6852,-18.7377],[146.6749,-18.7404],[146.672,-18.7436],[146.6613,-18.7479],[146.6452,-18.7508],[146.6395,-18.7481],[146.6344,-18.7402],[146.6358,-18.7326],[146.6349,-18.728],[146.6172,-18.7049],[146.5972,-18.698],[146.5925,-18.6909],[146.5964,-18.6833],[146.5926,-18.6818],[146.5884,-18.6851],[146.5829,-18.6853],[146.5783,-18.6819],[146.5768,-18.6773],[146.5737,-18.6766],[146.5735,-18.672],[146.588,-18.672]],[[146.6666,-18.7764],[146.6647,-18.7777],[146.6663,-18.7777],[146.6666,-18.7764]]]},"properties":{"id":"gbrmpa-zone-496","type":"Conservation Park Zone","zone":"Yellow Zone","color":"#e8c23f","name":"CP-18-4054","permit":"Great Palm Island","source":"GBRMPA"}},{"type":"Feature","geometry":{"type":"Polygon","coordinates":[[[146.3767,-18.127],[146.3767,-18.216],[146.3021,-18.216],[146.3021,-18.2355],[146.2986,-18.2348],[146.298,-18.2321],[146.2899,-18.2384],[146.2729,-18.241],[146.2602,-18.2403],[146.2528,-18.2373],[146.2498,-18.238],[146.2427,-18.2289],[146.2417,-18.2239],[146.2315,-18.2202],[146.2278,-18.2084],[146.2287,-18.2021],[146.2312,-18.1982],[146.2306,-18.127],[146.3767,-18.127]],[[146.2834,-18.1449],[146.287,-18.1428],[146.2849,-18.1387],[146.2811,-18.1357],[146.2777,-18.1392],[146.282,-18.142],[146.2834,-18.1449]],[[146.3039,-18.1585],[146.3062,-18.1591],[146.3069,-18.1572],[146.304,-18.1551],[146.3015,-18.1563],[146.3039,-18.1585]],[[146.289,-18.1499],[146.2929,-18.1501],[146.2893,-18.1485],[146.289,-18.1499]],[[146.2865,-18.1478],[146.2874,-18.1482],[146.2869,-18.1464],[146.2865,-18.1478]],[[146.2972,-18.152],[146.299,-18.1526],[146.298,-18.1516],[146.2972,-18.152]]]},"properties":{"id":"gbrmpa-zone-519","type":"Marine National Park Zone","zone":"Green Zone","color":"#2fae5a","name":"MNP-18-1077","permit":"Brook Islands/Shepherds Bay","source":"GBRMPA"}},{"type":"Feature","geometry":{"type":"Polygon","coordinates":[[[146.4671,-16.9184],[146.523,-16.9837],[146.5426,-16.9837],[146.5426,-17],[146.64,-17.22],[146.8652,-17.8665],[146.9815,-17.9916],[147.1276,-17.9916],[147.7879,-18.416],[147.7879,-18.6813],[147.68,-18.7],[147.6312,-18.757],[147.5931,-18.77],[147.5,-18.77],[147.5,-18.74],[147.3722,-18.6426],[147.3722,-18.5827],[147.4933,-18.5827],[147.4933,-18.681],[147.6383,-18.681],[147.6383,-18.3883],[147.335,-18.3883],[147.3001,-18.4853],[147.2466,-18.4853],[147.2466,-18.5641],[147.1396,-18.58],[147.0194,-18.54],[146.9865,-18.4864],[147.0145,-18.4864],[147.0145,-18.2748],[146.9456,-18.2748],[146.9456,-17.9916],[146.895,-17.9491],[146.841,-17.9491],[146.8043,-17.9078],[146.7703,-17.9078],[146.7703,-17.9685],[146.72,-17.9685],[146.72,-17.9467],[146.6806,-17.8811],[146.6381,-17.8811],[146.6381,-17.9004],[146.6187,-17.9204],[146.5188,-17.9204],[146.457,-17.87],[146.541,-17.87],[146.6,-17.823],[146.588,-17.8],[146.542,-17.8],[146.517,-17.822],[146.434,-17.822],[146.3995,-17.7608],[146.3661,-17.7448],[146.3661,-17.7236],[146.3798,-17.6818],[146.3685,-17.6696],[146.3685,-17.6511],[146.3837,-17.6463],[146.3974,-17.6113],[146.387,-17.5776],[146.3606,-17.5595],[146.5728,-17.5595],[146.5728,-17.4857],[146.4893,-17.4857],[146.4893,-17.5098],[146.4014,-17.5098],[146.3407,-17.482],[146.3407,-17.4],[146.2792,-17.4],[146.2792,-17.2136],[146.32,-17.2136],[146.32,-17.1601],[146.2677,-17.1601],[146.4192,-16.9184],[146.4671,-16.9184]],[[146.3899,-17.0681],[146.3899,-17.2596],[146.4364,-17.2596],[146.4556,-17.2676],[146.4795,-17.2676],[146.5054,-17.2854],[146.5574,-17.2854],[146.5574,-17.1598],[146.44,-17.1598],[146.44,-17.09],[146.485,-17.09],[146.485,-17],[146.4476,-17],[146.3899,-17.0681]],[[147.3628,-18.2429],[147.3628,-18.2891],[147.4058,-18.2891],[147.4058,-18.2424],[147.3628,-18.2429]],[[147.1867,-18.3412],[147.1867,-18.377],[147.2172,-18.377],[147.2172,-18.3412],[147.1867,-18.3412]],[[146.5804,-17.8655],[146.5827,-17.8654],[146.5811,-17.8648],[146.5804,-17.8655]],[[146.4285,-17.775],[146.429,-17.775],[146.4293,-17.7741],[146.4285,-17.775]]]},"properties":{"id":"gbrmpa-zone-402","type":"Habitat Protection Zone","zone":"Dark Blue Zone","color":"#3f6fb0","name":"HP-16-5133","permit":"Cairns to Townsville mid-shelf and offshore","source":"GBRMPA"}},{"type":"Feature","geometry":{"type":"Polygon","coordinates":[[[146.4601,-18.1],[146.44,-18.1],[146.43,-18.09],[146.43,-18.07],[146.4601,-18.07],[146.4601,-18.1]]]},"properties":{"id":"gbrmpa-zone-350","type":"Habitat Protection Zone","zone":"Dark Blue Zone","color":"#3f6fb0","name":"HP-18-5143","permit":"Kennedy Shoal (18-007)","source":"GBRMPA"}},{"type":"Feature","geometry":{"type":"Polygon","coordinates":[[[146.331,-18.216],[146.331,-18.2399],[146.3243,-18.2465],[146.2994,-18.2465],[146.3055,-18.2425],[146.3051,-18.2401],[146.3015,-18.2406],[146.3005,-18.2393],[146.3021,-18.2355],[146.3021,-18.216],[146.331,-18.216]],[[146.3245,-18.2358],[146.3274,-18.2355],[146.326,-18.2348],[146.3245,-18.2358]]]},"properties":{"id":"gbrmpa-zone-516","type":"Conservation Park Zone","zone":"Yellow Zone","color":"#e8c23f","name":"CP-18-4047","permit":"Eva Island Reef (18-013)","source":"GBRMPA"}},{"type":"Feature","geometry":{"type":"Polygon","coordinates":[[[146.8873,-19.1001],[146.8873,-19.1125],[146.8943,-19.1266],[146.8938,-19.1302],[146.8902,-19.135],[146.8847,-19.138],[146.8829,-19.1549],[146.8799,-19.1603],[146.875,-19.1635],[146.8681,-19.1643],[146.8594,-19.1707],[146.8575,-19.1743],[146.8591,-19.1817],[146.8546,-19.1881],[146.8477,-19.1817],[146.8484,-19.1797],[146.8458,-19.1772],[146.8457,-19.1733],[146.8496,-19.1628],[146.8511,-19.1604],[146.8538,-19.162],[146.8727,-19.153],[146.8719,-19.1501],[146.8738,-19.146],[146.871,-19.1432],[146.8744,-19.1411],[146.875,-19.1331],[146.8837,-19.1269],[146.8836,-19.1123],[146.8695,-19.1075],[146.8681,-19.1045],[146.8619,-19.1024],[146.8641,-19.1147],[146.8581,-19.1177],[146.8494,-19.1179],[146.8406,-19.1139],[146.8391,-19.1082],[146.833,-19.1048],[146.833,-19.1001],[146.8873,-19.1001]]]},"properties":{"id":"gbrmpa-zone-307","type":"Habitat Protection Zone","zone":"Dark Blue Zone","color":"#3f6fb0","name":"HP-19-5161","permit":"Magnetic Island Reef East (19-009b, c, d, e and f)","source":"GBRMPA"}}]}