{"type":"FeatureCollection","meta":{"region":"QLD","tile":"t-20e146","built":"2026-08-25","sources":["OpenStreetMap (ODbL)","GBRMPA (CC BY)"]},"features":[{"type":"Feature","geometry":{"type":"Point","coordinates":[147.97022,-19.85892]},"properties":{"id":"osm-node2982732761","name":"Abbot Bay","kind":"anchorage","source":"OpenStreetMap","sourceRef":"node/2982732761","likelyAnchorage":true,"noAnchoring":false,"noAnchoringName":null,"notes":null,"fetchLandNM":[15,15,15,15,15,15,15,15,15,15,15,5.5,4,3.8,4.1,4.2,4.2,4,3.9,3.7,3.7,4.1,4.2,4.3,4.2,4.3,5.1,5.7,6.3,6.9,7.7,8.7,15,15,15,15],"fetchReefNM":[15,15,15,15,15,15,15,15,15,15,15,5.5,4,3.8,4.1,4.2,4.2,4,3.9,3.7,3.7,4.1,4.2,4.3,4.2,4.3,5.1,5.7,6.3,6.9,7.7,8.7,15,15,15,15]}},{"type":"Feature","geometry":{"type":"Point","coordinates":[146.86931,-19.14849]},"properties":{"id":"osm-node473491415","name":"Alma Bay","kind":"anchorage","source":"OpenStreetMap","sourceRef":"node/473491415","likelyAnchorage":true,"noAnchoring":false,"noAnchoringName":null,"notes":null,"fetchLandNM":[0,0.1,0.1,0.1,0.1,0.1,0.1,0.1,15,15,15,9.2,9.2,0.1,0,0,0,0,0,0,0,0,0,0,0,0,0,0,0,0,0,0,0,0,0,0],"fetchReefNM":[0,0.1,0.1,0.1,0.1,0.1,0.1,0.1,15,15,11.1,9.2,9.2,0.1,0,0,0,0,0,0,0,0,0,0,0,0,0,0,0,0,0,0,0,0,0,0]}},{"type":"Feature","geometry":{"type":"Point","coordinates":[146.87678,-19.12911]},"properties":{"id":"osm-node4749081402","name":"Arthur Bay","kind":"anchorage","source":"OpenStreetMap","sourceRef":"node/4749081402","likelyAnchorage":true,"noAnchoring":false,"noAnchoringName":null,"notes":null,"fetchLandNM":[0,0.1,0.1,0.1,0.1,0.1,0.1,0.1,0.1,15,15,15,9.6,9.5,10.2,10.9,10.6,10.5,10.3,0.1,0,0,0.1,0.1,0.1,0.1,0.1,0,0,0,0,0,0,0,0,0],"fetchReefNM":[0,0,0,0,0,0.1,0.1,0.1,0.1,0.1,0.1,0.1,0.1,0,0,0,0,0,0,0,0,0,0,0,0,0,0,0,0,0,0,0,0,0,0,0]}},{"type":"Feature","geometry":{"type":"Point","coordinates":[146.87001,-19.11023]},"properties":{"id":"osm-node473371061","name":"Balding Bay","kind":"anchorage","source":"OpenStreetMap","sourceRef":"node/473371061","likelyAnchorage":true,"noAnchoring":false,"noAnchoringName":null,"notes":null,"fetchLandNM":[15,15,15,15,15,15,15,0.1,0.1,0.1,0.1,0.1,0.1,0.1,0.1,0.1,0.1,0.1,0.1,0.1,0.1,0.1,0.1,0.1,0.1,0.1,0.1,0.1,0.1,0.1,0.1,0.1,0.1,0.1,0.1,15],"fetchReefNM":[15,15,15,15,15,15,15,0.1,0.1,0.1,0.1,0.1,0.1,0.1,0.1,0.1,0.1,0.1,0.1,0.1,0.1,0.1,0.1,0.1,0.1,0.1,0.1,0.1,0.1,0.1,0.1,0.1,0.1,0.1,0.1,15]}},{"type":"Feature","geometry":{"type":"Point","coordinates":[146.31469,-18.3533]},"properties":{"id":"osm-node6334509265","name":"Banksia Bay","kind":"anchorage","source":"OpenStreetMap","sourceRef":"node/6334509265","likelyAnchorage":true,"noAnchoring":false,"noAnchoringName":null,"notes":null,"fetchLandNM":[15,15,15,15,15,15,15,15,0.2,0.2,0.2,0.2,0.2,0.2,0.2,0.2,0.2,0.2,0.2,0.2,0.2,0.2,0.2,0.2,0.1,0.2,0.2,0.6,0.7,0.8,0.9,1.1,3.5,4.2,5,6.3],"fetchReefNM":[15,15,15,15,15,15,15,15,0.2,0.2,0.2,0.2,0.2,0.2,0.2,0.2,0.2,0.2,0.2,0.2,0.2,0.2,0.2,0.2,0.1,0.2,0.2,0.6,0.7,0.8,0.9,1.1,3.5,4.2,5,6.3]}},{"type":"Feature","geometry":{"type":"Point","coordinates":[146.67229,-18.76518]},"properties":{"id":"osm-node6177930860","name":"Barber Bay","kind":"anchorage","source":"OpenStreetMap","sourceRef":"node/6177930860","likelyAnchorage":true,"noAnchoring":false,"noAnchoringName":null,"notes":null,"fetchLandNM":[0.1,0.2,0.2,0.2,0.3,0.3,0.2,0.3,0.3,0.3,15,15,15,15,15,15,15,15,15,12,15,0.7,15,15,0.5,0.3,0.2,0.2,0.2,0.2,0.2,0.1,0.1,0.1,0.1,0.1],"fetchReefNM":[0.1,0.1,0.1,0.2,0.2,0.2,0.2,0.2,0.2,0.3,0.3,0.5,0.4,0.4,0.3,0.3,0.3,0.3,0.3,0.3,0.3,0.3,0.4,0.5,0.3,0.2,0.2,0.2,0.1,0.1,0.1,0.1,0.1,0.1,0.1,0.1]}},{"type":"Feature","geometry":{"type":"Point","coordinates":[146.79522,-19.14627]},"properties":{"id":"osm-node2295016768","name":"Bolger Bay","kind":"anchorage","source":"OpenStreetMap","sourceRef":"node/2295016768","likelyAnchorage":true,"noAnchoring":false,"noAnchoringName":null,"notes":null,"fetchLandNM":[0.1,0.1,0.1,0.1,0.1,0.1,0.1,0.1,0.1,0.1,0.1,0.1,0.1,0.1,0.1,0.1,0.1,6.2,5.8,4.8,3.4,2.8,3,3.3,4.3,7.4,9.2,11.7,15,15,15,15,0.9,0.7,0.5,0.2],"fetchReefNM":[0,0,0,0,0,0,0,0,0,0,0,0,0,0,0,0,0,1.5,1.3,1.1,0.8,0.6,0.5,0.5,0.5,0.5,0.6,0.6,0.7,0.7,0.7,0.7,0.6,0.6,0.2,0.1]}},{"type":"Feature","geometry":{"type":"Point","coordinates":[147.23422,-19.35445]},"properties":{"id":"osm-node3020491440","name":"Bowling Green Bay","kind":"anchorage","source":"OpenStreetMap","sourceRef":"node/3020491440","likelyAnchorage":true,"noAnchoring":false,"noAnchoringName":null,"notes":null,"fetchLandNM":[15,15,15,15,15,15,15,9,10.6,11.4,12.7,12,7.5,5,4.9,4.7,4.6,4.8,3.9,4,4.3,4.3,4.5,5.4,6.1,7.5,7.7,8.9,10.1,11.5,11.6,15,15,15,15,15],"fetchReefNM":[15,15,15,15,15,15,15,9,10.6,11.4,12.7,12,7.5,5,4.9,4.7,4.6,4.8,3.9,4,4.3,4.3,4.5,5.4,6.1,7.5,7.7,8.9,10.1,11.5,11.6,14.7,15,15,15,15]}},{"type":"Feature","geometry":{"type":"Point","coordinates":[146.82381,-19.25289]},"properties":{"id":"osm-way502651532","name":"Breakwater Marina","kind":"marina","source":"OpenStreetMap","sourceRef":"way/502651532","likelyAnchorage":true,"noAnchoring":false,"noAnchoringName":null,"notes":null,"fetchLandNM":[0.1,0.1,0.1,0.1,0.1,0.1,0.1,0.1,0.1,0.1,0.1,0.1,0.1,0.1,0.1,0.1,0.1,0.1,0.1,0.1,0.1,0.1,0.1,0.1,0.1,0.1,0.1,0.1,0.1,0.1,0.1,0.1,0.1,0.1,0.2,0.1],"fetchReefNM":[0.1,0.1,0.1,0.1,0.1,0.1,0.1,0.1,0.1,0.1,0.1,0.1,0.1,0.1,0.1,0.1,0.1,0.1,0.1,0.1,0.1,0.1,0.1,0.1,0.1,0.1,0.1,0.1,0.1,0.1,0.1,0.1,0.1,0.1,0.2,0.1]}},{"type":"Feature","geometry":{"type":"Point","coordinates":[146.59958,-18.6921]},"properties":{"id":"osm-node6177930861","name":"Bullumbooroo Bay","kind":"anchorage","source":"OpenStreetMap","sourceRef":"node/6177930861","likelyAnchorage":true,"noAnchoring":false,"noAnchoringName":null,"notes":null,"fetchLandNM":[15,15,15,15,15,15,15,15,15,15,15,15,5.4,1.1,0.8,0.5,0.5,0.5,0.4,0.4,0.4,0.3,0.3,0.3,0.3,0.3,0.3,0.4,0.4,0.4,0.4,0.4,0.4,0.5,0.5,15],"fetchReefNM":[15,15,15,15,15,15,15,15,15,15,15,15,5.4,1.1,0.4,0.2,0.2,0.1,0.1,0.1,0.1,0.1,0.1,0.1,0.1,0.1,0.1,0.1,0.2,0.2,0.2,0.2,0.3,0.4,0.5,15]}},{"type":"Feature","geometry":{"type":"Point","coordinates":[146.58999,-18.764]},"properties":{"id":"osm-node6177930857","name":"Butler Bay","kind":"anchorage","source":"OpenStreetMap","sourceRef":"node/6177930857","likelyAnchorage":true,"noAnchoring":false,"noAnchoringName":null,"notes":null,"fetchLandNM":[0.4,0.4,0.4,0.4,0.5,0.5,0.6,0.7,1.3,1.5,2.9,15,15,15,15,15,15,15,15,15,15,5.1,15,0.6,0.6,0.6,0.6,0.5,0.5,0.3,0.3,0.4,0.4,0.4,0.4,0.4],"fetchReefNM":[0.3,0.4,0.4,0.4,0.4,0.5,0.5,0.6,0.8,1.4,0.7,0.4,0.3,0.3,0.3,0.3,0.3,0.3,0.3,0.3,0.4,0.4,0.6,0.6,0.5,0.6,0.6,0.5,0.4,0.3,0.3,0.3,0.3,0.3,0.3,0.3]}},{"type":"Feature","geometry":{"type":"Point","coordinates":[146.21168,-18.19505]},"properties":{"id":"gbrmpa-80019","name":"Cape Richards","kind":"designated_anchorage","source":"GBRMPA","sourceRef":"80019","likelyAnchorage":true,"noAnchoring":false,"noAnchoringName":null,"notes":"The area within 250 metres of the point 18°11.700′S 146°12.700′E · Management area: Townsville/Whitsunday management area · Great Barrier Reef Marine Park Regulations 2019","fetchLandNM":[15,15,15,15,15,5.1,5.3,15,15,0.6,0.6,0.6,0.6,0.7,1.1,1.4,1.8,1.9,5.3,5,4.6,4.8,4.8,4.7,5.3,11.4,11.3,11.5,3.8,2.7,2.2,2,2,1.9,15,14.5],"fetchReefNM":[15,15,15,15,15,4.9,5.2,15,15,0.6,0.6,0.6,0.6,0.7,1.1,1.4,1.8,1.9,5.3,5,4.6,4.8,4.8,4.7,5.3,11.4,11.3,11.5,3.7,2.2,2.2,2,2,1.9,15,9.6]}},{"type":"Feature","geometry":{"type":"Point","coordinates":[146.57425,-18.74625]},"properties":{"id":"osm-node6177930854","name":"Casement Bay","kind":"anchorage","source":"OpenStreetMap","sourceRef":"node/6177930854","likelyAnchorage":true,"noAnchoring":false,"noAnchoringName":null,"notes":null,"fetchLandNM":[3.7,0.3,0.2,0.1,0.1,0.1,0.1,0.1,0.1,0.1,0.1,0.1,0.2,0.2,0.2,0.2,0.2,0.2,0.2,0.2,0.3,0.3,0.4,0.4,0.5,3.4,15,15,15,15,15,3.8,4.4,7.9,5.5,4.2],"fetchReefNM":[3.7,0.2,0.1,0.1,0.1,0.1,0.1,0.1,0.1,0.1,0.1,0.1,0.1,0.1,0.2,0.2,0.2,0.2,0.2,0.2,0.3,0.3,0.3,0.4,0.4,0.4,0.4,0.4,0.4,0.4,0.4,0.4,0.5,0.5,0.7,1.5]}},{"type":"Feature","geometry":{"type":"Point","coordinates":[146.57156,-18.75047]},"properties":{"id":"osm-node6177930855","name":"Challenger Bay","kind":"anchorage","source":"OpenStreetMap","sourceRef":"node/6177930855","likelyAnchorage":true,"noAnchoring":false,"noAnchoringName":null,"notes":null,"fetchLandNM":[4.1,3.1,0.6,0.4,0.4,0.4,0.3,0.3,0.1,0.1,0.1,0.1,0.1,0.1,0,0,0.1,0.1,0.1,0.1,0.1,0.1,0.1,0.1,0.1,0.1,0.1,0.2,15,15,15,3.6,4.1,5.1,12,4],"fetchReefNM":[2.3,3,0.5,0.4,0.3,0.3,0.3,0.1,0.1,0.1,0,0,0,0,0,0,0,0,0,0,0,0,0,0,0,0.1,0.1,0.1,0.3,0.3,0.3,0.3,0.3,0.4,0.5,0.7]}},{"type":"Feature","geometry":{"type":"Point","coordinates":[147.04905,-19.29281]},"properties":{"id":"osm-node3020491513","name":"Chunda Bay","kind":"anchorage","source":"OpenStreetMap","sourceRef":"node/3020491513","likelyAnchorage":true,"noAnchoring":false,"noAnchoringName":null,"notes":null,"fetchLandNM":[1.2,1.2,1.1,1.1,15,15,15,15,15,15,15,15,15,12.2,8.9,5.7,3.2,1.2,0.5,0.4,0.3,0.3,0.3,0.3,0.5,0.5,0.5,0.5,0.4,0.4,0.4,0.4,0.5,0.6,0.7,1],"fetchReefNM":[1.2,1.2,1.1,1.1,15,15,15,15,15,15,15,15,15,12.2,8.9,5.7,3.2,1.2,0.5,0.4,0.3,0.3,0.3,0.3,0.5,0.5,0.5,0.5,0.4,0.4,0.4,0.4,0.5,0.6,0.7,1]}},{"type":"Feature","geometry":{"type":"Point","coordinates":[146.90098,-19.2315]},"properties":{"id":"osm-node3020491517","name":"Cleveland Bay","kind":"anchorage","source":"OpenStreetMap","sourceRef":"node/3020491517","likelyAnchorage":true,"noAnchoring":false,"noAnchoringName":null,"notes":null,"fetchLandNM":[15,15,15,15,15,15,15,7.1,7,5.9,5.8,5.5,5.3,5.2,5.2,4.5,4.4,4.2,4.4,4.5,4.3,4.1,4,4,4.3,3.2,5.1,6.6,7.2,8,15,4.7,4.8,4.9,4.9,6.3],"fetchReefNM":[15,15,15,15,15,15,15,7.1,7,5.9,5.8,5.5,5.3,5.2,5.2,4.5,4.4,4.2,4.4,4.5,4.3,4.1,4,4,4.3,3.2,5.1,6.6,7.2,8,15,4.4,4.7,4.9,4.9,6.3]}},{"type":"Feature","geometry":{"type":"Point","coordinates":[146.83084,-19.17664]},"properties":{"id":"osm-node2122458803","name":"Cockle Bay","kind":"anchorage","source":"OpenStreetMap","sourceRef":"node/2122458803","likelyAnchorage":true,"noAnchoring":false,"noAnchoringName":null,"notes":null,"fetchLandNM":[0,0,0,0,0,0,0,0,0,0,0,0,0,0,0,0,0.1,4.1,4.4,4.5,4,4.4,4.2,3.9,3.6,3.4,0,0,0,0,0,0,0,0,0,0],"fetchReefNM":[0,0,0,0,0,0,0,0,0,0,0,0,0,0,0,0,0.1,0.1,0,0,0,0,0,0,0,0,0,0,0,0,0,0,0,0,0,0]}},{"type":"Feature","geometry":{"type":"Point","coordinates":[147.85179,-19.75462]},"properties":{"id":"osm-node3020491521","name":"Coconut Bay","kind":"anchorage","source":"OpenStreetMap","sourceRef":"node/3020491521","likelyAnchorage":true,"noAnchoring":false,"noAnchoringName":null,"notes":null,"fetchLandNM":[0.4,15,15,15,15,15,15,15,15,15,15,15,15,13,13.2,11.2,9.1,0.1,0.1,0.2,0.2,0.2,0.2,0.2,0.2,0.1,0.1,0.1,0.1,0.2,0.2,0.2,0.2,0.2,0.2,0.2],"fetchReefNM":[0.4,15,15,15,15,15,15,15,15,15,15,15,15,13,13.2,11.2,9.1,0.1,0.1,0.2,0.2,0.2,0.2,0.2,0.2,0.1,0.1,0.1,0.1,0.2,0.2,0.2,0.2,0.2,0.2,0.2]}},{"type":"Feature","geometry":{"type":"Point","coordinates":[146.5851,-18.71218]},"properties":{"id":"osm-node6177930863","name":"Coolgaree Bay","kind":"anchorage","source":"OpenStreetMap","sourceRef":"node/6177930863","likelyAnchorage":true,"noAnchoring":false,"noAnchoringName":null,"notes":null,"fetchLandNM":[0.4,0.3,0.3,0.3,0.2,0.2,0.2,0.2,0.3,0.2,0.2,0.2,0.2,0.2,0.2,0.2,0.2,0.3,0.3,0.3,0.7,3.9,4.4,5,15,15,15,3.5,3.5,3.6,3.8,6.1,2.2,2.5,1.7,0.5],"fetchReefNM":[0.3,0.2,0.2,0.1,0.1,0.1,0.1,0.1,0.1,0.1,0.1,0.1,0.1,0.1,0.2,0.2,0.2,0.2,0.2,0.2,0.2,0.2,1.3,1.1,1,0.9,0.8,0.8,0.7,0.7,0.8,1,1.2,1.4,0.7,0.4]}},{"type":"Feature","geometry":{"type":"Point","coordinates":[146.57605,-18.72736]},"properties":{"id":"osm-node6177930864","name":"Coolgood Bay","kind":"anchorage","source":"OpenStreetMap","sourceRef":"node/6177930864","likelyAnchorage":true,"noAnchoring":false,"noAnchoringName":null,"notes":null,"fetchLandNM":[2.5,1.7,1.4,1.3,0.5,0.2,0.1,0.1,0.1,0.1,0.1,0.1,0.1,0.1,0.1,0.2,0.3,0.4,0.7,1.5,1.4,2.9,3.5,3.5,15,15,15,15,15,3.2,3.4,3.9,4.4,8.4,2.8,3.3],"fetchReefNM":[2.4,1.6,1.4,0.7,0.4,0.1,0.1,0.1,0.1,0.1,0.1,0.1,0.1,0.1,0.1,0.1,0.2,0.3,0.5,1.4,1.4,0.7,0.5,0.4,0.4,0.4,0.3,0.3,0.4,0.4,0.4,0.5,0.6,0.7,0.9,1.1]}},{"type":"Feature","geometry":{"type":"Point","coordinates":[147.98393,-19.9179]},"properties":{"id":"osm-node3020491756","name":"Curlewis Bay","kind":"anchorage","source":"OpenStreetMap","sourceRef":"node/3020491756","likelyAnchorage":true,"noAnchoring":false,"noAnchoringName":null,"notes":null,"fetchLandNM":[15,15,15,15,15,15,2.7,2.1,2,1.4,1.1,1.1,0.9,0.4,0.3,0.3,0.3,0.5,0.4,0.4,0.4,0.4,0.5,0.6,0.8,1,1.3,1.7,3.9,4.9,7.7,6.2,11.7,15,15,15],"fetchReefNM":[15,15,15,15,15,15,2.7,2.1,2,1.4,1.1,1.1,0.9,0.4,0.3,0.3,0.3,0.5,0.4,0.4,0.4,0.4,0.5,0.6,0.8,1,1.3,1.7,3.9,4.9,7.7,6.2,11.7,15,15,15]}},{"type":"Feature","geometry":{"type":"Point","coordinates":[146.87136,-19.14715]},"properties":{"id":"osm-node9728004630","name":"Fish Cove","kind":"anchorage","source":"OpenStreetMap","sourceRef":"node/9728004630","likelyAnchorage":true,"noAnchoring":false,"noAnchoringName":null,"notes":null,"fetchLandNM":[0,0,0,0,0,0,0.1,15,15,15,15,9,9.2,9.6,9.9,10.1,9.6,0,0,0,0,0,0,0,0,0,0,0,0,0,0,0,0,0,0,0],"fetchReefNM":[0,0,0,0,0,0,0.1,15,15,15,11,9,9.2,9.6,9.9,10.1,9.6,0,0,0,0,0,0,0,0,0,0,0,0,0,0,0,0,0,0,0]}},{"type":"Feature","geometry":{"type":"Point","coordinates":[146.81157,-19.10992]},"properties":{"id":"osm-node2295016769","name":"Five Beach Bay","kind":"anchorage","source":"OpenStreetMap","sourceRef":"node/2295016769","likelyAnchorage":true,"noAnchoring":false,"noAnchoringName":null,"notes":null,"fetchLandNM":[15,15,15,15,15,15,15,15,1.2,1,0.9,0.7,0.6,0.6,0.5,0.5,0.5,0.5,0.4,0.4,0.4,0.5,0.6,0.6,0.6,0.8,12.7,15,15,15,15,15,15,15,15,15],"fetchReefNM":[15,15,15,15,15,15,15,15,1.2,1,0.9,0.7,0.6,0.6,0.5,0.5,0.5,0.5,0.4,0.4,0.4,0.5,0.6,0.6,0.6,0.8,12.7,15,15,15,15,13.4,15,15,15,15]}},{"type":"Feature","geometry":{"type":"Point","coordinates":[147.74732,-19.75269]},"properties":{"id":"osm-node3024518445","name":"Flagstaff Bay","kind":"anchorage","source":"OpenStreetMap","sourceRef":"node/3024518445","likelyAnchorage":true,"noAnchoring":false,"noAnchoringName":null,"notes":null,"fetchLandNM":[15,2.5,1.9,0.7,0.2,0.2,0.2,0.1,0.1,0.1,0.1,0.1,0.1,0.1,0.1,0.1,0.1,0.1,0.2,0.2,0.1,5.5,6.1,6.1,6.1,6.8,7.6,8.4,9.1,9,8.5,12.5,15,15,15,15],"fetchReefNM":[15,2.5,1.9,0.7,0.2,0.2,0.2,0.1,0.1,0.1,0.1,0.1,0.1,0.1,0.1,0.1,0.1,0.1,0.2,0.2,0.1,5.5,6.1,6.1,6.1,6.8,7.6,8.4,9.1,9,8.5,12.5,15,15,15,15]}},{"type":"Feature","geometry":{"type":"Point","coordinates":[146.88083,-19.12256]},"properties":{"id":"osm-node4739755976","name":"Florence Bay","kind":"anchorage","source":"OpenStreetMap","sourceRef":"node/4739755976","likelyAnchorage":true,"noAnchoring":false,"noAnchoringName":null,"notes":null,"fetchLandNM":[0.1,0.1,0.1,0.1,0.1,0.1,0.1,15,15,15,15,15,9.1,9.5,10.3,0.2,0.2,0.1,0.1,0.1,0.1,0.1,0.1,0.1,0.1,0.1,0.2,0.2,0.2,0.2,0.2,0.2,0.1,0.1,0.1,0.1],"fetchReefNM":[0,0,0,0,0,0.1,0.1,15,15,15,15,15,9.1,9.5,10.3,0.2,0.2,0.1,0.1,0.1,0.1,0.1,0.1,0.1,0.1,0,0,0,0,0,0,0,0,0,0,0]}},{"type":"Feature","geometry":{"type":"Point","coordinates":[146.86406,-19.1531]},"properties":{"id":"osm-node2122458812","name":"Geoffrey Bay","kind":"anchorage","source":"OpenStreetMap","sourceRef":"node/2122458812","likelyAnchorage":true,"noAnchoring":false,"noAnchoringName":null,"notes":null,"fetchLandNM":[0.1,0.1,0.1,0.2,0.2,0.3,0.3,0.3,0.3,0.3,0.4,9.6,9.3,9.7,10.2,10,9.5,9.3,8.2,5.7,6.2,1.8,0.5,0.3,0.3,0.2,0.1,0.1,0.1,0.1,0.1,0.1,0.1,0.1,0.1,0.1],"fetchReefNM":[0.1,0.1,0.1,0.1,0.2,0.2,0.2,0.2,0.2,0.3,0.3,0.3,0.2,0.2,0.1,0.1,0.1,0.1,0.1,0.1,0.2,0.2,0.4,0.3,0.2,0.1,0.1,0.1,0.1,0.1,0.1,0,0,0,0.1,0.1]}},{"type":"Feature","geometry":{"type":"Point","coordinates":[146.88186,-19.11616]},"properties":{"id":"osm-node2295016770","name":"Gowrie Bay","kind":"anchorage","source":"OpenStreetMap","sourceRef":"node/2295016770","likelyAnchorage":true,"noAnchoring":false,"noAnchoringName":null,"notes":null,"fetchLandNM":[0.1,0.1,0.1,0.1,15,15,15,15,15,15,15,15,8.7,9.9,10.5,11.2,11.6,0.2,0.2,0.1,0.1,0.1,0.1,0.1,0.1,0.1,0.1,0.1,0.1,0.1,0.1,0.1,0.1,0.1,0.1,0.1],"fetchReefNM":[0.1,0.1,0.1,0.1,0.1,0.1,0,0,0,0,0,0,0,0,0,0.1,0.3,0.2,0.1,0.1,0.1,0.1,0.1,0.1,0.1,0.1,0.1,0.1,0.1,0.1,0.1,0.1,0.1,0.1,0.1,0.1]}},{"type":"Feature","geometry":{"type":"Point","coordinates":[146.4957,-18.97126]},"properties":{"id":"osm-node3020492224","name":"Halifax Bay","kind":"anchorage","source":"OpenStreetMap","sourceRef":"node/3020492224","likelyAnchorage":true,"noAnchoring":false,"noAnchoringName":null,"notes":null,"fetchLandNM":[15,12.2,8.1,14.6,15,15,15,15,15,15,15,15,7,15,15,12.9,10.9,8.1,7.5,6.6,6.6,6.1,5.7,5.5,5.6,5.8,7,7.4,9.5,11.8,14.4,15,15,15,15,15],"fetchReefNM":[15,11.9,7.9,14,15,15,15,15,15,15,15,15,7,15,15,12.9,10.9,8.1,7.5,6.6,6.6,6.1,5.7,5.5,5.6,5.8,7,7.4,9.5,11.8,14.4,15,15,15,10.1,15]}},{"type":"Feature","geometry":{"type":"Point","coordinates":[146.76106,-19.18425]},"properties":{"id":"osm-node6028667406","name":"Halifax Bay","kind":"anchorage","source":"OpenStreetMap","sourceRef":"node/6028667406","likelyAnchorage":true,"noAnchoring":false,"noAnchoringName":null,"notes":null,"fetchLandNM":[15,15,3.3,3.3,3.1,2.9,2.8,3.2,3.8,14.4,0.1,0.1,0.1,0.1,0,0,0,0,0,0,0,0,0,0.1,0.1,0.1,0.1,0.2,0.2,14.8,15,15,15,15,15,15],"fetchReefNM":[15,15,3.3,2.6,2.5,2.2,2.2,2.3,2.7,3.3,0.1,0.1,0.1,0.1,0,0,0,0,0,0,0,0,0,0.1,0.1,0.1,0.1,0.2,0.2,14.8,15,15,15,15,11.9,15]}},{"type":"Feature","geometry":{"type":"Point","coordinates":[146.49451,-18.63492]},"properties":{"id":"osm-node6177930868","name":"Hazard Bay","kind":"anchorage","source":"OpenStreetMap","sourceRef":"node/6177930868","likelyAnchorage":true,"noAnchoring":false,"noAnchoringName":null,"notes":null,"fetchLandNM":[0.4,0.4,0.4,0.4,0.4,0.3,0.3,0.3,0.3,0.3,0.3,0.2,0.3,0.3,0.3,0.3,0.4,0.4,0.4,0.5,1,15,15,15,13.5,11.6,10.1,9,9.1,9.3,10,13.5,14.6,15,0.8,0.7],"fetchReefNM":[0.3,0.2,0.1,0.1,0.1,0,0,0,0,0,0,0,0,0,0,0,0,0.1,0.1,0.1,1,0.9,0.9,15,13.5,11.6,10.1,9,9.1,9.3,10,13.5,14.6,15,0.7,0.4]}},{"type":"Feature","geometry":{"type":"Point","coordinates":[146.05836,-18.23344]},"properties":{"id":"gbrmpa-80021","name":"Hecate Point","kind":"designated_anchorage","source":"GBRMPA","sourceRef":"80021","likelyAnchorage":true,"noAnchoring":false,"noAnchoringName":null,"notes":"The area within 500 metres of the point 18°14.000′S 146°03.500′E · Management area: Townsville/Whitsunday management area · Great Barrier Reef Marine Park Regulations 2019","fetchLandNM":[12.9,15,14.5,13.3,15,15,5.6,15,9.5,9.6,2,1.6,1.3,1.1,1,9,7.3,4.5,3.6,3,2.7,2.6,2.6,2.6,2.5,2.5,2.5,2.3,2.4,2.7,3.1,3.6,4.5,5.9,7.7,9.3],"fetchReefNM":[12.9,15,14.4,13.2,15,7.1,5.6,14.1,9.5,9.6,2,1.6,1.3,1.1,1,9,7.3,4.5,3.6,3,2.7,2.6,2.6,2.6,2.5,2.5,2.5,2.3,2.4,2.7,3.1,3.6,4.5,5.9,7.7,9.3]}},{"type":"Feature","geometry":{"type":"Point","coordinates":[146.0959,-18.30427]},"properties":{"id":"osm-node3020492455","name":"Hinchinbrook Channel","kind":"anchorage","source":"OpenStreetMap","sourceRef":"node/3020492455","likelyAnchorage":false,"noAnchoring":false,"noAnchoringName":null,"notes":null,"fetchLandNM":[1.5,1.3,1.2,1.2,1.2,1.2,1.3,1.3,1.5,1.9,3.2,3.8,4.9,8,4.4,4.8,3.4,2.8,1.9,1.7,1.7,1.3,1.3,1.1,1.1,1.1,1.3,1.5,2,2.4,3,5.9,7.4,9.9,2.7,2],"fetchReefNM":[1.5,1.3,1.2,1.2,1.2,1.2,1.3,1.3,1.5,1.9,3.2,3.8,4.9,8,4.4,4.8,3.4,2.8,1.9,1.7,1.7,1.3,1.3,1.1,1.1,1.1,1.3,1.5,2,2.4,3,5.9,7.4,9.9,2.7,2]}},{"type":"Feature","geometry":{"type":"Point","coordinates":[146.04606,-18.28111]},"properties":{"id":"osm-way487138188","name":"Hinchinbrook Harbour","kind":"marina","source":"OpenStreetMap","sourceRef":"way/487138188","likelyAnchorage":true,"noAnchoring":false,"noAnchoringName":null,"notes":null,"fetchLandNM":[0.3,0.3,0.3,0.3,0.2,0.2,0.2,0.2,0.2,0.2,0.2,0.2,0.2,0.4,1.2,15,15,15,15,15,15,15,15,15,15,15,15,15,15,15,15,15,0.6,0.4,0.4,0.3],"fetchReefNM":[0.3,0.3,0.3,0.3,0.2,0.2,0.2,0.2,0.2,0.2,0.2,0.2,0.2,0.4,1.2,15,15,15,15,15,15,15,15,15,15,15,15,15,15,15,15,15,0.6,0.4,0.4,0.3]}},{"type":"Feature","geometry":{"type":"Point","coordinates":[146.85215,-19.11284]},"properties":{"id":"osm-node813022955","name":"Horseshoe Bay","kind":"anchorage","source":"OpenStreetMap","sourceRef":"node/813022955","likelyAnchorage":true,"noAnchoring":false,"noAnchoringName":null,"notes":null,"fetchLandNM":[15,15,15,15,15,0.8,0.7,0.6,0.7,0.7,0.7,0.6,0.5,0.5,0.4,0.4,0.4,0.3,0.3,0.3,0.3,0.3,0.4,0.4,0.5,0.5,0.6,0.7,0.7,1,15,15,15,15,15,15],"fetchReefNM":[15,15,15,15,0.8,0.7,0.6,0.6,0.6,0.6,0.6,0.6,0.5,0.5,0.4,0.4,0.4,0.3,0.3,0.3,0.3,0.3,0.4,0.4,0.5,0.5,0.6,0.7,0.7,1,15,15,15,15,15,15]}},{"type":"Feature","geometry":{"type":"Point","coordinates":[146.80504,-19.11676]},"properties":{"id":"osm-node2295016772","name":"Huntingfield Bay","kind":"anchorage","source":"OpenStreetMap","sourceRef":"node/2295016772","likelyAnchorage":true,"noAnchoring":false,"noAnchoringName":null,"notes":null,"fetchLandNM":[15,15,15,15,15,15,15,1.4,1.3,0.6,0.1,0.1,0.1,0.1,0.1,0.1,0.1,0.1,0.1,0.1,0.1,0.1,0.1,0.1,0.1,0.1,0.1,0.1,0.1,0.1,11,15,15,15,15,15],"fetchReefNM":[15,15,15,15,15,15,15,1.4,1.3,0.6,0.1,0.1,0.1,0.1,0.1,0.1,0.1,0.1,0.1,0.1,0.1,0.1,0.1,0.1,0.1,0.1,0.1,0.1,0.1,0.1,11,15,15,15,15,15]}},{"type":"Feature","geometry":{"type":"Point","coordinates":[146.81916,-19.11569]},"properties":{"id":"osm-node2295016775","name":"Joyce Bay","kind":"anchorage","source":"OpenStreetMap","sourceRef":"node/2295016775","likelyAnchorage":true,"noAnchoring":false,"noAnchoringName":null,"notes":null,"fetchLandNM":[15,15,15,15,15,0.7,0.7,0.2,0.1,0.1,0.1,0.1,0.1,0.1,0,0,0,0.1,0.1,0.1,0.1,0.1,0.1,0.1,0.1,0.1,0.1,0.2,15,15,15,15,15,15,15,15],"fetchReefNM":[15,15,15,15,15,0.7,0.7,0.2,0.1,0.1,0.1,0.1,0.1,0.1,0,0,0,0.1,0.1,0.1,0.1,0.1,0.1,0.1,0.1,0.1,0.1,0.2,15,15,15,13.9,15,15,15,15]}},{"type":"Feature","geometry":{"type":"Point","coordinates":[146.51599,-18.68329]},"properties":{"id":"osm-node6177930870","name":"Juno Bay","kind":"anchorage","source":"OpenStreetMap","sourceRef":"node/6177930870","likelyAnchorage":true,"noAnchoring":false,"noAnchoringName":null,"notes":null,"fetchLandNM":[0.2,0.2,0.1,0.1,0.1,0.1,0.1,0.1,0.1,0.1,0.1,0.1,0.1,0.1,0.1,0.1,0.1,0.1,0.2,0.3,0.4,15,15,15,15,13.9,12.7,11.6,10.9,11.1,11.6,1.7,1.7,1.7,1.3,0.3],"fetchReefNM":[0.2,0.2,0.1,0.1,0.1,0.1,0.1,0.1,0.1,0.1,0.1,0.1,0.1,0.1,0.1,0.1,0.1,0.1,0.2,0.3,0.4,0.5,0.4,0.3,0.3,0.3,0.3,0.3,0.3,0.3,0.4,0.5,0.8,1.1,1.3,0.3]}},{"type":"Feature","geometry":{"type":"Point","coordinates":[146.30826,-18.34912]},"properties":{"id":"osm-node6334509267","name":"Little Ramsay Bay","kind":"anchorage","source":"OpenStreetMap","sourceRef":"node/6334509267","likelyAnchorage":true,"noAnchoring":false,"noAnchoringName":null,"notes":null,"fetchLandNM":[15,15,15,15,15,15,15,15,15,15,15,0.6,0.6,0.6,0.5,0.3,0.4,0.4,0.4,0.4,0.4,0.4,0.4,0.4,0.4,0.4,0.4,0.4,0.4,0.5,0.5,0.5,1.5,3.6,4.4,5.5],"fetchReefNM":[15,6.7,15,15,15,15,15,15,15,15,15,0.6,0.6,0.6,0.5,0.3,0.4,0.4,0.4,0.4,0.4,0.4,0.4,0.4,0.4,0.4,0.4,0.4,0.4,0.5,0.5,0.5,1.5,3.6,4.4,5.5]}},{"type":"Feature","geometry":{"type":"Point","coordinates":[147.01165,-19.21996]},"properties":{"id":"osm-node6179774336","name":"Long Beach","kind":"anchorage","source":"OpenStreetMap","sourceRef":"node/6179774336","likelyAnchorage":true,"noAnchoring":false,"noAnchoringName":null,"notes":null,"fetchLandNM":[15,1.8,1.4,1,1,0.9,0.7,0.6,0.4,0.4,0.3,0.2,0.2,0.2,0.2,0.2,0.2,0.2,0.2,0.3,0.3,0.4,5.9,7.8,9.2,9.7,9.5,13.2,15,9.8,9.2,9.7,15,15,15,15],"fetchReefNM":[15,1.8,1.4,1,1,0.9,0.7,0.6,0.4,0.4,0.3,0.2,0.2,0.2,0.2,0.2,0.2,0.2,0.2,0.3,0.3,0.4,5.9,7.8,9.2,9.7,9.5,13.2,15,9.6,9.2,9.5,15,15,15,15]}},{"type":"Feature","geometry":{"type":"Point","coordinates":[146.83216,-19.10535]},"properties":{"id":"osm-node2295016778","name":"Lovers Bay","kind":"anchorage","source":"OpenStreetMap","sourceRef":"node/2295016778","likelyAnchorage":true,"noAnchoring":false,"noAnchoringName":null,"notes":null,"fetchLandNM":[15,15,15,15,0,0,0,0,0,0,0,0,0,0,0,0,0,0,0,0,0,0.1,0.2,1,1.4,1.8,14.1,15,15,12.7,15,15,15,15,15,15],"fetchReefNM":[15,15,15,15,0,0,0,0,0,0,0,0,0,0,0,0,0,0,0,0,0,0.1,0.2,1,1.4,1.8,4.5,15,15,12.7,15,15,15,15,15,15]}},{"type":"Feature","geometry":{"type":"Point","coordinates":[146.2169,-18.21154]},"properties":{"id":"osm-node6334509142","name":"Macushla Bay","kind":"anchorage","source":"OpenStreetMap","sourceRef":"node/6334509142","likelyAnchorage":true,"noAnchoring":false,"noAnchoringName":null,"notes":null,"fetchLandNM":[15,15,0.7,0.5,0.5,0.5,0.5,0.4,0.4,0.4,0.4,0.4,0.5,0.5,0.6,0.7,0.8,0.8,0.9,4.2,4,3.8,4.1,4.2,4.4,5,11.6,11.7,12.1,4.4,13.1,3,2.9,3,15,15],"fetchReefNM":[15,15,0.7,0.5,0.5,0.5,0.5,0.4,0.4,0.4,0.4,0.4,0.5,0.5,0.6,0.7,0.8,0.8,0.9,4.2,4,3.8,4.1,4.2,4.4,5,11.6,11.7,12.1,4.4,3.4,2.9,2.9,3,15,10.7]}},{"type":"Feature","geometry":{"type":"Point","coordinates":[146.22044,-18.2288]},"properties":{"id":"osm-node6562263976","name":"Macushla Cove","kind":"anchorage","source":"OpenStreetMap","sourceRef":"node/6562263976","likelyAnchorage":true,"noAnchoring":false,"noAnchoringName":null,"notes":null,"fetchLandNM":[0,0,0,0,0,0,0.1,0.1,0.1,0.1,0.1,0.1,0.2,0.5,0.8,0.9,1,3.1,3.3,3.2,3.2,3.1,3.1,3.3,3.7,4.1,4.8,11.6,12.2,12.9,0.1,0.1,0.1,0.1,0,0],"fetchReefNM":[0,0,0,0,0,0,0.1,0.1,0.1,0.1,0.1,0.1,0.2,0.5,0.8,0.9,1,3.1,3.3,3.2,3.2,3.1,3.1,3.3,3.7,4.1,4.8,11.6,12.2,12.9,0.1,0.1,0.1,0.1,0,0]}},{"type":"Feature","geometry":{"type":"Point","coordinates":[146.82761,-19.11134]},"properties":{"id":"osm-node6179841429","name":"Maud Bay","kind":"anchorage","source":"OpenStreetMap","sourceRef":"node/6179841429","likelyAnchorage":true,"noAnchoring":false,"noAnchoringName":null,"notes":null,"fetchLandNM":[15,15,0.1,0.1,0.1,0.1,0.2,0.1,0.1,0.1,0.1,0.1,0.1,0.1,0.1,0.1,0.1,0.1,0.1,0.2,0.2,0.2,0.2,0.3,0.6,1,1.5,15,15,13.3,15,13.8,15,15,15,15],"fetchReefNM":[15,15,0.1,0.1,0.1,0.1,0.2,0.1,0.1,0.1,0.1,0.1,0.1,0.1,0.1,0.1,0.1,0.1,0.1,0.2,0.2,0.2,0.2,0.3,0.6,1,1.5,15,15,12.8,15,10.5,15,15,15,15]}},{"type":"Feature","geometry":{"type":"Point","coordinates":[146.1994,-18.24379]},"properties":{"id":"osm-node3020493010","name":"Missionary Bay","kind":"anchorage","source":"OpenStreetMap","sourceRef":"node/3020493010","likelyAnchorage":true,"noAnchoring":false,"noAnchoringName":null,"notes":null,"fetchLandNM":[12.4,15,15,2.6,2.2,1.5,1.6,1.7,1.7,1.7,1.7,2,2.8,2.4,2.9,2.8,2.5,2.2,2.1,1.9,1.7,1.6,1.6,1.9,2.2,2.3,2.6,3.5,10.8,11.7,12.7,13.4,4.8,4.5,4.1,4.4],"fetchReefNM":[11.5,15,15,2.6,2.2,1.5,1.6,1.7,1.7,1.7,1.7,2,2.8,2.4,2.9,2.8,2.5,2.2,2.1,1.9,1.7,1.6,1.6,1.9,2.2,2.3,2.6,3.5,10.8,11.7,12.7,13.4,4.7,4.2,3.9,4.4]}},{"type":"Feature","geometry":{"type":"Point","coordinates":[146.34188,-18.45562]},"properties":{"id":"osm-node3020493028","name":"Mulligan Bay","kind":"anchorage","source":"OpenStreetMap","sourceRef":"node/3020493028","likelyAnchorage":true,"noAnchoring":false,"noAnchoringName":null,"notes":null,"fetchLandNM":[1.5,1.7,2.3,15,15,15,15,15,15,15,15,15,9.9,10.5,12.8,15,15,15,5.7,4.2,4.4,1.3,1.2,1,0.9,0.9,0.8,0.8,0.8,0.8,0.8,0.7,0.9,0.9,1,1.5],"fetchReefNM":[1.5,1.7,2.3,15,15,15,15,15,15,15,15,15,9.9,10.4,12.8,15,15,15,5.7,4.2,4.4,1.3,1.2,1,0.9,0.9,0.8,0.8,0.8,0.8,0.8,0.7,0.9,0.9,1,1.5]}},{"type":"Feature","geometry":{"type":"Point","coordinates":[146.62648,-18.76382]},"properties":{"id":"osm-node6177930859","name":"Mundy bay","kind":"anchorage","source":"OpenStreetMap","sourceRef":"node/6177930859","likelyAnchorage":true,"noAnchoring":false,"noAnchoringName":null,"notes":null,"fetchLandNM":[0.2,0.2,0.2,0.2,0.2,0.2,0.3,0.3,0.4,0.4,0.5,0.6,0.9,15,15,15,15,15,15,15,15,15,15,6.5,15,15,2.5,0.5,0.5,0.5,0.4,0.3,0.3,0.2,0.2,0.2],"fetchReefNM":[0.1,0.1,0.1,0.1,0.2,0.2,0.2,0.2,0.3,0.4,0.4,0.5,0.8,1.1,0.9,0.7,0.6,0.5,0.5,0.5,0.4,0.5,0.5,0.5,0.6,0.8,0.5,0.5,0.5,0.4,0.3,0.3,0.2,0.2,0.2,0.1]}},{"type":"Feature","geometry":{"type":"Point","coordinates":[146.85147,-19.16411]},"properties":{"id":"osm-node4739788514","name":"Nelly Bay","kind":"anchorage","source":"OpenStreetMap","sourceRef":"node/4739788514","likelyAnchorage":true,"noAnchoring":false,"noAnchoringName":null,"notes":null,"fetchLandNM":[0.2,0.2,0.2,0.2,0.2,0.2,1.2,15,15,15,9.6,10,9.9,9.9,9.9,9.3,8.9,8.3,6.7,5.2,0.9,0.6,0.3,0.2,0.2,0.2,0.1,0.1,0.1,0.1,0.1,0.1,0.2,0.2,0.2,0.2],"fetchReefNM":[0.2,0.2,0.2,0.2,0.2,0.2,0.2,0.2,0.2,0.1,0.1,0.1,0.1,0.1,0.1,0.1,0.2,0.2,0.2,0.3,0.5,0.5,0.3,0.2,0.2,0.1,0.1,0.1,0.1,0.1,0.1,0.1,0.1,0.2,0.2,0.2]}},{"type":"Feature","geometry":{"type":"Point","coordinates":[146.85396,-19.15979]},"properties":{"id":"osm-node4738967694","name":"Nelly Bay Marina","kind":"marina","source":"OpenStreetMap","sourceRef":"node/4738967694","likelyAnchorage":true,"noAnchoring":false,"noAnchoringName":null,"notes":null,"fetchLandNM":[0,0.1,0.1,0.1,0,0.1,0.1,0.1,0.1,0.1,0.2,0.1,0.1,0.1,0.1,0.1,0.1,0.1,0.1,0.1,0.1,0.1,0.1,0.1,0.1,0.1,0.2,0.1,0.1,0.1,0,0,0,0,0,0],"fetchReefNM":[0,0.1,0.1,0.1,0,0.1,0.1,0.1,0.1,0.1,0.2,0.1,0.1,0.1,0.1,0.1,0.1,0.1,0.1,0.1,0.1,0.1,0.1,0.1,0.1,0.1,0.2,0.1,0.1,0.1,0,0,0,0,0,0]}},{"type":"Feature","geometry":{"type":"Point","coordinates":[147.76642,-19.82847]},"properties":{"id":"osm-node3020493251","name":"Nobbies Inlet","kind":"anchorage","source":"OpenStreetMap","sourceRef":"node/3020493251","likelyAnchorage":true,"noAnchoring":false,"noAnchoringName":null,"notes":null,"fetchLandNM":[2.1,0.6,0.6,0.4,0.3,0.3,0.3,0.3,0.4,0.4,0.5,0.4,0.4,0.4,0.4,0.4,0.5,0.5,0.6,0.6,0.5,0.5,0.6,0.7,0.8,1,1.5,5.3,5.9,9,11.2,12.3,15,15,15,3],"fetchReefNM":[2.1,0.6,0.6,0.4,0.3,0.3,0.3,0.3,0.4,0.4,0.5,0.4,0.4,0.4,0.4,0.4,0.5,0.5,0.6,0.6,0.5,0.5,0.6,0.7,0.8,1,1.5,5.3,5.9,9,11.2,12.3,15,15,15,3]}},{"type":"Feature","geometry":{"type":"Point","coordinates":[146.82524,-19.11306]},"properties":{"id":"osm-node2295016785","name":"Norris Bay","kind":"anchorage","source":"OpenStreetMap","sourceRef":"node/2295016785","likelyAnchorage":true,"noAnchoring":false,"noAnchoringName":null,"notes":null,"fetchLandNM":[15,15,15,15,0.3,0.3,0.3,0.2,0.2,0.1,0.1,0.1,0.1,0.1,0.1,0.1,0.1,0.1,0.1,0.1,0.1,0.1,0.1,0.1,0.1,0.5,1.3,15,15,13.3,15,13.9,15,15,15,15],"fetchReefNM":[15,15,15,15,0.3,0.3,0.3,0.2,0.2,0.1,0.1,0.1,0.1,0.1,0.1,0.1,0.1,0.1,0.1,0.1,0.1,0.1,0.1,0.1,0.1,0.5,1.3,15,15,13,15,10.8,15,15,15,15]}},{"type":"Feature","geometry":{"type":"Point","coordinates":[146.64982,-18.73594]},"properties":{"id":"osm-node3020493259","name":"North East Bay","kind":"anchorage","source":"OpenStreetMap","sourceRef":"node/3020493259","likelyAnchorage":true,"noAnchoring":false,"noAnchoringName":null,"notes":null,"fetchLandNM":[15,15,15,15,15,15,15,15,15,15,1.5,1.3,1.2,1,0.9,0.8,0.8,0.8,0.8,0.9,0.9,0.9,0.9,0.9,0.9,0.9,0.9,0.8,0.8,0.9,1,1.7,13.6,15,15,15],"fetchReefNM":[15,15,15,15,15,15,15,15,15,15,1.5,1.3,1,0.8,0.7,0.6,0.6,0.6,0.6,0.6,0.6,0.6,0.6,0.6,0.6,0.6,0.6,0.6,0.7,0.8,0.9,1.3,13.4,15,15,15]}},{"type":"Feature","geometry":{"type":"Point","coordinates":[146.23445,-18.21185]},"properties":{"id":"osm-node7604490690","name":"North Shepherd Bay","kind":"anchorage","source":"OpenStreetMap","sourceRef":"node/7604490690","likelyAnchorage":true,"noAnchoring":false,"noAnchoringName":null,"notes":null,"fetchLandNM":[15,15,15,5,4.9,5.1,15,15,15,15,15,3.7,3.3,2.6,2.1,0.8,0.7,0.6,0.6,0.6,0.5,0.4,0.3,0.3,0.3,0.3,0.3,0.3,0.3,0.3,0.4,0.5,0.5,0.7,0.8,10.6],"fetchReefNM":[15,15,15,3.7,4.8,5,15,15,15,15,15,3.7,3.3,2.6,2.1,0.8,0.7,0.6,0.6,0.6,0.5,0.4,0.3,0.3,0.3,0.3,0.3,0.3,0.3,0.3,0.4,0.5,0.5,0.7,0.8,9.7]}},{"type":"Feature","geometry":{"type":"Point","coordinates":[146.58446,-18.6795]},"properties":{"id":"osm-node6177930862","name":"Numbullabudgee Bay","kind":"anchorage","source":"OpenStreetMap","sourceRef":"node/6177930862","likelyAnchorage":true,"noAnchoring":false,"noAnchoringName":null,"notes":null,"fetchLandNM":[15,15,15,15,15,15,15,15,15,15,15,0.5,0.4,0.4,0.4,0.4,0.3,0.3,0.3,0.3,0.3,0.3,0.3,0.3,0.3,0.4,0.4,0.4,0.4,1.1,1.1,6.3,7.9,9.3,15,15],"fetchReefNM":[15,15,15,15,15,15,15,15,15,15,15,0.5,0.4,0.1,0.1,0.1,0,0,0,0,0,0,0,0,0,0,0.1,0.1,0.1,1,1,1.6,7.6,9.3,15,15]}},{"type":"Feature","geometry":{"type":"Point","coordinates":[146.60908,-18.75992]},"properties":{"id":"osm-node6177930858","name":"Onion Bay","kind":"anchorage","source":"OpenStreetMap","sourceRef":"node/6177930858","likelyAnchorage":true,"noAnchoring":false,"noAnchoringName":null,"notes":null,"fetchLandNM":[0.1,0.1,0.1,0.1,0.1,0.2,0.2,0.2,0.2,0.2,0.2,0.3,0.4,15,15,15,15,15,15,15,15,15,6,15,15,1.7,0.2,0.2,0.2,0.2,0.2,0.1,0.1,0.1,0.1,0.1],"fetchReefNM":[0.1,0.1,0.1,0.1,0.1,0.1,0.1,0.1,0.1,0.2,0.2,0.2,0.3,1,0.7,0.6,0.5,0.5,0.4,0.4,0.4,0.4,0.5,0.6,0.8,0.2,0.2,0.2,0.2,0.2,0.1,0.1,0.1,0.1,0.1,0.1]}},{"type":"Feature","geometry":{"type":"Point","coordinates":[147.04652,-19.23508]},"properties":{"id":"osm-node3020493278","name":"Paradise Bay","kind":"anchorage","source":"OpenStreetMap","sourceRef":"node/3020493278","likelyAnchorage":true,"noAnchoring":false,"noAnchoringName":null,"notes":null,"fetchLandNM":[15,15,15,15,15,15,15,15,15,15,15,15,15,1.2,14.8,0.3,0.3,0.3,0.3,0.2,0.2,0.2,0.1,0.1,0.1,0.1,0.1,0.1,0.1,0.2,0.2,0.2,0.3,0.4,0.4,0.5],"fetchReefNM":[2.7,15,3.5,15,15,15,15,15,15,15,15,15,15,1.2,14.8,0.3,0.3,0.3,0.3,0.2,0.2,0.2,0.1,0.1,0.1,0.1,0.1,0.1,0.1,0.2,0.2,0.2,0.3,0.4,0.4,0.5]}},{"type":"Feature","geometry":{"type":"Point","coordinates":[146.56824,-18.75659]},"properties":{"id":"osm-node6177930856","name":"Pencil Bay","kind":"anchorage","source":"OpenStreetMap","sourceRef":"node/6177930856","likelyAnchorage":true,"noAnchoring":false,"noAnchoringName":null,"notes":null,"fetchLandNM":[0.2,0.2,0.1,0.1,0.1,0.1,0.1,0.1,0.1,0.1,0.1,0.1,0.1,0.1,0.1,0.1,0.1,0.1,0.1,15,4.9,15,1.2,1.2,15,2,3,15,15,15,15,15,4,5,12.4,0.2],"fetchReefNM":[0.2,0.2,0.1,0.1,0.1,0.1,0.1,0.1,0.1,0.1,0.1,0.1,0.1,0.1,0.1,0.1,0.1,0.1,0.1,15,4.9,4.9,1.2,1.2,1.2,2,3,15,15,15,15,15,4,5,12.2,0.2]}},{"type":"Feature","geometry":{"type":"Point","coordinates":[146.8405,-19.17994]},"properties":{"id":"osm-node2122458823","name":"Picnic Bay","kind":"anchorage","source":"OpenStreetMap","sourceRef":"node/2122458823","likelyAnchorage":true,"noAnchoring":false,"noAnchoringName":null,"notes":null,"fetchLandNM":[0.1,0.1,0.1,0.1,0.1,0.1,0.1,0.1,0.1,0.2,0.2,0.3,9.9,9.8,9.1,8.4,8,6.5,4,4.3,4.4,4.1,4.6,4.4,4.1,0.2,0.1,0.1,0.1,0.1,0.1,0.1,0.1,0.1,0.1,0.1],"fetchReefNM":[0.1,0.1,0.1,0.1,0.1,0.1,0.1,0.1,0.1,0.2,0.2,0.3,9.9,9.8,9.1,8.4,8,0.3,0.2,0.2,0.3,0.3,0.3,0.3,0.4,0.2,0.1,0.1,0.1,0.1,0.1,0.1,0.1,0.1,0.1,0.1]}},{"type":"Feature","geometry":{"type":"Point","coordinates":[146.48898,-18.59746]},"properties":{"id":"osm-node6177930869","name":"Pioneer Bay","kind":"anchorage","source":"OpenStreetMap","sourceRef":"node/6177930869","likelyAnchorage":true,"noAnchoring":false,"noAnchoringName":null,"notes":null,"fetchLandNM":[0.3,0.3,0.3,0.3,0.3,0.3,0.3,0.3,0.3,0.3,0.3,0.3,0.3,0.3,0.2,0.2,0.2,0.2,0.2,1,15,15,15,14.9,12.1,9.9,9.1,8.6,8.5,8.9,12.4,11.9,0.3,0.2,0.2,0.2],"fetchReefNM":[0.2,0.2,0.2,0.2,0.2,0.2,0.2,0.2,0.2,0.2,0.2,0.2,0.2,0.2,0.2,0.2,0.1,0.1,0,0,0,0,0,0,0,0,0,0,0,0.1,0.1,0.1,0.1,0.1,0.1,0.1]}},{"type":"Feature","geometry":{"type":"Point","coordinates":[146.48894,-18.61145]},"properties":{"id":"osm-node11342850776","name":"Pioneer Bay","kind":"anchorage","source":"OpenStreetMap","sourceRef":"node/11342850776","likelyAnchorage":true,"noAnchoring":false,"noAnchoringName":null,"notes":null,"fetchLandNM":[0.5,0.3,0.2,0.2,0.1,0.1,0.1,0.1,0.1,0.1,0.1,0.1,0.1,0.1,0.1,0.1,0.1,0.1,0.1,0.1,0.1,0.1,0.2,0.2,0.2,0.2,8.9,8.7,8.7,9,9.9,12,13.5,15,15,1.1],"fetchReefNM":[0.4,0.3,0.2,0.1,0.1,0.1,0.1,0.1,0.1,0.1,0.1,0.1,0.1,0.1,0.1,0.1,0.1,0.1,0.1,0.1,0.1,0.1,0.1,0.2,0.2,0.2,0.3,0.3,0.2,0.2,0.2,0.2,0.2,0.2,0.2,0.2]}},{"type":"Feature","geometry":{"type":"Point","coordinates":[146.87515,-19.11242]},"properties":{"id":"osm-node473371062","name":"Radical Bay","kind":"anchorage","source":"OpenStreetMap","sourceRef":"node/473371062","likelyAnchorage":true,"noAnchoring":false,"noAnchoringName":null,"notes":null,"fetchLandNM":[15,15,15,15,15,0.1,0.1,0.1,0.1,0.1,0.1,0.1,0.1,0.1,0,0,0,0,0,0,0,0,0,0.1,0.1,0.1,0.1,0.1,0.1,0.2,0.2,0.3,15,15,15,15],"fetchReefNM":[15,15,15,15,15,0.1,0.1,0.1,0.1,0.1,0.1,0.1,0.1,0.1,0,0,0,0,0,0,0,0,0,0.1,0.1,0.1,0.1,0.1,0.1,0.2,0.2,0.3,15,15,15,15]}},{"type":"Feature","geometry":{"type":"Point","coordinates":[146.30057,-18.29323]},"properties":{"id":"osm-node3020493580","name":"Ramsay Bay","kind":"anchorage","source":"OpenStreetMap","sourceRef":"node/3020493580","likelyAnchorage":true,"noAnchoring":false,"noAnchoringName":null,"notes":null,"fetchLandNM":[2.9,15,15,15,15,15,15,15,15,15,15,15,15,15,15,15,4.2,3.7,3,2.7,2.1,2.1,2.1,1.9,1.7,1.5,1.4,1.3,1.2,1.2,1.3,1.3,1.4,1.6,1.9,2.4],"fetchReefNM":[2.9,15,3.5,15,15,15,15,15,15,15,15,15,15,15,15,15,4.2,3.7,3,2.7,2.1,2.1,2.1,1.9,1.7,1.5,1.4,1.3,1.2,1.2,1.3,1.3,1.4,1.6,1.9,2.4]}},{"type":"Feature","geometry":{"type":"Point","coordinates":[147.01853,-19.20052]},"properties":{"id":"osm-node3020493590","name":"Red Rock Bay","kind":"anchorage","source":"OpenStreetMap","sourceRef":"node/3020493590","likelyAnchorage":true,"noAnchoring":false,"noAnchoringName":null,"notes":null,"fetchLandNM":[0.5,0.3,0.2,0.1,0.1,0.1,0.1,0.2,0.2,0.2,0.2,0.2,0.2,0.2,0.1,0.1,0.1,0.1,0.1,1.3,1.6,6.3,7.7,9.7,10.3,10.7,13.2,13.8,9.9,8.8,8.8,15,15,15,15,0.6],"fetchReefNM":[0.5,0.3,0.2,0.1,0.1,0.1,0.1,0.2,0.2,0.2,0.2,0.2,0.2,0.2,0.1,0.1,0.1,0.1,0.1,1.3,1.6,6.3,7.7,9.7,10.3,10.7,13.2,11.3,9.8,8.8,8.8,15,15,15,15,0.6]}},{"type":"Feature","geometry":{"type":"Point","coordinates":[146.57504,-18.73899]},"properties":{"id":"osm-node6177930865","name":"Regina Bay","kind":"anchorage","source":"OpenStreetMap","sourceRef":"node/6177930865","likelyAnchorage":true,"noAnchoring":false,"noAnchoringName":null,"notes":null,"fetchLandNM":[3.2,2.3,0.4,0.2,0.1,0.1,0.1,0.1,0.1,0.1,0.1,0.1,0.1,0.1,0.1,0.1,0.1,0.1,0.1,0.1,0.8,0.8,2.3,2.9,3.5,15,15,15,15,15,3.4,3.7,4.4,7.7,3.3,3.9],"fetchReefNM":[3.2,2.2,0.2,0.1,0.1,0,0,0,0,0,0,0,0,0,0,0,0,0,0,0.1,0.1,0.8,0.7,0.5,0.4,0.4,0.3,0.3,0.3,0.3,0.3,0.4,0.4,0.5,0.9,1.5]}},{"type":"Feature","geometry":{"type":"Point","coordinates":[146.03753,-18.13977]},"properties":{"id":"osm-node3020493603","name":"Rockingham Bay","kind":"anchorage","source":"OpenStreetMap","sourceRef":"node/3020493603","likelyAnchorage":true,"noAnchoring":false,"noAnchoringName":null,"notes":null,"fetchLandNM":[5.3,7.8,10.4,10.9,10.3,15,10.8,15,15,13.7,7,11.1,12.6,13.2,7.4,6.7,6.7,10,8,6.7,4.3,3.3,2.7,2.1,1.9,1.8,1.8,1.8,1.8,1.9,2,2.1,2.2,2.4,2.7,3.4],"fetchReefNM":[5.3,7.8,10.4,10.9,10.1,15,10.6,15,15,13.6,6.7,7,12.6,13.2,7.4,6.7,6.7,10,8,6.7,4.3,3.3,2.7,2.1,1.9,1.8,1.8,1.8,1.8,1.9,2,2.1,2.2,2.4,2.7,3.4]}},{"type":"Feature","geometry":{"type":"Point","coordinates":[146.846,-19.17563]},"properties":{"id":"osm-node2122458827","name":"Rocky Bay","kind":"anchorage","source":"OpenStreetMap","sourceRef":"node/2122458827","likelyAnchorage":true,"noAnchoring":false,"noAnchoringName":null,"notes":null,"fetchLandNM":[0.2,0.3,1,1,1.9,15,15,15,15,15,10,9.6,9.8,9.9,9.7,8.7,0.2,0.1,0.1,0.1,0.1,0.1,0.1,0.1,0.1,0,0,0,0,0,0,0.1,0.1,0.1,0.1,0.1],"fetchReefNM":[0.1,0.1,0.1,0.2,1.6,15,15,15,15,15,10,9.6,9.8,9.9,9.7,8.7,0.2,0.1,0.1,0.1,0.1,0.1,0.1,0.1,0.1,0,0,0,0,0,0,0.1,0.1,0.1,0.1,0.1]}},{"type":"Feature","geometry":{"type":"Point","coordinates":[146.78536,-19.11914]},"properties":{"id":"osm-node2295016836","name":"Rollingstone Bay","kind":"anchorage","source":"OpenStreetMap","sourceRef":"node/2295016836","likelyAnchorage":true,"noAnchoring":false,"noAnchoringName":null,"notes":null,"fetchLandNM":[15,15,15,15,15,0.3,0.3,0.2,0.2,0.2,0.2,0.2,0.1,0.2,0.2,0.2,0.2,0.2,0.2,0.2,0.2,0.2,4.9,7,7.9,9.2,10.7,13.8,15,15,10.8,15,15,15,15,15],"fetchReefNM":[15,15,15,15,15,0.3,0.3,0.2,0.2,0.2,0.2,0.2,0.1,0.2,0.2,0.2,0.2,0.2,0.2,0.2,0.2,0.2,4.9,7,7.9,9.2,10.7,13.8,15,15,10.8,15,15,15,15,15]}},{"type":"Feature","geometry":{"type":"Point","coordinates":[147.75929,-19.72679]},"properties":{"id":"osm-node3024518446","name":"Shark Bay","kind":"anchorage","source":"OpenStreetMap","sourceRef":"node/3024518446","likelyAnchorage":true,"noAnchoring":false,"noAnchoringName":null,"notes":null,"fetchLandNM":[0.2,0.2,0.2,0.1,0.1,0.1,0.1,0.1,0.1,0.1,0.1,0.1,0.1,0.1,0.1,0.1,0.1,0.2,0.2,0.3,0.6,7.3,7.9,7.4,7.9,8.6,9.2,9.6,9.2,8.7,11.9,14.2,15,15,15,0.5],"fetchReefNM":[0.2,0.2,0.2,0.1,0.1,0.1,0.1,0.1,0.1,0.1,0.1,0.1,0.1,0.1,0.1,0.1,0.1,0.2,0.2,0.3,0.6,7.3,7.9,7.4,7.9,8.6,9.2,9.6,9.2,8.7,11.9,14.2,15,15,15,0.5]}},{"type":"Feature","geometry":{"type":"Point","coordinates":[146.2647,-18.21946]},"properties":{"id":"osm-node3020493862","name":"Shepherd Bay","kind":"anchorage","source":"OpenStreetMap","sourceRef":"node/3020493862","likelyAnchorage":true,"noAnchoring":false,"noAnchoringName":null,"notes":null,"fetchLandNM":[15,4.8,4.4,4.3,15,15,15,15,15,15,15,15,1.9,1.7,1.5,1.4,1.3,1.3,1.2,1.2,1.2,1.2,1.4,1.3,1.3,1.3,1.3,1.9,2,2.2,2.3,15,15,15,11.2,15],"fetchReefNM":[15,4.6,4.3,4.2,15,15,15,15,15,15,15,15,1.9,1.7,1.5,1.4,1.3,1.3,1.2,1.2,1.2,1.2,1.4,1.3,1.3,1.3,1.3,1.9,2,2.2,2.3,15,15,15,10.7,15]}},{"type":"Feature","geometry":{"type":"Point","coordinates":[146.88019,-19.12488]},"properties":{"id":"osm-node9054860762","name":"Smugglers Cove","kind":"anchorage","source":"OpenStreetMap","sourceRef":"node/9054860762","likelyAnchorage":true,"noAnchoring":false,"noAnchoringName":null,"notes":null,"fetchLandNM":[0.2,0.2,0.3,0.3,0.3,15,0,0,0,0,0,0,0,0,0,0,0,0,0,0,0,0,0,0,0,0,0,0,0,0,0,0,0,0,0,0],"fetchReefNM":[0.1,0.1,0.2,0.2,0.3,15,0,0,0,0,0,0,0,0,0,0,0,0,0,0,0,0,0,0,0,0,0,0,0,0,0,0,0,0,0,0]}},{"type":"Feature","geometry":{"type":"Point","coordinates":[146.4985,-18.6619]},"properties":{"id":"osm-node6177930866","name":"South Bay","kind":"anchorage","source":"OpenStreetMap","sourceRef":"node/6177930866","likelyAnchorage":true,"noAnchoring":false,"noAnchoringName":null,"notes":null,"fetchLandNM":[0.1,0.1,0.1,0.2,15,15,15,15,0.4,0.5,0.6,0.9,0.9,1,1.7,1.8,2.1,6.3,15,15,15,15,15,15,0.4,0.4,0.3,0.1,0.1,0.1,0.1,0.1,0.1,0.1,0.1,0.1],"fetchReefNM":[0,0.1,0.1,0.1,0.3,0.2,0.2,0.1,0.1,0.1,0.1,0.1,0.1,0.1,0.1,0.1,0.1,0.2,0.2,0.2,0.2,0.3,0.4,0.5,0.4,0.4,0.1,0.1,0.1,0,0,0,0,0,0,0]}},{"type":"Feature","geometry":{"type":"Point","coordinates":[146.24717,-18.22872]},"properties":{"id":"osm-node7604490691","name":"South Shepherd Bay","kind":"anchorage","source":"OpenStreetMap","sourceRef":"node/7604490691","likelyAnchorage":true,"noAnchoring":false,"noAnchoringName":null,"notes":null,"fetchLandNM":[15,15,5.6,15,15,15,15,15,15,15,2.6,1.8,1.3,1,0.7,0.6,0.6,0.4,0.3,0.3,0.2,0.2,0.2,0.2,0.2,0.2,0.2,0.2,0.2,0.3,0.3,0.4,1.7,2,12,15],"fetchReefNM":[15,15,5.4,5.2,15,15,15,15,15,15,2.6,1.8,1.3,1,0.7,0.6,0.6,0.4,0.3,0.3,0.2,0.2,0.2,0.2,0.2,0.2,0.2,0.2,0.2,0.3,0.3,0.4,1.7,2,11.8,15]}},{"type":"Feature","geometry":{"type":"Point","coordinates":[146.33902,-18.43416]},"properties":{"id":"osm-node6334509213","name":"Sunken Reef Bay","kind":"anchorage","source":"OpenStreetMap","sourceRef":"node/6334509213","likelyAnchorage":true,"noAnchoring":false,"noAnchoringName":null,"notes":null,"fetchLandNM":[0.2,0.2,0.2,0.2,0.3,0.3,0.3,15,0.4,15,15,15,15,11.2,13.3,15,15,15,5.5,2.6,1.9,0.5,0.3,0.2,0.2,0.2,0.2,0.2,0.2,0.2,0.2,0.2,0.2,0.2,0.2,0.2],"fetchReefNM":[0.2,0.2,0.2,0.2,0.3,0.3,0.3,15,0.4,15,15,15,15,10.8,13.2,15,15,15,5.5,2.6,1.9,0.5,0.3,0.2,0.2,0.2,0.2,0.2,0.2,0.2,0.2,0.2,0.2,0.2,0.2,0.2]}},{"type":"Feature","geometry":{"type":"Point","coordinates":[147.05302,-19.24466]},"properties":{"id":"osm-node6179780803","name":"Sunset Bay","kind":"anchorage","source":"OpenStreetMap","sourceRef":"node/6179780803","likelyAnchorage":true,"noAnchoring":false,"noAnchoringName":null,"notes":null,"fetchLandNM":[15,15,15,15,15,15,15,15,15,15,0.5,15,15,15,0.2,0.2,0.2,0.1,0.1,0.1,0.1,0.1,0.1,0.1,0.1,0.1,0.1,0.1,0.1,0.1,0.1,0.1,0.1,0.2,1.5,15],"fetchReefNM":[15,3.8,15,15,15,15,15,15,15,15,0.5,15,15,15,0.2,0.2,0.2,0.1,0.1,0.1,0.1,0.1,0.1,0.1,0.1,0.1,0.1,0.1,0.1,0.1,0.1,0.1,0.1,0.2,1.5,15]}},{"type":"Feature","geometry":{"type":"Point","coordinates":[146.15807,-18.38844]},"properties":{"id":"osm-node3020494158","name":"The Boat Passage","kind":"anchorage","source":"OpenStreetMap","sourceRef":"node/3020494158","likelyAnchorage":false,"noAnchoring":false,"noAnchoringName":null,"notes":null,"fetchLandNM":[0.2,0.2,0.2,0.1,0.1,0.1,0.1,0.1,0.1,0.1,0.2,0.2,0.2,0.3,0.4,0.7,1.4,1.8,0.4,0.3,0.3,0.2,0.2,0.2,0.2,0.2,0.3,0.3,0.4,0.4,0.5,0.7,1.2,8.6,0.5,0.3],"fetchReefNM":[0.2,0.2,0.2,0.1,0.1,0.1,0.1,0.1,0.1,0.1,0.2,0.2,0.2,0.3,0.4,0.7,1.4,1.8,0.4,0.3,0.3,0.2,0.2,0.2,0.2,0.2,0.3,0.3,0.4,0.4,0.5,0.7,1.2,8.6,0.5,0.3]}},{"type":"Feature","geometry":{"type":"Point","coordinates":[146.33295,-18.37193]},"properties":{"id":"osm-node6435245212","name":"Thorsborne Bay","kind":"anchorage","source":"OpenStreetMap","sourceRef":"node/6435245212","likelyAnchorage":true,"noAnchoring":false,"noAnchoringName":null,"notes":null,"fetchLandNM":[0.1,0.1,0.1,0.2,15,15,15,15,15,15,15,15,15,15,0.3,0.2,0.2,0.2,0.2,0.2,0.2,0.2,0.2,0.2,0.2,0.2,0.2,0.2,0.2,0.2,0.2,0.2,0.2,0.2,0.1,0.2],"fetchReefNM":[0.1,0.1,0.1,0.2,15,15,15,15,15,15,15,15,15,15,0.3,0.2,0.2,0.2,0.2,0.2,0.2,0.2,0.2,0.2,0.2,0.2,0.2,0.2,0.2,0.2,0.2,0.2,0.2,0.2,0.1,0.2]}},{"type":"Feature","geometry":{"type":"Point","coordinates":[146.83049,-19.27344]},"properties":{"id":"osm-way1093027882","name":"Townsville Recreational Boating Park","kind":"marina","source":"OpenStreetMap","sourceRef":"way/1093027882","likelyAnchorage":true,"noAnchoring":false,"noAnchoringName":null,"notes":null,"fetchLandNM":[1.3,1.3,1.7,0.6,0.4,0.4,0.4,0.4,0.6,0.9,1.3,1.6,2.7,15,15,15,15,15,15,15,15,15,15,15,15,15,15,15,15,15,10,8.1,2.7,1.6,1.2,1.4],"fetchReefNM":[1.3,1.3,1.7,0.6,0.4,0.4,0.4,0.4,0.6,0.9,1.3,1.6,2.7,15,15,15,15,15,15,15,15,15,15,15,15,15,15,15,15,15,10,8.1,2.7,1.6,1.2,1.4]}},{"type":"Feature","geometry":{"type":"Point","coordinates":[146.22961,-18.196]},"properties":{"id":"osm-node6562279644","name":"Turtle Bay","kind":"anchorage","source":"OpenStreetMap","sourceRef":"node/6562279644","likelyAnchorage":true,"noAnchoring":false,"noAnchoringName":null,"notes":null,"fetchLandNM":[15,15,15,15,4.4,4.4,4.7,15,15,15,15,15,0.1,0,0,0,0,0,0,0,0,0,0,0,0.1,0.1,0.1,0,0,0,0,0,0,0,0,0.1],"fetchReefNM":[15,15,15,15,3.1,4.3,4.7,15,15,15,15,15,0.1,0,0,0,0,0,0,0,0,0,0,0,0.1,0.1,0.1,0,0,0,0,0,0,0,0,0.1]}},{"type":"Feature","geometry":{"type":"Point","coordinates":[147.05848,-19.26345]},"properties":{"id":"osm-node12847915290","name":"Turtle Bay","kind":"anchorage","source":"OpenStreetMap","sourceRef":"node/12847915290","likelyAnchorage":true,"noAnchoring":false,"noAnchoringName":null,"notes":null,"fetchLandNM":[0.4,0.4,15,15,15,15,15,15,15,15,15,15,15,15,12,9.9,7.3,0.6,0.2,0.1,0.1,0.1,0,0,0,0,0,0,0,0,0.1,0.1,0.1,0.1,0.2,0.3],"fetchReefNM":[0.4,0.4,15,15,15,15,15,15,15,15,15,15,15,15,12,9.9,7.3,0.6,0.2,0.1,0.1,0.1,0,0,0,0,0,0,0,0,0.1,0.1,0.1,0.1,0.2,0.3]}},{"type":"Feature","geometry":{"type":"Point","coordinates":[147.68771,-19.77151]},"properties":{"id":"osm-node3020494208","name":"Upstart Bay","kind":"anchorage","source":"OpenStreetMap","sourceRef":"node/3020494208","likelyAnchorage":true,"noAnchoring":false,"noAnchoringName":null,"notes":null,"fetchLandNM":[15,15,15,15,15,5.1,4.6,3.7,3.3,3.3,4.3,4.8,5.3,6,4.9,4.6,4.3,3.6,3.7,3.6,3.4,2.7,2.7,2.8,2.9,3.3,3.7,4.3,5,5.5,6.7,6.6,7.6,13.6,15,15],"fetchReefNM":[15,15,15,15,15,5.1,4.6,3.7,3.3,3.3,4.3,4.8,5.3,6,4.9,4.6,4.3,3.6,3.7,3.6,3.4,2.7,2.7,2.8,2.9,3.3,3.7,4.3,5,5.5,6.7,6.6,7.6,13.6,15,15]}},{"type":"Feature","geometry":{"type":"Point","coordinates":[146.86246,-19.10677]},"properties":{"id":"osm-node2295016837","name":"White Lady Bay","kind":"anchorage","source":"OpenStreetMap","sourceRef":"node/2295016837","likelyAnchorage":true,"noAnchoring":false,"noAnchoringName":null,"notes":null,"fetchLandNM":[0.2,0.1,0.1,0.1,0.1,0.1,0.1,0.1,0,0,0,0,0,0,0,0,0.1,0.1,0.1,0.6,0.7,0.8,0.9,1,1.2,1.3,1.3,1.5,15,13.3,15,15,15,15,15,15],"fetchReefNM":[0.2,0.1,0.1,0.1,0.1,0,0,0,0,0,0,0,0,0,0,0,0,0,0.1,0.1,0.1,0.1,0.1,0,0,0,0,0,0,0,0.1,0.1,0.1,0.1,0.2,0.2]}},{"type":"Feature","geometry":{"type":"Point","coordinates":[147.00258,-19.24218]},"properties":{"id":"osm-node6179774335","name":"White Rock Bay","kind":"anchorage","source":"OpenStreetMap","sourceRef":"node/6179774335","likelyAnchorage":true,"noAnchoring":false,"noAnchoringName":null,"notes":null,"fetchLandNM":[0.3,0.2,0.2,0.2,0.2,0.2,0.2,0.2,0.1,0.1,0.1,0.1,0.1,0.1,0.1,0.1,0.1,0.1,0.1,0.4,0.5,2.3,4.4,5.2,7.5,8.3,9.6,11,13.1,15,9.7,9.5,15,15,15,15],"fetchReefNM":[0.3,0.2,0.2,0.2,0.2,0.2,0.2,0.2,0.1,0.1,0.1,0.1,0.1,0.1,0.1,0.1,0.1,0.1,0.1,0.4,0.5,2.3,4.4,5.2,7.5,8.3,9.6,11,13.1,9.8,9.7,9.5,15,15,15,15]}},{"type":"Feature","geometry":{"type":"Point","coordinates":[146.87183,-19.14334]},"properties":{"id":"osm-node2122458864","name":"Whitfield Cove","kind":"anchorage","source":"OpenStreetMap","sourceRef":"node/2122458864","likelyAnchorage":true,"noAnchoring":false,"noAnchoringName":null,"notes":null,"fetchLandNM":[0,0,0,0,0,0,0,15,15,15,15,8.9,9.4,9.6,10,0.1,0.1,0.1,0.1,0.1,0,0,0,0,0,0,0,0.1,0.1,0,0,0,0,0,0,0],"fetchReefNM":[0,0,0,0,0,0,0,15,15,15,15,8.9,9.4,9.6,10,0.1,0.1,0.1,0.1,0.1,0,0,0,0,0,0,0,0.1,0.1,0,0,0,0,0,0,0]}},{"type":"Feature","geometry":{"type":"Point","coordinates":[146.81402,-19.11664]},"properties":{"id":"osm-node2295016838","name":"Wilson Bay","kind":"anchorage","source":"OpenStreetMap","sourceRef":"node/2295016838","likelyAnchorage":true,"noAnchoring":false,"noAnchoringName":null,"notes":null,"fetchLandNM":[15,15,15,15,15,15,0.9,0.1,0.1,0.1,0.1,0.1,0.1,0.1,0.1,0.1,0.1,0.1,0.1,0.1,0.1,0.1,0.1,0.1,0.1,0.1,0.2,0.6,0.9,15,15,15,15,15,15,15],"fetchReefNM":[15,15,15,15,15,15,0.9,0.1,0.1,0.1,0.1,0.1,0.1,0.1,0.1,0.1,0.1,0.1,0.1,0.1,0.1,0.1,0.1,0.1,0.1,0.1,0.2,0.6,0.9,15,15,15,15,15,15,15]}},{"type":"Feature","geometry":{"type":"Point","coordinates":[146.79114,-19.138]},"properties":{"id":"osm-node2295016839","name":"Young Bay","kind":"anchorage","source":"OpenStreetMap","sourceRef":"node/2295016839","likelyAnchorage":true,"noAnchoring":false,"noAnchoringName":null,"notes":null,"fetchLandNM":[0.1,0,0,0,0,0,0,0,0,0.1,0.1,0.1,0.1,0.1,0.2,0.3,7.2,6.5,6.1,4.6,3.2,3.2,3.4,4,6.7,7.9,9.8,13.2,15,15,0.4,0.2,0.2,0.1,0.1,0.1],"fetchReefNM":[0.1,0,0,0,0,0,0,0,0,0.1,0.1,0.1,0.1,0.1,0.2,0,0,0,0,0,0,0,0,0,0,0,0,0,0,0,0,0,0.1,0.1,0.1,0.1]}},{"type":"Feature","geometry":{"type":"Point","coordinates":[146.32718,-18.39113]},"properties":{"id":"osm-node3020494604","name":"Zoe Bay","kind":"anchorage","source":"OpenStreetMap","sourceRef":"node/3020494604","likelyAnchorage":true,"noAnchoring":false,"noAnchoringName":null,"notes":null,"fetchLandNM":[0.5,0.6,0.5,0.5,0.5,0.5,15,15,15,15,15,15,15,15,1.9,0.7,0.6,0.5,0.7,0.6,0.5,0.4,0.3,0.3,0.2,0.2,0.2,0.2,0.2,0.2,0.2,0.2,0.2,0.3,0.3,0.4],"fetchReefNM":[0.5,0.6,0.5,0.5,0.5,0.5,15,15,15,15,15,15,15,15,1.9,0.7,0.6,0.5,0.7,0.6,0.5,0.4,0.3,0.3,0.2,0.2,0.2,0.2,0.2,0.2,0.2,0.2,0.2,0.3,0.3,0.4]}}]}