{"type":"FeatureCollection","meta":{"region":"QLD","tile":"t-20e148","built":"2026-08-25","sources":["OpenStreetMap (ODbL)","GBRMPA (CC BY)"]},"features":[{"type":"Feature","geometry":{"type":"Point","coordinates":[148.25726,-19.98101]},"properties":{"id":"osm-node2525196362","name":"Greys Bay","kind":"anchorage","source":"OpenStreetMap","sourceRef":"node/2525196362","likelyAnchorage":true,"noAnchoring":false,"noAnchoringName":null,"notes":null,"fetchLandNM":[15,15,15,0.2,0.1,0.1,0.1,0.1,0.1,0.1,0.1,0.1,0.1,0.1,0.1,0.1,0.1,0.1,0.2,0.3,0.3,0.3,0.4,0.5,0.6,0.8,1.1,1.3,1.5,1.7,2.1,15,15,15,15,15],"fetchReefNM":[15,15,15,0.2,0.1,0.1,0.1,0.1,0.1,0.1,0.1,0.1,0.1,0.1,0.1,0.1,0.1,0.1,0.2,0.3,0.3,0.3,0.4,0.5,0.6,0.8,1.1,1.3,1.5,1.7,2.1,15,15,15,15,15]}},{"type":"Feature","geometry":{"type":"Point","coordinates":[149.14001,-19.7408]},"properties":{"id":"gbrmpa-80022","name":"Hardy Reef","kind":"designated_anchorage","source":"GBRMPA","sourceRef":"80022","likelyAnchorage":true,"noAnchoring":false,"noAnchoringName":null,"notes":"The area within 200 metres of the point 19°44.450′S 149°08.400′E · Management area: Townsville/Whitsunday management area · Great Barrier Reef Marine Park Regulations 2019","fetchLandNM":[15,15,15,15,15,15,15,15,15,15,15,15,15,15,15,15,15,15,15,15,15,15,15,15,15,15,15,15,15,15,15,15,15,15,15,15],"fetchReefNM":[15,15,15,10.2,4.5,3.9,3.2,3.2,1.6,1.3,1.6,1.9,2.7,5.3,5.7,5.3,4.7,4.3,4.2,15,15,15,4.9,4.9,15,15,15,15,15,15,15,15,15,15,14.6,11.3]}},{"type":"Feature","geometry":{"type":"Point","coordinates":[148.2618,-19.97867]},"properties":{"id":"osm-node5798548473","name":"Horseshoe Bay","kind":"anchorage","source":"OpenStreetMap","sourceRef":"node/5798548473","likelyAnchorage":true,"noAnchoring":false,"noAnchoringName":null,"notes":null,"fetchLandNM":[15,0.5,15,15,15,15,15,15,15,10.2,10.4,11,11.7,14.9,0,0.1,0.1,0.1,0.1,0.1,0.1,0.1,0.1,0.1,0.1,0.1,0,0,0,0,0,0.1,0.1,0.1,0.1,0.1],"fetchReefNM":[15,0.5,15,15,15,15,15,15,15,10.2,10.4,11,11.7,14.9,0,0.1,0.1,0.1,0.1,0.1,0.1,0.1,0.1,0.1,0.1,0.1,0,0,0,0,0,0.1,0.1,0.1,0.1,0.1]}},{"type":"Feature","geometry":{"type":"Point","coordinates":[148.26539,-19.9823]},"properties":{"id":"osm-node2525196311","name":"Murray Bay","kind":"anchorage","source":"OpenStreetMap","sourceRef":"node/2525196311","likelyAnchorage":true,"noAnchoring":false,"noAnchoringName":null,"notes":null,"fetchLandNM":[15,15,15,15,15,15,15,15,15,9.9,10.1,10.7,11.4,14.6,14.5,0.1,0.1,0.1,0.1,0.1,0.1,0.1,0.1,0.1,0.1,0.1,0.1,0.1,0.1,0.1,0.2,0.2,0.4,15,15,15],"fetchReefNM":[15,15,15,15,15,15,15,15,15,9.9,10.1,10.7,11.4,14.6,14.5,0.1,0.1,0.1,0.1,0.1,0.1,0.1,0.1,0.1,0.1,0.1,0.1,0.1,0.1,0.1,0.2,0.2,0.4,15,15,15]}},{"type":"Feature","geometry":{"type":"Point","coordinates":[148.24665,-19.98104]},"properties":{"id":"osm-node2438722191","name":"Queens Bay","kind":"anchorage","source":"OpenStreetMap","sourceRef":"node/2438722191","likelyAnchorage":true,"noAnchoring":false,"noAnchoringName":null,"notes":null,"fetchLandNM":[15,15,15,15,15,15,15,0.8,0.7,0.7,0.6,0.7,0.6,0.5,0.4,0.3,0.3,0.3,0.3,0.3,0.3,0.3,0.3,0.4,0.4,0.5,0.6,0.7,0.8,1,1.2,1.6,15,15,15,15],"fetchReefNM":[15,15,15,15,15,15,15,0.8,0.7,0.7,0.6,0.7,0.6,0.5,0.4,0.3,0.3,0.3,0.3,0.3,0.3,0.3,0.3,0.4,0.4,0.5,0.6,0.7,0.8,1,1.2,1.6,15,15,15,15]}},{"type":"Feature","geometry":{"type":"Point","coordinates":[148.26728,-19.99002]},"properties":{"id":"osm-node2415446270","name":"Rose Bay","kind":"anchorage","source":"OpenStreetMap","sourceRef":"node/2415446270","likelyAnchorage":true,"noAnchoring":false,"noAnchoringName":null,"notes":null,"fetchLandNM":[15,15,15,15,15,15,15,15,15,9.7,9.8,15,11.3,14.3,13.3,2.9,2.4,5.3,0.1,0.1,0.1,0.1,0.1,0.1,0.1,0.1,0.1,0.1,0.1,0.1,0.1,0.1,0.1,0.1,0.1,0.1],"fetchReefNM":[15,15,15,15,15,15,15,15,15,9.7,9.8,15,11.3,14.3,13.3,2.9,2.4,5.3,0.1,0.1,0.1,0.1,0.1,0.1,0.1,0.1,0.1,0.1,0.1,0.1,0.1,0.1,0.1,0.1,0.1,0.1]}}]}