{"type":"FeatureCollection","meta":{"tile":"t-20e148","built":"2026-08-25"},"features":[{"type":"Feature","geometry":{"type":"Polygon","coordinates":[[[149.078007630159,-19.8230037535115],[149.067874005912,-19.823001866657],[149.063939115485,-19.8200218843],[149.060739317679,-19.8098521469439],[149.060739317949,-19.8069864309195],[149.063390156752,-19.8069864311429],[149.07800951631,-19.8214032254981],[149.078007630159,-19.8230037535115]]]},"properties":{"id":"gbrmpa-noanchor-6","name":"Bait Reef","type":"No-anchoring area","source":"GBRMPA","legal":"Whitsundays Plan of Management — Schedule 3, clause 1"}}]}