{"type":"FeatureCollection","meta":{"region":"QLD","tile":"t-22e150","built":"2026-08-25","sources":["OpenStreetMap (ODbL)","GBRMPA (CC BY)"]},"features":[{"type":"Feature","geometry":{"type":"Point","coordinates":[150.25836,-21.51923]},"properties":{"id":"osm-node3020491083","name":"Battle Bay","kind":"anchorage","source":"OpenStreetMap","sourceRef":"node/3020491083","likelyAnchorage":true,"noAnchoring":false,"noAnchoringName":null,"notes":null,"fetchLandNM":[1.9,2.2,1.9,2.2,15,15,0.6,0.5,0.3,0.2,0.2,0.2,0.1,0.2,0.2,0.1,0.1,0.1,0.1,0.1,0.1,0.1,0.2,0.2,0.2,0.2,0.2,0.2,0.4,15,15,15,15,15,15,15],"fetchReefNM":[1.9,2.2,1.9,2.2,15,15,0.6,0.5,0.3,0.2,0.2,0.2,0.1,0.2,0.2,0.1,0.1,0.1,0.1,0.1,0.1,0.1,0.2,0.2,0.2,0.2,0.2,0.2,0.4,15,15,15,15,15,15,15]}},{"type":"Feature","geometry":{"type":"Point","coordinates":[150.33427,-21.65359]},"properties":{"id":"osm-node3020491124","name":"Blunt Bay","kind":"anchorage","source":"OpenStreetMap","sourceRef":"node/3020491124","likelyAnchorage":true,"noAnchoring":false,"noAnchoringName":null,"notes":null,"fetchLandNM":[15,15,0.3,0.2,0.2,0.2,0.2,0.2,0.2,0.2,0.2,0.2,0.3,0.3,0.2,0.2,0.2,0.2,0.2,0.2,0.3,0.3,0.3,0.5,0.6,2,2.1,2.3,2.5,5,15,15,15,8.8,10.6,15],"fetchReefNM":[15,15,0.3,0.2,0.2,0.2,0.2,0.2,0.2,0.2,0.2,0.2,0.3,0.3,0.2,0.2,0.2,0.2,0.2,0.2,0.3,0.3,0.3,0.5,0.6,2,2.1,2.3,2.5,5,15,15,15,8.8,10.6,15]}},{"type":"Feature","geometry":{"type":"Point","coordinates":[150.68343,-21.9574]},"properties":{"id":"osm-node3020491488","name":"Camp Cove","kind":"anchorage","source":"OpenStreetMap","sourceRef":"node/3020491488","likelyAnchorage":true,"noAnchoring":false,"noAnchoringName":null,"notes":null,"fetchLandNM":[0.1,0.1,0.1,0.1,0.1,0.1,0.1,0.1,0.2,0.2,0.2,0.2,0.2,0.2,0.2,0.2,0.2,0.3,0.3,0.2,0.3,0.3,0.4,15,15,13.6,15,15,15,15,15,15,15,15,0.1,0.1],"fetchReefNM":[0.1,0.1,0.1,0.1,0.1,0.1,0.1,0.1,0.2,0.2,0.2,0.2,0.2,0.2,0.2,0.2,0.2,0.3,0.3,0.2,0.3,0.3,0.4,15,15,13.6,15,15,15,15,15,15,15,15,0.1,0.1]}},{"type":"Feature","geometry":{"type":"Point","coordinates":[150.30959,-21.73861]},"properties":{"id":"osm-node3020493261","name":"North West Bay","kind":"anchorage","source":"OpenStreetMap","sourceRef":"node/3020493261","likelyAnchorage":true,"noAnchoring":false,"noAnchoringName":null,"notes":null,"fetchLandNM":[15,4.9,4.4,15,15,15,0.5,3.2,2.8,0.2,0.2,0.1,0.1,0.1,0.1,0.1,0.1,0.1,0.1,0.1,0.1,0.1,0.2,0.2,0.3,0.3,15,15,15,15,15,15,5.4,4,3.8,4.2],"fetchReefNM":[15,4.9,4.4,15,15,15,0.5,3.2,2.8,0.2,0.2,0.1,0.1,0.1,0.1,0.1,0.1,0.1,0.1,0.1,0.1,0.1,0.2,0.2,0.3,0.3,15,15,15,15,15,15,5.4,4,3.8,4.2]}},{"type":"Feature","geometry":{"type":"Point","coordinates":[150.25919,-21.67468]},"properties":{"id":"osm-node3020493594","name":"Rescue Bay","kind":"anchorage","source":"OpenStreetMap","sourceRef":"node/3020493594","likelyAnchorage":true,"noAnchoring":false,"noAnchoringName":null,"notes":null,"fetchLandNM":[0.3,0.2,0.2,0.2,0.2,0.2,0.3,0.4,0.5,0.6,0.6,0.8,6.4,6.2,5,4.7,15,15,15,15,15,15,15,15,15,15,0.7,0.7,0.8,0.7,0.6,0.6,0.5,0.3,0.3,0.3],"fetchReefNM":[0.3,0.2,0.2,0.2,0.2,0.2,0.3,0.4,0.5,0.6,0.6,0.8,6.4,6.2,5,4.7,15,15,15,15,15,15,15,15,15,15,0.7,0.7,0.8,0.7,0.6,0.6,0.5,0.3,0.3,0.3]}},{"type":"Feature","geometry":{"type":"Point","coordinates":[150.33741,-21.73165]},"properties":{"id":"osm-node3020493606","name":"Rocky Shelf Bay","kind":"anchorage","source":"OpenStreetMap","sourceRef":"node/3020493606","likelyAnchorage":true,"noAnchoring":false,"noAnchoringName":null,"notes":null,"fetchLandNM":[3.5,3.8,15,15,15,15,15,1.3,1.2,1.1,0.8,0.7,0.6,0.6,0.6,0.7,0.7,0.6,0.6,0.6,0.7,0.8,0.8,1,1.1,1.2,1.1,15,15,15,15,5.5,4.7,4.2,13.1,15],"fetchReefNM":[3.5,3.8,15,15,15,15,15,1.3,1.2,1.1,0.8,0.7,0.6,0.6,0.6,0.7,0.7,0.6,0.6,0.6,0.7,0.8,0.8,1,1.1,1.2,1.1,15,15,15,15,5.5,4.7,4.2,13.1,15]}},{"type":"Feature","geometry":{"type":"Point","coordinates":[150.27876,-21.67919]},"properties":{"id":"osm-node3020493903","name":"Spur Bay","kind":"anchorage","source":"OpenStreetMap","sourceRef":"node/3020493903","likelyAnchorage":true,"noAnchoring":false,"noAnchoringName":null,"notes":null,"fetchLandNM":[0.1,0.1,0.1,0.1,0.1,0.1,0.1,0.1,0.1,0.1,15,15,5.3,5.2,4.9,4.1,4,4,15,15,15,15,15,15,15,0.3,0.2,0.2,0.2,0.2,0.2,0.2,0.1,0.1,0.1,0.1],"fetchReefNM":[0.1,0.1,0.1,0.1,0.1,0.1,0.1,0.1,0.1,0.1,15,15,5.3,5.2,4.9,4.1,4,4,15,15,15,15,15,15,15,0.3,0.2,0.2,0.2,0.2,0.2,0.2,0.1,0.1,0.1,0.1]}},{"type":"Feature","geometry":{"type":"Point","coordinates":[150.24484,-21.652]},"properties":{"id":"osm-node3020494558","name":"West Bay","kind":"anchorage","source":"OpenStreetMap","sourceRef":"node/3020494558","likelyAnchorage":true,"noAnchoring":false,"noAnchoringName":null,"notes":null,"fetchLandNM":[0.9,0.2,0.1,0.1,0.1,0.1,0.1,0.1,0.1,0.1,0.2,0.1,0.1,0.1,0.1,0.1,0.1,0.1,0.1,0.2,0.2,0.2,0.2,15,15,15,1.2,15,15,15,15,15,15,15,15,15],"fetchReefNM":[0.9,0.2,0.1,0.1,0.1,0.1,0.1,0.1,0.1,0.1,0.2,0.1,0.1,0.1,0.1,0.1,0.1,0.1,0.1,0.2,0.2,0.2,0.2,15,15,15,1.2,15,15,15,15,15,15,15,15,15]}},{"type":"Feature","geometry":{"type":"Point","coordinates":[150.28928,-21.67181]},"properties":{"id":"osm-node3020494572","name":"Whites Bay","kind":"anchorage","source":"OpenStreetMap","sourceRef":"node/3020494572","likelyAnchorage":true,"noAnchoring":false,"noAnchoringName":null,"notes":null,"fetchLandNM":[0.2,0.2,0.2,0.3,0.3,0.4,0.4,0.4,0.5,2.7,15,15,15,5.1,5.1,4.9,4.2,4.3,15,15,0.5,0.4,0.3,0.3,0.4,0.4,0.3,0.2,0.2,0.2,0.2,0.2,0.2,0.2,0.2,0.2],"fetchReefNM":[0.2,0.2,0.2,0.3,0.3,0.4,0.4,0.4,0.5,2.7,15,15,15,5.1,5.1,4.9,4.2,4.3,15,15,0.5,0.4,0.3,0.3,0.4,0.4,0.3,0.2,0.2,0.2,0.2,0.2,0.2,0.2,0.2,0.2]}}]}