{"type":"FeatureCollection","meta":{"region":"QLD","tile":"t-22e148","built":"2026-08-25","sources":["OpenStreetMap (ODbL)","GBRMPA (CC BY)"]},"features":[{"type":"Feature","geometry":{"type":"Point","coordinates":[148.71899,-20.26514]},"properties":{"id":"osm-node2541206070","name":"Airlie Bay","kind":"anchorage","source":"OpenStreetMap","sourceRef":"node/2541206070","likelyAnchorage":true,"noAnchoring":false,"noAnchoringName":null,"notes":null,"fetchLandNM":[9.7,15,15,15,15,2.5,1,1,0.9,0.9,0.9,0.2,0.2,0.2,0.2,0.2,0.2,0.2,0.1,0.1,0.1,0.1,0.1,0.1,0.2,0.2,0.2,0.1,0.1,0.1,0.2,2.6,4.7,4.9,9.7,15],"fetchReefNM":[9.7,15,15,15,15,2.5,1,1,0.9,0.9,0.9,0.2,0.2,0.2,0.2,0.2,0.2,0.2,0.1,0.1,0.1,0.1,0.1,0.1,0.2,0.2,0.2,0.1,0.1,0.1,0.2,2.6,4.7,4.9,9.7,15]}},{"type":"Feature","geometry":{"type":"Point","coordinates":[148.99782,-20.22177]},"properties":{"id":"osm-node2982582955","name":"Apostle Bay","kind":"anchorage","source":"OpenStreetMap","sourceRef":"node/2982582955","likelyAnchorage":true,"noAnchoring":false,"noAnchoringName":null,"notes":null,"fetchLandNM":[0.7,2.8,3.8,3.8,3.5,5.7,15,15,15,15,9.9,6.1,1.7,1.8,0.9,1,1,1.1,1.4,0.4,0.4,0.4,0.5,0.6,0.5,0.5,0.5,0.4,0.4,0.4,0.4,0.4,0.5,0.4,0.4,0.3],"fetchReefNM":[0.7,2.8,3.8,3.8,3.5,5.7,15,15,15,15,9.9,6.1,1.7,1.8,0.9,1,1,1.1,1.4,0.4,0.4,0.4,0.5,0.6,0.5,0.5,0.5,0.4,0.4,0.4,0.4,0.4,0.5,0.4,0.4,0.3]}},{"type":"Feature","geometry":{"type":"Point","coordinates":[149.07933,-20.63503]},"properties":{"id":"osm-node2982538556","name":"Archor Islands","kind":"anchorage","source":"OpenStreetMap","sourceRef":"node/2982538556","likelyAnchorage":true,"noAnchoring":false,"noAnchoringName":null,"notes":null,"fetchLandNM":[7.1,15,5.3,3.4,15,15,15,6.4,15,15,15,6,4.6,4.9,5.3,15,1.6,1.2,0.9,0.6,0.6,0.6,0.6,0.4,0.4,0.5,0.4,0.6,0.6,0.7,0.8,14,15,15,15,7.1],"fetchReefNM":[7.1,15,5.3,3.4,15,15,15,6.4,15,15,15,6,4.6,4.9,5.3,15,1.6,1.2,0.9,0.6,0.6,0.6,0.6,0.4,0.4,0.5,0.4,0.6,0.6,0.7,0.8,14,15,15,15,7.1]}},{"type":"Feature","geometry":{"type":"Point","coordinates":[149.01145,-20.90162]},"properties":{"id":"osm-node2247768923","name":"Ball Bay","kind":"anchorage","source":"OpenStreetMap","sourceRef":"node/2247768923","likelyAnchorage":true,"noAnchoring":false,"noAnchoringName":null,"notes":null,"fetchLandNM":[15,15,15,14.2,15,15,15,15,0.9,0.7,0.7,0.6,0.7,0.7,0.7,0.8,0.8,0.7,0.7,0.7,0.8,0.8,0.7,0.7,0.7,0.8,0.8,0.9,0.8,0.8,1,9.6,15,15,15,15],"fetchReefNM":[15,15,15,14.2,15,15,15,15,0.9,0.7,0.7,0.6,0.7,0.7,0.7,0.8,0.8,0.7,0.7,0.7,0.8,0.8,0.7,0.7,0.7,0.8,0.8,0.9,0.8,0.8,1,9.6,15,15,15,15]}},{"type":"Feature","geometry":{"type":"Point","coordinates":[148.88684,-20.05885]},"properties":{"id":"osm-node8849608551","name":"Barbecue Bay","kind":"anchorage","source":"OpenStreetMap","sourceRef":"node/8849608551","likelyAnchorage":true,"noAnchoring":false,"noAnchoringName":null,"notes":null,"fetchLandNM":[0.1,0.1,0.1,0.1,0.1,0.1,0.1,0.1,0.2,0.2,0.3,0.3,0.4,1.4,1.5,2.5,3.2,1.5,3.7,12.1,10.5,1.4,15,15,15,0.2,0.2,0.2,0.1,0.1,0.1,0.1,0.1,0.1,0.1,0.1],"fetchReefNM":[0.1,0.1,0.1,0.1,0.1,0.1,0.1,0.1,0.2,0.2,0.3,0.3,0.4,1.4,1.5,2.5,3.2,1.5,3.7,12.1,10.5,1.4,15,15,15,0.2,0.2,0.2,0.1,0.1,0.1,0.1,0.1,0.1,0.1,0.1]}},{"type":"Feature","geometry":{"type":"Point","coordinates":[148.88062,-20.04465]},"properties":{"id":"osm-node3020491122","name":"Blue Pearl Bay","kind":"anchorage","source":"OpenStreetMap","sourceRef":"node/3020491122","likelyAnchorage":true,"noAnchoring":false,"noAnchoringName":null,"notes":null,"fetchLandNM":[0.4,0.3,0.2,0.2,0.2,0.1,0.1,0.1,0.1,0.1,0.1,0.1,0.1,0.1,0.1,0.1,0.2,0.3,0.3,0.3,0.3,13.1,15,15,15,9.8,15,15,15,15,15,15,15,15,15,15],"fetchReefNM":[0.4,0.3,0.2,0.2,0.2,0.1,0.1,0.1,0.1,0.1,0.1,0.1,0.1,0.1,0.1,0.1,0.2,0.3,0.3,0.3,0.3,13.1,15,15,15,9.8,15,15,15,15,15,15,15,15,15,15]}},{"type":"Feature","geometry":{"type":"Point","coordinates":[148.7298,-20.2714]},"properties":{"id":"osm-node2531867601","name":"Boathaven Bay","kind":"anchorage","source":"OpenStreetMap","sourceRef":"node/2531867601","likelyAnchorage":true,"noAnchoring":false,"noAnchoringName":null,"notes":null,"fetchLandNM":[15,1,0.9,0.6,0.4,0.3,0.2,0.2,0.2,0.2,0.2,0.2,0.2,0.2,0.2,0.2,0.2,0.2,0.2,0.2,0.2,0.2,0.3,0.3,0.3,0.3,0.2,0.2,0.4,0.4,0.3,0.2,0.2,5.8,15,15],"fetchReefNM":[15,1,0.9,0.6,0.4,0.3,0.2,0.2,0.2,0.2,0.2,0.2,0.2,0.2,0.2,0.2,0.2,0.2,0.2,0.2,0.2,0.2,0.3,0.3,0.3,0.3,0.2,0.2,0.4,0.4,0.3,0.2,0.2,5.8,15,15]}},{"type":"Feature","geometry":{"type":"Point","coordinates":[148.43835,-20.03291]},"properties":{"id":"osm-node2459196519","name":"Bona Bay","kind":"anchorage","source":"OpenStreetMap","sourceRef":"node/2459196519","likelyAnchorage":true,"noAnchoring":false,"noAnchoringName":null,"notes":null,"fetchLandNM":[0.6,0.5,0.4,0.3,0.3,0.3,0.3,0.3,0.4,0.4,0.4,0.5,0.5,0.6,0.6,0.7,1.9,2,7.1,8.1,8.3,8.7,8.9,9,9.1,8.4,10.4,8.2,9.9,10.7,15,15,15,15,15,15],"fetchReefNM":[0.6,0.5,0.4,0.3,0.3,0.3,0.3,0.3,0.4,0.4,0.4,0.5,0.5,0.6,0.6,0.7,1.9,2,7.1,8.1,8.3,8.7,8.9,9,9.1,8.4,10.4,8.2,9.9,10.7,15,15,15,15,15,15]}},{"type":"Feature","geometry":{"type":"Point","coordinates":[148.2554,-20.01807]},"properties":{"id":"osm-node247164800","name":"Bowen NQCYC","kind":"marina","source":"OpenStreetMap","sourceRef":"node/247164800","likelyAnchorage":true,"noAnchoring":false,"noAnchoringName":null,"notes":null,"fetchLandNM":[0,0,0,0,0,0,0,0,0,0,0,0.1,0.1,0,0,0,0.1,0.1,0.1,0.1,0.1,0.1,0.1,0.1,0.1,0.1,0.1,0.1,0.1,0.1,0.2,0.2,0.1,0,0,0],"fetchReefNM":[0,0,0,0,0,0,0,0,0,0,0,0.1,0.1,0,0,0,0.1,0.1,0.1,0.1,0.1,0.1,0.1,0.1,0.1,0.1,0.1,0.1,0.1,0.1,0.2,0.2,0.1,0,0,0]}},{"type":"Feature","geometry":{"type":"Point","coordinates":[148.4595,-20.05194]},"properties":{"id":"osm-node2621176611","name":"Breakfast Bay","kind":"anchorage","source":"OpenStreetMap","sourceRef":"node/2621176611","likelyAnchorage":true,"noAnchoring":false,"noAnchoringName":null,"notes":null,"fetchLandNM":[0.1,0.1,0.1,0.1,0.1,0.1,0.1,0.1,0.1,15,4.4,4.8,3.3,3.4,1,0.8,0.8,0.8,0.8,0.7,0.7,0.6,0.9,9,1.2,8.6,10.5,0.1,0.1,0.1,0.1,0.1,0.1,0.1,0.1,0.1],"fetchReefNM":[0.1,0.1,0.1,0.1,0.1,0.1,0.1,0.1,0.1,15,4.4,4.8,3.3,3.4,1,0.8,0.8,0.8,0.8,0.7,0.7,0.6,0.9,9,1.2,8.6,10.5,0.1,0.1,0.1,0.1,0.1,0.1,0.1,0.1,0.1]}},{"type":"Feature","geometry":{"type":"Point","coordinates":[148.29311,-20.09116]},"properties":{"id":"osm-node2425358248","name":"Brisk Bay","kind":"anchorage","source":"OpenStreetMap","sourceRef":"node/2425358248","likelyAnchorage":true,"noAnchoring":false,"noAnchoringName":null,"notes":null,"fetchLandNM":[3.2,15,0.6,15,15,15,9.7,9.2,8.7,8.4,8.9,9.3,1.2,6.6,3.8,3.1,1.2,1,0.9,0.8,0.8,0.8,0.9,0.8,1,1,1,1,1.2,1.1,1.1,1.1,1,0.7,4.5,3.1],"fetchReefNM":[3.2,15,0.6,15,15,15,9.7,9.2,8.7,8.4,8.9,9.3,1.2,6.6,3.8,3.1,1.2,1,0.9,0.8,0.8,0.8,0.9,0.8,1,1,1,1,1.2,1.1,1.1,1.1,1,0.7,4.5,3.1]}},{"type":"Feature","geometry":{"type":"Point","coordinates":[148.92652,-20.07105]},"properties":{"id":"osm-node2838870584","name":"Butterfly Bay","kind":"anchorage","source":"OpenStreetMap","sourceRef":"node/2838870584","likelyAnchorage":true,"noAnchoring":false,"noAnchoringName":null,"notes":null,"fetchLandNM":[15,15,15,15,15,15,15,0.4,0.4,0.3,0.3,0.3,0.3,0.3,0.3,0.4,0.1,0.1,0.3,0.6,0.5,0.4,0.4,0.4,0.4,0.4,0.4,0.4,0.4,0.4,0.4,0.4,0.4,0.4,15,15],"fetchReefNM":[15,15,15,15,15,15,15,0.4,0.4,0.3,0.3,0.3,0.3,0.3,0.3,0.4,0.1,0.1,0.3,0.6,0.5,0.4,0.4,0.4,0.4,0.4,0.4,0.4,0.4,0.4,0.4,0.4,0.4,0.4,15,15]}},{"type":"Feature","geometry":{"type":"Point","coordinates":[149.0268,-20.15201]},"properties":{"id":"osm-node2982582962","name":"Cateran Bay","kind":"anchorage","source":"OpenStreetMap","sourceRef":"node/2982582962","likelyAnchorage":true,"noAnchoring":false,"noAnchoringName":null,"notes":null,"fetchLandNM":[15,15,15,15,15,15,15,15,15,0.5,0.6,0.6,0.7,0.7,0.3,0.2,0.2,0.3,0.3,0.3,0.3,0.3,0.3,3.1,3.3,2.9,2.9,4.6,4.6,5.1,5.9,5.1,6,15,15,15],"fetchReefNM":[15,15,15,15,15,15,15,15,15,0.5,0.6,0.6,0.7,0.7,0.3,0.2,0.2,0.3,0.3,0.3,0.3,0.3,0.3,3.1,3.3,2.9,2.9,4.6,4.6,5.1,5.9,5.1,6,15,15,15]}},{"type":"Feature","geometry":{"type":"Point","coordinates":[149.04268,-20.30413]},"properties":{"id":"osm-node8925547809","name":"Chance Bay","kind":"anchorage","source":"OpenStreetMap","sourceRef":"node/8925547809","likelyAnchorage":true,"noAnchoring":false,"noAnchoringName":null,"notes":null,"fetchLandNM":[0.1,0.1,0.1,0.1,0.1,0.1,0.1,0.1,0.1,0.1,0.1,0.1,0.1,0.1,0.2,0.2,0.4,10.8,8,5.5,15,14.3,12.6,0.5,0.4,0.3,0.3,0.2,0.1,0.1,0.1,0.1,0.1,0.1,0.1,0.1],"fetchReefNM":[0.1,0.1,0.1,0.1,0.1,0.1,0.1,0.1,0.1,0.1,0.1,0.1,0.1,0.1,0.2,0.2,0.4,10.8,8,5.5,15,14.3,12.6,0.5,0.4,0.3,0.3,0.2,0.1,0.1,0.1,0.1,0.1,0.1,0.1,0.1]}},{"type":"Feature","geometry":{"type":"Point","coordinates":[148.94836,-20.24511]},"properties":{"id":"osm-node3020491514","name":"Cid Harbour","kind":"anchorage","source":"OpenStreetMap","sourceRef":"node/3020491514","likelyAnchorage":true,"noAnchoring":false,"noAnchoringName":null,"notes":null,"fetchLandNM":[0.6,0.9,0.9,1.2,0.4,0.5,0.5,0.8,1.1,0.8,0.7,0.6,0.4,0.4,0.4,0.5,0.5,0.5,0.8,1,1.5,1.3,2.7,2,1.7,1.6,5.6,9.8,7,0.3,0.3,0.3,0.3,0.4,0.4,0.5],"fetchReefNM":[0.6,0.9,0.9,1.2,0.4,0.5,0.5,0.8,1.1,0.8,0.7,0.6,0.4,0.4,0.4,0.5,0.5,0.5,0.8,1,1.5,1.3,2.7,2,1.7,1.6,5.6,9.8,7,0.3,0.3,0.3,0.3,0.4,0.4,0.5]}},{"type":"Feature","geometry":{"type":"Point","coordinates":[148.92945,-20.24804]},"properties":{"id":"gbrmpa-80025","name":"Cid Harbour","kind":"designated_anchorage","source":"GBRMPA","sourceRef":"80025","likelyAnchorage":true,"noAnchoring":false,"noAnchoringName":null,"notes":"  · Management area: Townsville/Whitsunday management area · Great Barrier Reef Marine Park Regulations 2019","fetchLandNM":[4.4,5.5,4.7,1.1,0.7,0.7,0.7,0.8,2.2,1.7,1.3,1.2,1.2,1.2,1.3,1.4,1,1.3,1.5,2.1,1.4,0.8,0.6,0.6,0.6,0.8,4.5,5.5,5.8,15,15,15,15,15,5.6,4.5],"fetchReefNM":[4.4,5.5,4.7,1.1,0.7,0.7,0.7,0.8,2.2,1.7,1.3,1.2,1.2,1.2,1.3,1.4,1,1.3,1.5,2.1,1.4,0.8,0.6,0.6,0.6,0.8,4.5,5.5,5.8,15,15,15,15,15,5.6,4.5]}},{"type":"Feature","geometry":{"type":"Point","coordinates":[149.40983,-20.90052]},"properties":{"id":"osm-node8367669080","name":"Connie Bay","kind":"anchorage","source":"OpenStreetMap","sourceRef":"node/8367669080","likelyAnchorage":true,"noAnchoring":false,"noAnchoringName":null,"notes":null,"fetchLandNM":[7.6,15,10.2,15,15,0.1,0.1,0.1,0.1,0.1,0.1,0.1,0.1,0.1,0.1,0.1,0.1,0.1,0.1,0.1,0.1,0.1,0.1,0.1,0.1,0.1,0.1,0.1,0.1,0.2,9.1,9.6,15,15,15,15],"fetchReefNM":[7.6,15,10.2,15,15,0.1,0.1,0.1,0.1,0.1,0.1,0.1,0.1,0.1,0.1,0.1,0.1,0.1,0.1,0.1,0.1,0.1,0.1,0.1,0.1,0.1,0.1,0.1,0.1,0.2,9.1,9.6,15,15,15,15]}},{"type":"Feature","geometry":{"type":"Point","coordinates":[148.71017,-20.26631]},"properties":{"id":"osm-way245930150","name":"Coral Sea Marina Resort","kind":"marina","source":"OpenStreetMap","sourceRef":"way/245930150","likelyAnchorage":true,"noAnchoring":false,"noAnchoringName":null,"notes":null,"fetchLandNM":[9.5,15,15,15,15,0.2,0.2,0.1,0.1,0.1,0.1,0.1,0.1,0.1,0.1,0.1,0.1,0.1,0.1,0.2,0.2,0.2,0.2,0.2,0.2,0.9,1.9,0.8,1.8,2,2,2,2.3,4.6,5.3,15],"fetchReefNM":[9.5,15,15,15,15,0.2,0.2,0.1,0.1,0.1,0.1,0.1,0.1,0.1,0.1,0.1,0.1,0.1,0.1,0.2,0.2,0.2,0.2,0.2,0.2,0.9,1.9,0.8,1.8,2,2,2,2.3,4.6,5.3,15]}},{"type":"Feature","geometry":{"type":"Point","coordinates":[149.27665,-21.2705]},"properties":{"id":"osm-node2953596239","name":"Dalrymple Bay","kind":"anchorage","source":"OpenStreetMap","sourceRef":"node/2953596239","likelyAnchorage":true,"noAnchoring":false,"noAnchoringName":null,"notes":null,"fetchLandNM":[15,15,15,15,15,15,15,15,15,15,0.8,0.8,0.7,0.5,0.6,0.6,0.5,0.6,0.5,0.5,0.5,0.5,0.5,0.5,0.5,0.5,0.6,0.6,0.5,0.8,1.1,1.4,1.7,8.1,9.1,10.5],"fetchReefNM":[15,15,15,15,15,15,15,15,15,15,0.8,0.8,0.7,0.5,0.6,0.6,0.5,0.6,0.5,0.5,0.5,0.5,0.5,0.5,0.5,0.5,0.6,0.6,0.5,0.8,1.1,1.4,1.7,8.1,9.1,10.5]}},{"type":"Feature","geometry":{"type":"Point","coordinates":[149.27404,-21.26619]},"properties":{"id":"osm-node3020491764","name":"Dalrymple Bay","kind":"anchorage","source":"OpenStreetMap","sourceRef":"node/3020491764","likelyAnchorage":true,"noAnchoring":false,"noAnchoringName":null,"notes":null,"fetchLandNM":[15,15,15,15,15,15,15,15,15,15,15,1,1,1,0.8,0.9,0.8,0.8,0.8,0.7,0.6,0.6,0.6,0.6,0.4,0.4,0.4,0.6,0.7,0.9,1,1.2,1.5,7.8,8.7,15],"fetchReefNM":[15,15,15,15,15,15,15,15,15,15,15,1,1,1,0.8,0.9,0.8,0.8,0.8,0.7,0.6,0.6,0.6,0.6,0.4,0.4,0.4,0.6,0.7,0.9,1,1.2,1.5,7.8,8.7,15]}},{"type":"Feature","geometry":{"type":"Point","coordinates":[149.31873,-21.42324]},"properties":{"id":"osm-node2953596261","name":"Deception Inlet","kind":"anchorage","source":"OpenStreetMap","sourceRef":"node/2953596261","likelyAnchorage":true,"noAnchoring":false,"noAnchoringName":null,"notes":null,"fetchLandNM":[0.2,0.2,0.3,0.3,0.3,0.3,0.3,0.3,0.3,0.3,0.3,0.4,1,10.9,5.6,5.5,3.3,3.9,4.1,4.8,4.8,3.1,2.4,0.2,0.2,0.3,0.3,0.3,0.3,0.2,0.2,0.2,0.2,0.2,0.2,0.2],"fetchReefNM":[0.2,0.2,0.3,0.3,0.3,0.3,0.3,0.3,0.3,0.3,0.3,0.4,1,10.9,5.6,5.5,3.3,3.9,4.1,4.8,4.8,3.1,2.4,0.2,0.2,0.3,0.3,0.3,0.3,0.2,0.2,0.2,0.2,0.2,0.2,0.2]}},{"type":"Feature","geometry":{"type":"Point","coordinates":[149.28307,-20.81879]},"properties":{"id":"osm-node882289560","name":"Dinghy Bay East","kind":"anchorage","source":"OpenStreetMap","sourceRef":"node/882289560","likelyAnchorage":true,"noAnchoring":false,"noAnchoringName":null,"notes":null,"fetchLandNM":[0.1,0.1,0.1,0.1,0.1,0.1,0.1,0.1,0.1,0.1,0.1,0.1,0.1,0.1,0.1,0.3,15,15,15,15,14.9,13.9,14.5,14.8,1,0.6,0.2,0.2,0.2,0.2,0.3,0.3,0.3,0.2,0.2,0.2],"fetchReefNM":[0.1,0.1,0.1,0.1,0.1,0.1,0.1,0.1,0.1,0.1,0.1,0.1,0.1,0.1,0.1,0.3,15,15,15,15,14.9,13.9,14.5,14.8,1,0.6,0.2,0.2,0.2,0.2,0.3,0.3,0.3,0.2,0.2,0.2]}},{"type":"Feature","geometry":{"type":"Point","coordinates":[149.28045,-20.81694]},"properties":{"id":"osm-node882289559","name":"Dinghy Bay West","kind":"anchorage","source":"OpenStreetMap","sourceRef":"node/882289559","likelyAnchorage":true,"noAnchoring":false,"noAnchoringName":null,"notes":null,"fetchLandNM":[0.1,0.1,0.1,0.1,0.1,0.1,0.1,0.1,0.2,0.2,0.2,0.3,0.3,0.3,0.4,15,15,15,15,15,14.8,0.2,0.1,0.1,0.1,0.1,0.1,0.1,0.1,0.1,0.1,0.1,0.1,0.1,0.1,0.1],"fetchReefNM":[0.1,0.1,0.1,0.1,0.1,0.1,0.1,0.1,0.2,0.2,0.2,0.3,0.3,0.3,0.4,15,15,15,15,15,14.8,0.2,0.1,0.1,0.1,0.1,0.1,0.1,0.1,0.1,0.1,0.1,0.1,0.1,0.1,0.1]}},{"type":"Feature","geometry":{"type":"Point","coordinates":[148.62376,-20.1738]},"properties":{"id":"osm-node2503741552","name":"Double Bay","kind":"anchorage","source":"OpenStreetMap","sourceRef":"node/2503741552","likelyAnchorage":true,"noAnchoring":false,"noAnchoringName":null,"notes":null,"fetchLandNM":[15,15,4.3,15,15,6.2,15,14.8,0.8,0.7,0.7,0.7,0.7,0.8,0.8,0.8,0.9,2.7,2.6,2.9,2.6,0.6,0.3,0.3,2.7,2.5,2.3,1.7,1.6,2.9,3.5,3.4,1.9,1.8,1.6,4.5],"fetchReefNM":[15,15,4.3,15,15,6.2,15,14.8,0.8,0.7,0.7,0.7,0.7,0.8,0.8,0.8,0.9,2.7,2.6,2.9,2.6,0.6,0.3,0.3,2.7,2.5,2.3,1.7,1.6,2.9,3.5,3.4,1.9,1.8,1.6,4.5]}},{"type":"Feature","geometry":{"type":"Point","coordinates":[148.38444,-20.10962]},"properties":{"id":"osm-node2457999721","name":"Edgecumbe Bay","kind":"anchorage","source":"OpenStreetMap","sourceRef":"node/2457999721","likelyAnchorage":true,"noAnchoring":false,"noAnchoringName":null,"notes":null,"fetchLandNM":[15,15,15,6,5.2,4.2,3.7,3.4,3.2,3.3,4.9,4.9,4.1,3.7,4.4,3.7,3.5,3.2,3.2,3.2,3.1,3.4,3.4,3.5,3.4,4.1,4.3,4.8,6.2,6.5,9.8,6.8,15,15,15,7.5],"fetchReefNM":[15,15,15,6,5.2,4.2,3.7,3.4,3.2,3.3,4.9,4.9,4.1,3.7,4.4,3.7,3.5,3.2,3.2,3.2,3.1,3.4,3.4,3.5,3.4,4.1,4.3,4.8,6.2,6.5,9.8,6.8,15,15,15,7.5]}},{"type":"Feature","geometry":{"type":"Point","coordinates":[148.84771,-20.33933]},"properties":{"id":"osm-node1520098250","name":"Fish Bay","kind":"anchorage","source":"OpenStreetMap","sourceRef":"node/1520098250","likelyAnchorage":true,"noAnchoring":false,"noAnchoringName":null,"notes":null,"fetchLandNM":[0.1,0.1,0.1,0.1,0.1,0.1,0.1,0.1,0.1,0.1,0.1,0.1,0.1,0.1,0.1,0.1,0.1,0.1,0.1,0.1,0.1,0.8,0.8,0.8,0.8,0.9,0.9,1.1,1.7,1.5,2,0.1,0.1,0.1,0.1,0.1],"fetchReefNM":[0.1,0.1,0.1,0.1,0.1,0.1,0.1,0.1,0.1,0.1,0.1,0.1,0.1,0.1,0.1,0.1,0.1,0.1,0.1,0.1,0.1,0.8,0.8,0.8,0.8,0.9,0.9,1.1,1.7,1.5,2,0.1,0.1,0.1,0.1,0.1]}},{"type":"Feature","geometry":{"type":"Point","coordinates":[148.94167,-20.31892]},"properties":{"id":"gbrmpa-80027","name":"Fitzalan Passage","kind":"designated_anchorage","source":"GBRMPA","sourceRef":"80027","likelyAnchorage":true,"noAnchoring":false,"noAnchoringName":null,"notes":"  · Management area: Townsville/Whitsunday management area · Great Barrier Reef Marine Park Regulations 2019","fetchLandNM":[1,1.4,1.5,0.9,0.9,1.5,1.3,1.1,1,1,1.1,1.3,15,2.4,2.2,0.9,0.9,2,15,0.9,1.3,1.4,4.4,5.2,5.1,0.8,0.8,0.7,0.7,0.8,6.3,8.4,2.3,1.1,0.9,1.1],"fetchReefNM":[1,1.4,1.5,0.9,0.9,1.5,1.3,1.1,1,1,1.1,1.3,15,2.4,2.2,0.9,0.9,2,15,0.9,1.3,1.4,4.4,5.2,5.1,0.8,0.8,0.7,0.7,0.8,6.3,8.4,2.3,1.1,0.9,1.1]}},{"type":"Feature","geometry":{"type":"Point","coordinates":[148.74626,-20.25439]},"properties":{"id":"osm-node2531868430","name":"Funnel Bay","kind":"anchorage","source":"OpenStreetMap","sourceRef":"node/2531868430","likelyAnchorage":true,"noAnchoring":false,"noAnchoringName":null,"notes":null,"fetchLandNM":[15,15,1.1,0.6,0.5,0.4,0.4,0.4,0.4,0.4,0.4,0.4,0.5,0.5,0.6,0.6,0.5,0.5,0.4,0.4,0.4,0.4,0.4,0.4,0.4,0.3,0.3,0.3,0.3,3.9,5.3,5.5,6.1,9.8,15,9.2],"fetchReefNM":[15,15,1.1,0.6,0.5,0.4,0.4,0.4,0.4,0.4,0.4,0.4,0.5,0.5,0.6,0.6,0.5,0.5,0.4,0.4,0.4,0.4,0.4,0.4,0.4,0.3,0.3,0.3,0.3,3.9,5.3,5.5,6.1,9.8,15,9.2]}},{"type":"Feature","geometry":{"type":"Point","coordinates":[148.72445,-20.2183]},"properties":{"id":"gbrmpa-80024","name":"Funnel Bay","kind":"designated_anchorage","source":"GBRMPA","sourceRef":"80024","likelyAnchorage":true,"noAnchoring":false,"noAnchoringName":null,"notes":"  · Management area: Townsville/Whitsunday management area · Great Barrier Reef Marine Park Regulations 2019","fetchLandNM":[6.9,15,15,15,13.9,13.1,10.5,9.8,13.4,4.8,5.4,6.4,2.1,2.1,2.4,3,2.2,3,2.9,2.7,3.4,3.2,4,3.5,2.6,2.5,3.3,3.6,3.4,3.3,3.1,3.4,15,7.3,15,15],"fetchReefNM":[6.9,15,15,15,13.9,13.1,10.5,9.8,13.4,4.8,5.4,6.4,2.1,2.1,2.4,3,2.2,3,2.9,2.7,3.4,3.2,4,3.5,2.6,2.5,3.3,3.6,3.4,3.3,3.1,3.4,15,7.3,15,15]}},{"type":"Feature","geometry":{"type":"Point","coordinates":[148.89934,-20.48828]},"properties":{"id":"osm-node2519730593","name":"Genesta Bay","kind":"anchorage","source":"OpenStreetMap","sourceRef":"node/2519730593","likelyAnchorage":true,"noAnchoring":false,"noAnchoringName":null,"notes":null,"fetchLandNM":[0.6,0.6,0.7,0.7,0.7,0.8,15,7.8,10.5,9.5,8.2,15,15,15,15,1.4,0.8,0.8,0.8,0.8,0.7,0.7,0.6,0.6,0.7,0.7,0.7,0.7,0.7,0.6,0.7,0.7,0.7,0.7,0.7,0.7],"fetchReefNM":[0.6,0.6,0.7,0.7,0.7,0.8,15,7.8,10.5,9.5,8.2,15,15,15,15,1.4,0.8,0.8,0.8,0.8,0.7,0.7,0.6,0.6,0.7,0.7,0.7,0.7,0.7,0.6,0.7,0.7,0.7,0.7,0.7,0.7]}},{"type":"Feature","geometry":{"type":"Point","coordinates":[148.46959,-20.05625]},"properties":{"id":"osm-node2459196518","name":"Gloucester Pass","kind":"anchorage","source":"OpenStreetMap","sourceRef":"node/2459196518","likelyAnchorage":false,"noAnchoring":false,"noAnchoringName":null,"notes":null,"fetchLandNM":[0.3,0.4,0.4,0.4,15,7.5,15,15,15,15,4.8,4.2,2.7,3.4,1.9,0.7,0.6,0.5,0.5,0.5,0.4,0.6,0.7,0.8,0.9,0.9,11.3,12.6,11.6,0.7,0.7,0.4,0.3,0.3,0.3,0.3],"fetchReefNM":[0.3,0.4,0.4,0.4,15,7.5,15,15,15,15,4.8,4.2,2.7,3.4,1.9,0.7,0.6,0.5,0.5,0.5,0.4,0.6,0.7,0.8,0.9,0.9,11.3,12.6,11.6,0.7,0.7,0.4,0.3,0.3,0.3,0.3]}},{"type":"Feature","geometry":{"type":"Point","coordinates":[148.95088,-20.2973]},"properties":{"id":"osm-node2982153386","name":"Gulnare Inlet","kind":"anchorage","source":"OpenStreetMap","sourceRef":"node/2982153386","likelyAnchorage":true,"noAnchoring":false,"noAnchoringName":null,"notes":null,"fetchLandNM":[0.1,0.2,0.2,0.2,0.7,0.6,0.5,0.4,0.4,0.3,0.3,0.2,0.2,0.2,0.2,0.2,0.2,0.2,0.2,0.3,2.7,2.9,2,1.6,0.5,0.4,0.3,0.3,0.3,0.2,0.2,0.2,0.1,0.1,0.1,0.1],"fetchReefNM":[0.1,0.2,0.2,0.2,0.7,0.6,0.5,0.4,0.4,0.3,0.3,0.2,0.2,0.2,0.2,0.2,0.2,0.2,0.2,0.3,2.7,2.9,2,1.6,0.5,0.4,0.3,0.3,0.3,0.2,0.2,0.2,0.1,0.1,0.1,0.1]}},{"type":"Feature","geometry":{"type":"Point","coordinates":[148.8486,-20.33401]},"properties":{"id":"osm-node1520098251","name":"Happy Bay","kind":"anchorage","source":"OpenStreetMap","sourceRef":"node/1520098251","likelyAnchorage":true,"noAnchoring":false,"noAnchoringName":null,"notes":null,"fetchLandNM":[0.5,0.4,0.4,0.2,0.2,0.1,0.1,0.1,0.1,0.1,0.1,0,0,0,0,0,0,0,0.1,0.1,0.1,0.1,0.1,0.1,0.1,0.1,2,1.6,1.5,1.9,5.3,3.3,4.2,15,3.2,3.3],"fetchReefNM":[0.5,0.4,0.4,0.2,0.2,0.1,0.1,0.1,0.1,0.1,0.1,0,0,0,0,0,0,0,0.1,0.1,0.1,0.1,0.1,0.1,0.1,0.1,2,1.6,1.5,1.9,5.3,3.3,4.2,15,3.2,3.3]}},{"type":"Feature","geometry":{"type":"Point","coordinates":[148.88192,-20.06049]},"properties":{"id":"osm-way844273030","name":"Hayman Island Marina","kind":"marina","source":"OpenStreetMap","sourceRef":"way/844273030","likelyAnchorage":true,"noAnchoring":false,"noAnchoringName":null,"notes":null,"fetchLandNM":[0,0,0.1,0.1,0.1,0.1,0.1,0.1,0.1,0.6,0.6,1.7,1.6,1.6,2.5,3,2.9,3.1,15,12.1,1.3,12.5,15,15,15,15,0.1,0.1,0,0,0,0,0,0,0,0],"fetchReefNM":[0,0,0.1,0.1,0.1,0.1,0.1,0.1,0.1,0.6,0.6,1.7,1.6,1.6,2.5,3,2.9,3.1,15,12,1.3,12.5,15,15,15,15,0.1,0.1,0,0,0,0,0,0,0,0]}},{"type":"Feature","geometry":{"type":"Point","coordinates":[148.96954,-20.34696]},"properties":{"id":"osm-node8925556554","name":"Hideaway Bay","kind":"anchorage","source":"OpenStreetMap","sourceRef":"node/8925556554","likelyAnchorage":true,"noAnchoring":false,"noAnchoringName":null,"notes":null,"fetchLandNM":[1.2,1.3,1.5,1.7,2.7,3,3.3,0.2,0.1,0.1,0.1,0.1,0.1,0.1,0.1,0,0,0,0,0,0,0,0,0,0,0.1,0.1,0.5,0.8,0.8,0.8,1.2,3.9,1.1,2.6,1.2],"fetchReefNM":[1.2,1.3,1.5,1.7,2.7,3,3.3,0.2,0.1,0.1,0.1,0.1,0.1,0.1,0.1,0,0,0,0,0,0,0,0,0,0,0.1,0.1,0.5,0.8,0.8,0.8,1.2,3.9,1.1,2.6,1.2]}},{"type":"Feature","geometry":{"type":"Point","coordinates":[149.02078,-20.26046]},"properties":{"id":"osm-node2982152913","name":"Hill Inlet","kind":"anchorage","source":"OpenStreetMap","sourceRef":"node/2982152913","likelyAnchorage":true,"noAnchoring":false,"noAnchoringName":null,"notes":null,"fetchLandNM":[0.8,0.9,15,15,15,0.3,0.3,0.2,0.2,0.2,0.2,0.2,0.2,0.2,0.2,0.3,0.3,0.4,0.4,0.7,1.2,0.4,0.3,0.2,0.2,0.2,0.2,0.2,0.2,0.1,0.2,0.2,0.3,0.5,0.6,0.8],"fetchReefNM":[0.8,0.9,15,15,15,0.3,0.3,0.2,0.2,0.2,0.2,0.2,0.2,0.2,0.2,0.3,0.3,0.4,0.4,0.7,1.2,0.4,0.3,0.2,0.2,0.2,0.2,0.2,0.2,0.1,0.2,0.2,0.3,0.5,0.6,0.8]}},{"type":"Feature","geometry":{"type":"Point","coordinates":[149.41656,-20.90397]},"properties":{"id":"osm-node8367669022","name":"Horseshoe Bay","kind":"anchorage","source":"OpenStreetMap","sourceRef":"node/8367669022","likelyAnchorage":true,"noAnchoring":false,"noAnchoringName":null,"notes":null,"fetchLandNM":[0.1,0.2,10,15,15,15,15,15,9.7,1.7,0.9,0.6,0.6,0.7,0.9,1.4,0.9,0.1,0.1,0.1,0.1,0.1,0.1,0.1,0,0,0,0,0.1,0.1,0.1,0.1,0.1,0.1,0.1,0.1],"fetchReefNM":[0.1,0.2,10,15,15,15,15,15,9.7,1.7,0.9,0.6,0.6,0.7,0.9,1.4,0.9,0.1,0.1,0.1,0.1,0.1,0.1,0.1,0,0,0,0,0.1,0.1,0.1,0.1,0.1,0.1,0.1,0.1]}},{"type":"Feature","geometry":{"type":"Point","coordinates":[148.92689,-20.26799]},"properties":{"id":"osm-node2982153394","name":"Hunt Channel","kind":"anchorage","source":"OpenStreetMap","sourceRef":"node/2982153394","likelyAnchorage":false,"noAnchoring":false,"noAnchoringName":null,"notes":null,"fetchLandNM":[5.9,6.7,1.9,1.7,2.7,2.5,1.4,0.5,0.5,0.4,0.4,0.3,0.3,0.3,0.4,0.3,0.3,0.4,0.8,0.8,0.9,1,1,5.3,0.4,0.4,0.4,0.4,0.3,0.3,0.3,0.3,0.4,0.5,0.7,6.1],"fetchReefNM":[5.9,6.7,1.9,1.7,2.7,2.5,1.4,0.5,0.5,0.4,0.4,0.3,0.3,0.3,0.4,0.3,0.3,0.4,0.8,0.8,0.9,1,1,5.3,0.4,0.4,0.4,0.4,0.3,0.3,0.3,0.3,0.4,0.5,0.7,6.1]}},{"type":"Feature","geometry":{"type":"Point","coordinates":[149.4288,-21.52818]},"properties":{"id":"osm-node3020492470","name":"Ince Bay","kind":"anchorage","source":"OpenStreetMap","sourceRef":"node/3020492470","likelyAnchorage":true,"noAnchoring":false,"noAnchoringName":null,"notes":null,"fetchLandNM":[15,15,4.5,7.2,15,15,15,15,2.6,15,2.3,2.3,2.3,2.3,2.4,2.6,3.2,1.6,1.5,1.5,1.5,1.5,1.7,2.3,1.8,2,2.6,2.7,2.6,2.8,2.5,2.7,2.8,15,15,15],"fetchReefNM":[15,15,4.5,7.2,15,15,15,15,2.6,15,2.3,2.3,2.3,2.3,2.4,2.6,3.2,1.6,1.5,1.5,1.5,1.5,1.7,2.3,1.8,2,2.6,2.7,2.6,2.8,2.5,2.7,2.8,15,15,15]}},{"type":"Feature","geometry":{"type":"Point","coordinates":[149.05289,-20.47172]},"properties":{"id":"osm-node2982535013","name":"Kennedy Sound","kind":"anchorage","source":"OpenStreetMap","sourceRef":"node/2982535013","likelyAnchorage":false,"noAnchoring":false,"noAnchoringName":null,"notes":null,"fetchLandNM":[1.2,1.3,1.2,1.3,2.3,1.7,1.8,1.4,1.3,1.2,1.3,1,1.1,1.3,1.5,1.8,2,2.1,2.1,2.2,2.1,15,15,12.5,15,7.8,9.1,0.9,0.9,0.9,12,1.1,1,0.9,0.9,1.1],"fetchReefNM":[1.2,1.3,1.2,1.3,2.3,1.7,1.8,1.4,1.3,1.2,1.3,1,1.1,1.3,1.5,1.8,2,2.1,2.1,2.2,2.1,15,15,12.5,15,7.8,9.1,0.9,0.9,0.9,12,1.1,1,0.9,0.9,1.1]}},{"type":"Feature","geometry":{"type":"Point","coordinates":[149.31587,-21.45897]},"properties":{"id":"osm-node2247787790","name":"Llewellyn Bay","kind":"anchorage","source":"OpenStreetMap","sourceRef":"node/2247787790","likelyAnchorage":true,"noAnchoring":false,"noAnchoringName":null,"notes":null,"fetchLandNM":[2.3,2.3,2,2,15,15,15,15,15,15,15,15,4.4,1.5,1.8,2,1.9,1.9,2.1,2.5,3.2,2.9,2.5,2.5,1.3,1.5,1.6,1.4,1.4,1.4,1.5,1.7,1.8,2.1,2,1.9],"fetchReefNM":[2.3,2.3,2,2,15,15,15,15,15,15,15,15,4.4,1.5,1.8,2,1.9,1.9,2.1,2.5,3.2,2.9,2.5,2.5,1.3,1.5,1.6,1.4,1.4,1.4,1.5,1.7,1.8,2.1,2,1.9]}},{"type":"Feature","geometry":{"type":"Point","coordinates":[149.30187,-21.43578]},"properties":{"id":"osm-node3020492946","name":"Llewellyn Bay","kind":"anchorage","source":"OpenStreetMap","sourceRef":"node/3020492946","likelyAnchorage":true,"noAnchoring":false,"noAnchoringName":null,"notes":null,"fetchLandNM":[0.5,0.5,0.5,0.6,0.6,0.7,1.5,1.6,1.8,15,15,15,6.3,5.7,3.1,3.6,3.5,3.7,3.9,2.1,2,1.2,0.8,0.7,0.6,0.5,0.4,0.4,0.4,0.4,0.4,0.4,0.4,0.5,0.6,0.6],"fetchReefNM":[0.5,0.5,0.5,0.6,0.6,0.7,1.5,1.6,1.8,15,15,15,6.3,5.7,3.1,3.6,3.5,3.7,3.9,2.1,2,1.2,0.8,0.7,0.6,0.5,0.4,0.4,0.4,0.4,0.4,0.4,0.4,0.5,0.6,0.6]}},{"type":"Feature","geometry":{"type":"Point","coordinates":[148.85478,-20.40288]},"properties":{"id":"osm-node2982555199","name":"Long Island Sound","kind":"anchorage","source":"OpenStreetMap","sourceRef":"node/2982555199","likelyAnchorage":false,"noAnchoring":false,"noAnchoringName":null,"notes":null,"fetchLandNM":[0.9,0.9,1,0.8,0.7,0.7,0.8,4.7,15,9.8,10.2,13.3,12.8,15,15,4.3,4.4,3.1,2.4,1.4,1.3,1.4,1.5,1.3,1.2,0.8,0.8,0.8,0.8,0.8,0.9,1.2,1.8,2.5,2.6,7.4],"fetchReefNM":[0.9,0.9,1,0.8,0.7,0.7,0.8,4.7,15,9.8,10.2,13.3,12.8,15,15,4.3,4.4,3.1,2.4,1.4,1.3,1.4,1.5,1.3,1.2,0.8,0.8,0.8,0.8,0.8,0.9,1.2,1.8,2.5,2.6,7.4]}},{"type":"Feature","geometry":{"type":"Point","coordinates":[148.94978,-20.06464]},"properties":{"id":"osm-node2838870586","name":"Luncheon Bay","kind":"anchorage","source":"OpenStreetMap","sourceRef":"node/2838870586","likelyAnchorage":true,"noAnchoring":true,"noAnchoringName":"Luncheon Bay","notes":null,"fetchLandNM":[15,15,15,15,15,15,0.2,0.2,0.2,0.1,0.1,0.1,0.1,0.1,0.1,0.1,0.1,0.1,0.1,0.1,0.1,0.1,0.1,0.2,0.2,0.2,0.2,0.3,0.3,3.4,15,15,15,15,15,15],"fetchReefNM":[15,15,15,15,15,15,0.2,0.2,0.2,0.1,0.1,0.1,0.1,0.1,0.1,0.1,0.1,0.1,0.1,0.1,0.1,0.1,0.1,0.2,0.2,0.2,0.2,0.3,0.3,3.4,15,15,15,15,15,15]}},{"type":"Feature","geometry":{"type":"Point","coordinates":[149.22696,-21.11272]},"properties":{"id":"osm-way196301734","name":"Mackay Marina","kind":"marina","source":"OpenStreetMap","sourceRef":"way/196301734","likelyAnchorage":true,"noAnchoring":false,"noAnchoringName":null,"notes":null,"fetchLandNM":[0.2,0.2,0.2,0.2,0.2,0.3,0.2,0.1,0.1,0.1,0.1,0.1,0.1,0.1,0.1,0.1,0.1,0.1,0.1,0.1,0.2,0.2,0.2,0.2,0.2,0.2,0.2,0.1,0.1,0.1,0.1,0.2,0.2,0.2,0.2,0.2],"fetchReefNM":[0.2,0.2,0.2,0.2,0.2,0.3,0.2,0.1,0.1,0.1,0.1,0.1,0.1,0.1,0.1,0.1,0.1,0.1,0.1,0.1,0.2,0.2,0.2,0.2,0.2,0.2,0.2,0.1,0.1,0.1,0.1,0.2,0.2,0.2,0.2,0.2]}},{"type":"Feature","geometry":{"type":"Point","coordinates":[148.96098,-20.07214]},"properties":{"id":"osm-node8849608548","name":"Mackerel Bay","kind":"anchorage","source":"OpenStreetMap","sourceRef":"node/8849608548","likelyAnchorage":true,"noAnchoring":false,"noAnchoringName":null,"notes":null,"fetchLandNM":[0.2,0.2,0.2,0.2,0.2,0.2,0.2,0.3,0.3,15,15,15,15,15,6.7,13.6,10.5,5.4,5.1,1.3,1.4,0.3,0.2,0.2,0.2,0.2,0.2,0.2,0.2,0.2,0.2,0.2,0.2,0.2,0.2,0.2],"fetchReefNM":[0.2,0.2,0.2,0.2,0.2,0.2,0.2,0.3,0.3,15,15,15,15,15,6.7,13.6,10.5,5.4,5.1,1.3,1.4,0.3,0.2,0.2,0.2,0.2,0.2,0.2,0.2,0.2,0.2,0.2,0.2,0.2,0.2,0.2]}},{"type":"Feature","geometry":{"type":"Point","coordinates":[148.92564,-20.15564]},"properties":{"id":"osm-node2982582963","name":"Macona Inlet","kind":"anchorage","source":"OpenStreetMap","sourceRef":"node/2982582963","likelyAnchorage":true,"noAnchoring":false,"noAnchoringName":null,"notes":null,"fetchLandNM":[1,1.4,0.8,0.5,0.4,0.3,0.3,0.4,0.5,0.5,0.6,0.5,0.5,0.5,0.5,0.4,0.4,0.7,7.5,6.2,12.3,1.2,0.5,0.4,0.4,0.4,0.3,0.3,0.3,0.3,0.3,0.4,0.5,0.5,0.7,0.8],"fetchReefNM":[1,1.4,0.8,0.5,0.4,0.3,0.3,0.4,0.5,0.5,0.6,0.5,0.5,0.5,0.5,0.4,0.4,0.7,7.5,6.2,12.3,1.2,0.5,0.4,0.4,0.4,0.3,0.3,0.3,0.3,0.3,0.4,0.5,0.5,0.7,0.8]}},{"type":"Feature","geometry":{"type":"Point","coordinates":[149.77107,-21.92801]},"properties":{"id":"osm-node3020492967","name":"Main Channel","kind":"anchorage","source":"OpenStreetMap","sourceRef":"node/3020492967","likelyAnchorage":false,"noAnchoring":false,"noAnchoringName":null,"notes":null,"fetchLandNM":[15,15,5.6,15,15,15,15,15,15,15,15,15,12.9,6.9,10.4,3.9,15,15,15,15,15,15,15,15,15,15,15,6.5,15,15,15,15,15,15,15,15],"fetchReefNM":[15,15,5.6,15,15,15,15,15,15,15,15,15,12.9,6.9,10.4,3.9,15,15,15,15,15,15,15,15,15,15,15,6.5,15,15,15,15,15,15,15,15]}},{"type":"Feature","geometry":{"type":"Point","coordinates":[148.96663,-20.35376]},"properties":{"id":"osm-node1391857337","name":"Mangrove Flats","kind":"anchorage","source":"OpenStreetMap","sourceRef":"node/1391857337","likelyAnchorage":false,"noAnchoring":false,"noAnchoringName":null,"notes":null,"fetchLandNM":[0,0,0,0.1,0.1,0,0,0,0,0,0,0,0,0,0,0,0.1,0.1,0.2,1,9.8,1.2,0.4,0.1,0.1,0,0,0,0,0,0,0,0,0,0,0],"fetchReefNM":[0,0,0,0.1,0.1,0,0,0,0,0,0,0,0,0,0,0,0.1,0.1,0.2,1,9.8,1.2,0.4,0.1,0.1,0,0,0,0,0,0,0,0,0,0,0]}},{"type":"Feature","geometry":{"type":"Point","coordinates":[148.95718,-20.06101]},"properties":{"id":"osm-node2838870587","name":"Mantaray Bay","kind":"anchorage","source":"OpenStreetMap","sourceRef":"node/2838870587","likelyAnchorage":true,"noAnchoring":true,"noAnchoringName":"Manta Ray Bay","notes":null,"fetchLandNM":[15,15,15,15,0.1,0,0,0,0.1,0,0,0,0,0,0,0,0,0,0,0,0.1,0.1,0.1,0.1,0.1,0.1,0.1,0.1,3.4,15,15,15,15,15,15,15],"fetchReefNM":[15,15,15,15,0.1,0,0,0,0.1,0,0,0,0,0,0,0,0,0,0,0,0.1,0.1,0.1,0.1,0.1,0.1,0.1,0.1,3.4,15,15,15,15,15,15,15]}},{"type":"Feature","geometry":{"type":"Point","coordinates":[149.27093,-20.78944]},"properties":{"id":"osm-node2302288833","name":"Maryport Bay","kind":"anchorage","source":"OpenStreetMap","sourceRef":"node/2302288833","likelyAnchorage":true,"noAnchoring":false,"noAnchoringName":null,"notes":null,"fetchLandNM":[15,15,15,0.5,0.4,0.4,0.4,0.4,0.4,0.3,0.3,0.3,0.3,0.4,15,1,0.7,0.7,0.7,0.7,0.4,0.9,1.1,15,14.7,15,15,15,15,6.4,15,9,9.5,15,15,15],"fetchReefNM":[15,15,15,0.5,0.4,0.4,0.4,0.4,0.4,0.3,0.3,0.3,0.3,0.4,15,1,0.7,0.7,0.7,0.7,0.4,0.9,1.1,15,14.7,15,15,15,15,6.4,15,9,9.5,15,15,15]}},{"type":"Feature","geometry":{"type":"Point","coordinates":[148.93815,-20.06774]},"properties":{"id":"osm-node2838870585","name":"Maureen's Cove","kind":"anchorage","source":"OpenStreetMap","sourceRef":"node/2838870585","likelyAnchorage":true,"noAnchoring":false,"noAnchoringName":null,"notes":null,"fetchLandNM":[15,15,15,15,0.2,0.2,0.2,0.1,0.1,0.1,0.1,0.1,0.2,0.2,0.2,0.2,0.1,0.1,0.1,0.1,0.1,0.1,0.2,0.2,0.2,0.2,0.3,1,0.9,2.4,2.9,15,15,15,15,15],"fetchReefNM":[15,15,15,15,0.2,0.2,0.2,0.1,0.1,0.1,0.1,0.1,0.2,0.2,0.2,0.2,0.1,0.1,0.1,0.1,0.1,0.1,0.2,0.2,0.2,0.2,0.3,1,0.9,2.4,2.9,15,15,15,15,15]}},{"type":"Feature","geometry":{"type":"Point","coordinates":[148.81473,-20.27866]},"properties":{"id":"osm-node2569350861","name":"Molle Channel","kind":"anchorage","source":"OpenStreetMap","sourceRef":"node/2569350861","likelyAnchorage":false,"noAnchoring":false,"noAnchoringName":null,"notes":null,"fetchLandNM":[1.1,2.4,2.3,1.9,1.2,1.2,0.7,0.7,0.8,0.8,0.8,0.8,7.2,8.4,3.1,3.9,5.7,3.6,2.5,1.4,2.7,1.3,1.1,2.5,1.3,1.4,1.1,0.8,1.6,2.3,2.5,3,14.1,11.8,15,15],"fetchReefNM":[1.1,2.4,2.3,1.9,1.2,1.2,0.7,0.7,0.8,0.8,0.8,0.8,7.2,8.4,3.1,3.9,5.7,3.6,2.5,1.4,2.7,1.3,1.1,2.5,1.3,1.4,1.1,0.8,1.6,2.3,2.5,3,14.1,11.8,15,15]}},{"type":"Feature","geometry":{"type":"Point","coordinates":[148.79505,-20.24432]},"properties":{"id":"osm-node2982562243","name":"Molle Channel","kind":"anchorage","source":"OpenStreetMap","sourceRef":"node/2982562243","likelyAnchorage":false,"noAnchoring":false,"noAnchoringName":null,"notes":null,"fetchLandNM":[15,15,15,1.7,1.6,1.6,1.5,1.5,1.6,9.5,2,2.1,1.2,1.3,2.9,6.2,6.4,4.6,2,2,1.8,2,1.7,1.4,1.2,1.2,1.2,1.2,1.4,1.9,7.6,13.6,15,9.5,15,15],"fetchReefNM":[15,15,15,1.7,1.6,1.6,1.5,1.5,1.6,9.5,2,2.1,1.2,1.3,2.9,6.2,6.4,4.6,2,2,1.8,2,1.7,1.4,1.2,1.2,1.2,1.2,1.4,1.9,7.6,13.6,15,9.5,15,15]}},{"type":"Feature","geometry":{"type":"Point","coordinates":[148.91214,-20.1374]},"properties":{"id":"osm-node2838871153","name":"Nara Inlet","kind":"anchorage","source":"OpenStreetMap","sourceRef":"node/2838871153","likelyAnchorage":true,"noAnchoring":false,"noAnchoringName":null,"notes":null,"fetchLandNM":[0.5,0.8,0.5,0.3,0.2,0.2,0.3,0.3,0.4,0.2,0.1,0.2,0.2,0.2,0.1,0.1,0.2,0.3,0.4,0.8,13.2,8.6,0.8,0.3,0.2,0.2,0.2,0.2,0.2,0.2,0.2,0.2,0.2,0.2,0.3,0.3],"fetchReefNM":[0.5,0.8,0.5,0.3,0.2,0.2,0.3,0.3,0.4,0.2,0.1,0.2,0.2,0.2,0.1,0.1,0.2,0.3,0.4,0.8,13.2,8.4,0.8,0.3,0.2,0.2,0.2,0.2,0.2,0.2,0.2,0.2,0.2,0.2,0.3,0.3]}},{"type":"Feature","geometry":{"type":"Point","coordinates":[148.51387,-20.08672]},"properties":{"id":"osm-node2459196521","name":"Nelly Bay","kind":"anchorage","source":"OpenStreetMap","sourceRef":"node/2459196521","likelyAnchorage":true,"noAnchoring":false,"noAnchoringName":null,"notes":null,"fetchLandNM":[0.4,15,15,15,15,2.1,15,1.6,1.4,1.1,1,1.1,0.9,0.4,0.4,0.4,0.4,0.4,0.4,0.4,0.4,0.3,0.3,0.3,0.3,0.3,0.4,1.2,1.2,1.2,2.4,3.3,3.4,0.4,0.5,0.5],"fetchReefNM":[0.4,15,15,15,15,2.1,15,1.6,1.4,1.1,1,1.1,0.9,0.4,0.4,0.4,0.4,0.4,0.4,0.4,0.4,0.3,0.3,0.3,0.3,0.3,0.4,1.2,1.2,1.2,2.4,3.3,3.4,0.4,0.5,0.5]}},{"type":"Feature","geometry":{"type":"Point","coordinates":[148.91501,-20.3433]},"properties":{"id":"gbrmpa-80054","name":"North West Dent Island","kind":"designated_anchorage","source":"GBRMPA","sourceRef":"80054","likelyAnchorage":true,"noAnchoring":false,"noAnchoringName":null,"notes":"The area within 200 metres of the point 20°20.600′S 148°54.900′E · Management area: Townsville/Whitsunday management area · Great Barrier Reef Marine Park Regulations 2019","fetchLandNM":[3.3,2.9,1.7,1.3,3.1,3.5,2.9,0.6,0.7,0.7,0.7,0.8,0.9,0.9,1.2,1.5,15,15,10,7.4,7.3,2.5,2.2,2.3,3.2,3.1,3.4,3.6,3.4,3.6,7.5,5.8,6.1,15,15,15],"fetchReefNM":[3.3,2.9,1.7,1.3,3.1,3.5,2.9,0.6,0.7,0.7,0.7,0.8,0.9,0.9,1.2,1.5,15,15,10,7.4,7.3,2.5,2.2,2.3,3.2,3.1,3.4,3.6,3.4,3.6,7.5,5.8,6.1,15,15,15]}},{"type":"Feature","geometry":{"type":"Point","coordinates":[149.28702,-20.81458]},"properties":{"id":"osm-node882289561","name":"Oak Bay","kind":"anchorage","source":"OpenStreetMap","sourceRef":"node/882289561","likelyAnchorage":true,"noAnchoring":false,"noAnchoringName":null,"notes":null,"fetchLandNM":[0.7,0.9,1,1.2,1.1,1,15,6.6,15,0.1,0.1,0.2,0.1,0.1,0.1,0.1,0.1,0.1,0.1,0.1,0.1,0.1,0.1,0.1,0.1,0.1,0.1,0.1,0.1,0.1,0.2,0.2,0.4,0.4,0.4,0.8],"fetchReefNM":[0.7,0.9,1,1.2,1.1,1,15,6.6,15,0.1,0.1,0.2,0.1,0.1,0.1,0.1,0.1,0.1,0.1,0.1,0.1,0.1,0.1,0.1,0.1,0.1,0.1,0.1,0.1,0.1,0.2,0.2,0.4,0.4,0.4,0.8]}},{"type":"Feature","geometry":{"type":"Point","coordinates":[149.27543,-20.81795]},"properties":{"id":"osm-node882289558","name":"Oyster Bay","kind":"anchorage","source":"OpenStreetMap","sourceRef":"node/882289558","likelyAnchorage":true,"noAnchoring":false,"noAnchoringName":null,"notes":null,"fetchLandNM":[0.1,0.1,0.1,0.1,0.1,0.1,0.1,0.1,0.1,0.1,0.1,0.1,0.1,0.2,15,15,15,15,15,15,0.2,0.1,0.1,0.1,0.1,0.1,0.1,0.1,0.1,0.1,0.1,0.1,0.1,0.1,0.1,0.1],"fetchReefNM":[0.1,0.1,0.1,0.1,0.1,0.1,0.1,0.1,0.1,0.1,0.1,0.1,0.1,0.2,15,15,15,15,15,15,0.2,0.1,0.1,0.1,0.1,0.1,0.1,0.1,0.1,0.1,0.1,0.1,0.1,0.1,0.1,0.1]}},{"type":"Feature","geometry":{"type":"Point","coordinates":[148.8459,-20.26677]},"properties":{"id":"osm-node6562219640","name":"Oyster Bay","kind":"anchorage","source":"OpenStreetMap","sourceRef":"node/6562219640","likelyAnchorage":true,"noAnchoring":false,"noAnchoringName":null,"notes":null,"fetchLandNM":[0.1,0.1,0.1,0.2,0.2,8.4,7,0.3,0.3,0.3,0.3,0.4,15,7.5,7.2,15,6.5,0.1,0.1,0.1,0.1,0.1,0.1,0.1,0.1,0.1,0,0,0,0,0.1,0.1,0.1,0.1,0.1,0.1],"fetchReefNM":[0.1,0.1,0.1,0.2,0.2,8.4,7,0.3,0.3,0.3,0.3,0.4,15,7.5,7.2,15,6.5,0.1,0.1,0.1,0.1,0.1,0.1,0.1,0.1,0.1,0,0,0,0,0.1,0.1,0.1,0.1,0.1,0.1]}},{"type":"Feature","geometry":{"type":"Point","coordinates":[148.83248,-20.25564]},"properties":{"id":"osm-node6191066367","name":"Paddle Bay","kind":"anchorage","source":"OpenStreetMap","sourceRef":"node/6191066367","likelyAnchorage":true,"noAnchoring":false,"noAnchoringName":null,"notes":null,"fetchLandNM":[15,15,8.5,6.3,6.8,7.2,8.3,7.3,6,4.4,0.8,0.7,0.6,0.6,0.5,0.1,0.1,0.1,0,0,0,0,0,0,0,0,0,0,0,0,0,0.1,0.1,15,0.4,0.2],"fetchReefNM":[0,0,0,0,0,0,0,0,0,0,0,0,0,0,0,0,0.1,0.1,0,0,0,0,0,0,0,0,0,0,0,0,0,0.1,0.1,15,0.4,0]}},{"type":"Feature","geometry":{"type":"Point","coordinates":[148.84856,-20.34392]},"properties":{"id":"osm-node1520098254","name":"Palm Bay","kind":"anchorage","source":"OpenStreetMap","sourceRef":"node/1520098254","likelyAnchorage":true,"noAnchoring":false,"noAnchoringName":null,"notes":null,"fetchLandNM":[0.1,0.1,0.1,0.1,0.1,0,0,0,0,0,0,0,0,0,0,0,0,0,0,0,0,0,0,0.7,0.7,0.7,0.8,0.9,1,1.7,1.7,4.8,5,15,0.2,0.1],"fetchReefNM":[0.1,0.1,0.1,0.1,0.1,0,0,0,0,0,0,0,0,0,0,0,0,0,0,0,0,0,0,0.7,0.7,0.7,0.8,0.9,1,1.7,1.7,4.8,5,15,0.2,0.1]}},{"type":"Feature","geometry":{"type":"Point","coordinates":[148.83279,-20.28213]},"properties":{"id":"osm-node6562219635","name":"Pine Bay","kind":"anchorage","source":"OpenStreetMap","sourceRef":"node/6562219635","likelyAnchorage":true,"noAnchoring":false,"noAnchoringName":null,"notes":null,"fetchLandNM":[0,0.1,0.1,0,0.1,0.1,0.1,0.1,0.1,0.1,1,5.2,7.4,7,15,2.4,2.4,4.3,3.7,3.6,2.6,2.7,3,0.1,0.1,0.1,0.1,0.1,0.1,0.1,0.1,0,0,0,0,0],"fetchReefNM":[0,0.1,0.1,0,0.1,0.1,0.1,0.1,0.1,0.1,1,5.2,7.4,7,15,2.4,2.4,4.3,3.7,3.6,2.6,2.7,3,0.1,0.1,0.1,0.1,0.1,0.1,0.1,0.1,0,0,0,0,0]}},{"type":"Feature","geometry":{"type":"Point","coordinates":[148.7046,-20.25155]},"properties":{"id":"osm-node2530284965","name":"Pioneer Bay","kind":"anchorage","source":"OpenStreetMap","sourceRef":"node/2530284965","likelyAnchorage":true,"noAnchoring":false,"noAnchoringName":null,"notes":null,"fetchLandNM":[15,15,15,15,15,15,11.7,2.9,2.7,2.7,1.6,1.8,1.9,1.5,0.9,0.9,1,1.1,1.1,1.3,1.3,0.9,2.1,2,1.7,1.5,1.6,1.4,1.3,1.2,1.3,1.5,3.5,3.8,4.4,15],"fetchReefNM":[15,15,15,15,15,15,11.7,2.9,2.7,2.7,1.6,1.8,1.9,1.5,0.9,0.9,1,1.1,1.1,1.3,1.3,0.9,2.1,2,1.7,1.5,1.6,1.4,1.3,1.2,1.3,1.5,3.5,3.8,4.4,15]}},{"type":"Feature","geometry":{"type":"Point","coordinates":[149.05494,-20.45272]},"properties":{"id":"osm-node8375803920","name":"Plantation Bay","kind":"anchorage","source":"OpenStreetMap","sourceRef":"node/8375803920","likelyAnchorage":true,"noAnchoring":false,"noAnchoringName":null,"notes":null,"fetchLandNM":[0.1,0.1,0.2,0.2,0.2,0.2,0.2,0.2,0.2,0.2,1.6,1.5,1.4,1.5,1.9,1.7,2.2,3.1,2,3.3,15,15,15,1.3,0.4,0.4,0.2,0.2,0.2,0.2,0.2,0.2,0.1,0.1,0.1,0.1],"fetchReefNM":[0.1,0.1,0.2,0.2,0.2,0.2,0.2,0.2,0.2,0.2,1.6,1.5,1.4,1.5,1.9,1.7,2.2,3.1,2,3.3,15,15,15,1.3,0.4,0.4,0.2,0.2,0.2,0.2,0.2,0.2,0.1,0.1,0.1,0.1]}},{"type":"Feature","geometry":{"type":"Point","coordinates":[148.2572,-20.03699]},"properties":{"id":"osm-node2415446268","name":"Port Denison","kind":"anchorage","source":"OpenStreetMap","sourceRef":"node/2415446268","likelyAnchorage":true,"noAnchoring":false,"noAnchoringName":null,"notes":null,"fetchLandNM":[1.1,1,0.9,0.9,15,15,15,1.3,1.2,1.3,10.7,11,12.9,11.8,3.5,2.9,2.1,2,1.6,1.3,1.3,1.3,1.4,1.6,1.6,1.6,1.7,1.6,1.5,1.5,1.4,1.4,1.2,1.2,1.3,1.2],"fetchReefNM":[1.1,1,0.9,0.9,15,15,15,1.3,1.2,1.3,10.7,11,12.9,11.8,3.5,2.9,2.1,2,1.6,1.3,1.3,1.3,1.4,1.6,1.6,1.6,1.7,1.6,1.5,1.5,1.4,1.4,1.2,1.2,1.3,1.2]}},{"type":"Feature","geometry":{"type":"Point","coordinates":[148.83234,-20.32198]},"properties":{"id":"gbrmpa-80026","name":"Port Molle","kind":"designated_anchorage","source":"GBRMPA","sourceRef":"80026","likelyAnchorage":true,"noAnchoring":false,"noAnchoringName":null,"notes":"  · Management area: Townsville/Whitsunday management area · Great Barrier Reef Marine Park Regulations 2019","fetchLandNM":[2.4,2.7,2.6,10.6,11,5.8,6.7,5.6,0.9,0.8,0.9,1.1,1.2,1.2,1.1,1.8,2.4,1.7,1.3,1.1,1,1.5,1.5,0.7,0.7,0.7,0.8,0.9,2.2,3.6,4.1,2.1,2.7,15,15,5.9],"fetchReefNM":[2.4,2.7,2.6,10.6,11,5.8,6.7,5.6,0.9,0.8,0.9,1.1,1.2,1.2,1.1,1.8,2.4,1.7,1.3,1.1,1,1.5,1.5,0.7,0.7,0.7,0.8,0.9,2.2,3.6,4.1,2.1,2.7,15,15,5.9]}},{"type":"Feature","geometry":{"type":"Point","coordinates":[148.72508,-20.27024]},"properties":{"id":"osm-way246107890","name":"Port of Airlie Marina","kind":"marina","source":"OpenStreetMap","sourceRef":"way/246107890","likelyAnchorage":true,"noAnchoring":false,"noAnchoringName":null,"notes":null,"fetchLandNM":[0.1,0.1,0.1,0.1,0.1,0.1,0.1,0.6,0.5,0.4,0.4,0.5,0.1,0.1,0.1,0.1,0.1,0.1,0.1,0.1,0.1,0.1,0.1,0.1,0.1,0.1,0.1,0.1,0.1,0.1,0.1,0.1,0.1,0.1,0.1,0.1],"fetchReefNM":[0.1,0.1,0.1,0.1,0.1,0.1,0.1,0.6,0.5,0.4,0.4,0.5,0.1,0.1,0.1,0.1,0.1,0.1,0.1,0.1,0.1,0.1,0.1,0.1,0.1,0.1,0.1,0.1,0.1,0.1,0.1,0.1,0.1,0.1,0.1,0.1]}},{"type":"Feature","geometry":{"type":"Point","coordinates":[148.34868,-20.05083]},"properties":{"id":"osm-node3020493557","name":"Port of Bowen","kind":"anchorage","source":"OpenStreetMap","sourceRef":"node/3020493557","likelyAnchorage":true,"noAnchoring":false,"noAnchoringName":null,"notes":null,"fetchLandNM":[15,3.9,15,15,15,7.1,6.1,5.3,5.5,6,5.4,5.5,6.1,8.4,7.9,7.7,7.2,6.5,6.4,5.3,5.2,4.8,4.5,4.8,4.8,4.3,5.1,6.5,3.6,3.9,5.5,6.1,15,15,15,15],"fetchReefNM":[15,3.9,15,15,15,7.1,6.1,5.3,5.5,6,5.4,5.5,6.1,8.4,7.9,7.7,7.2,6.5,6.4,5.3,5.2,4.8,4.5,4.8,4.8,4.3,5.1,6.5,3.6,3.9,5.5,6.1,15,15,15,15]}},{"type":"Feature","geometry":{"type":"Point","coordinates":[149.22733,-21.10511]},"properties":{"id":"osm-node3020493558","name":"Port of Mackay","kind":"anchorage","source":"OpenStreetMap","sourceRef":"node/3020493558","likelyAnchorage":true,"noAnchoring":false,"noAnchoringName":null,"notes":null,"fetchLandNM":[0.2,0.2,0.2,0.2,0.2,0.2,0.2,0.3,0.3,15,0.4,0.3,0.3,0.3,0.3,0.3,0.3,0.3,0.3,0.3,0.3,0.3,0.3,0.2,0.2,0.2,0.2,0.2,0.2,0.2,0.2,0.2,0.2,0.2,0.2,0.2],"fetchReefNM":[0.2,0.2,0.2,0.2,0.2,0.2,0.2,0.3,0.3,15,0.4,0.3,0.3,0.3,0.3,0.3,0.3,0.3,0.3,0.3,0.3,0.3,0.3,0.2,0.2,0.2,0.2,0.2,0.2,0.2,0.2,0.2,0.2,0.2,0.2,0.2]}},{"type":"Feature","geometry":{"type":"Point","coordinates":[148.88208,-20.46079]},"properties":{"id":"osm-node2982555203","name":"Puritan Bay","kind":"anchorage","source":"OpenStreetMap","sourceRef":"node/2982555203","likelyAnchorage":true,"noAnchoring":false,"noAnchoringName":null,"notes":null,"fetchLandNM":[15,10.4,7.3,5.8,7.4,14.9,15,15,8.6,8.6,10.7,0.7,0.6,0.5,0.5,0.5,0.6,0.6,0.7,0.6,0.6,0.6,0.6,0.5,0.5,0.5,0.5,0.6,0.6,0.7,1.6,2.5,3.9,4.8,6.7,4],"fetchReefNM":[15,10.4,7.3,5.8,7.4,14.9,15,15,8.6,8.6,10.7,0.7,0.6,0.5,0.5,0.5,0.6,0.6,0.7,0.6,0.6,0.6,0.6,0.5,0.5,0.5,0.5,0.6,0.6,0.7,1.6,2.5,3.9,4.8,6.7,4]}},{"type":"Feature","geometry":{"type":"Point","coordinates":[149.59692,-20.85952]},"properties":{"id":"osm-node3020493592","name":"Refuge Bay","kind":"anchorage","source":"OpenStreetMap","sourceRef":"node/3020493592","likelyAnchorage":true,"noAnchoring":false,"noAnchoringName":null,"notes":null,"fetchLandNM":[15,5.1,15,0.8,0.5,0.4,0.4,0.4,0.4,0.5,0.5,0.6,0.6,0.6,0.6,0.6,0.6,0.4,0.3,0.3,0.5,0.5,0.6,0.5,0.5,0.6,15,15,15,15,15,15,15,15,15,15],"fetchReefNM":[15,5.1,15,0.8,0.5,0.4,0.4,0.4,0.4,0.5,0.5,0.6,0.6,0.6,0.6,0.6,0.6,0.4,0.3,0.3,0.5,0.5,0.6,0.5,0.5,0.6,15,15,15,15,15,15,15,15,15,15]}},{"type":"Feature","geometry":{"type":"Point","coordinates":[148.70472,-20.6205]},"properties":{"id":"osm-node2510073132","name":"Repulse Bay","kind":"anchorage","source":"OpenStreetMap","sourceRef":"node/2510073132","likelyAnchorage":true,"noAnchoring":false,"noAnchoringName":null,"notes":null,"fetchLandNM":[6.1,8.6,9.2,11.6,10.6,10.3,11.6,15,9.9,15,15,15,1.4,1.2,1.2,1.5,1.4,1.2,1.2,1.2,1.1,1,0.9,0.9,0.8,0.9,0.9,1,1.1,1.2,1.3,2.4,3.3,3.5,4.2,4.7],"fetchReefNM":[6.1,8.6,9.2,11.6,10.6,10.3,11.6,15,9.9,15,15,15,1.4,1.2,1.2,1.5,1.4,1.2,1.2,1.2,1.1,1,0.9,0.9,0.8,0.9,0.9,1,1.1,1.2,1.3,2.4,3.3,3.5,4.2,4.7]}},{"type":"Feature","geometry":{"type":"Point","coordinates":[148.77628,-20.53698]},"properties":{"id":"osm-node2519733394","name":"Repulse Bay","kind":"anchorage","source":"OpenStreetMap","sourceRef":"node/2519733394","likelyAnchorage":true,"noAnchoring":false,"noAnchoringName":null,"notes":null,"fetchLandNM":[4.1,5.2,5.3,5,4.2,3.1,4.3,4.2,4.5,6.5,15,15,6.6,6.6,15,15,15,14.5,11.7,11.1,9.1,7.3,7.3,6.7,6.9,6.5,5.3,4.6,4.2,4.1,4.2,4.5,4.3,4,4.1,3.7],"fetchReefNM":[4.1,5.2,5.3,5,4.2,3.1,4.3,4.2,4.5,6.5,15,15,6.6,6.6,15,15,15,14.5,11.7,11.1,9.1,7.3,7.3,6.7,6.9,6.5,5.3,4.6,4.2,4.1,4.2,4.5,4.3,4,4.1,3.7]}},{"type":"Feature","geometry":{"type":"Point","coordinates":[148.6815,-20.6045]},"properties":{"id":"osm-way244814285","name":"Repulse Bay Marina","kind":"marina","source":"OpenStreetMap","sourceRef":"way/244814285","likelyAnchorage":true,"noAnchoring":false,"noAnchoringName":null,"notes":null,"fetchLandNM":[3,4.1,7.9,8.9,11.6,10.6,10.7,12.4,15,0.1,0.1,0.1,0.1,0.1,0.1,0.1,0.1,0.1,0.1,0.1,0.1,0.1,0.1,0.1,0.1,0.1,0.1,0.1,0.1,0.1,0.1,0.1,0.1,0.1,2.1,2.5],"fetchReefNM":[3,4.1,7.9,8.9,11.6,10.6,10.7,12.4,15,0.1,0.1,0.1,0.1,0.1,0.1,0.1,0.1,0.1,0.1,0.1,0.1,0.1,0.1,0.1,0.1,0.1,0.1,0.1,0.1,0.1,0.1,0.1,0.1,0.1,2.1,2.5]}},{"type":"Feature","geometry":{"type":"Point","coordinates":[148.79111,-20.30591]},"properties":{"id":"osm-node2982559408","name":"Rooper Inlet","kind":"anchorage","source":"OpenStreetMap","sourceRef":"node/2982559408","likelyAnchorage":true,"noAnchoring":false,"noAnchoringName":null,"notes":null,"fetchLandNM":[0.5,0.9,1.6,0.4,0.4,0.7,0.7,7.2,1.1,8.2,3.5,3.4,3.5,1.2,1.1,1,0.9,0.5,0.4,0.4,0.4,0.3,0.4,0.3,0.4,0.4,0.5,0.6,0.9,1.3,1.6,1.6,1.2,1,0.8,1.1],"fetchReefNM":[0.5,0.9,1.6,0.4,0.4,0.7,0.7,7.2,1.1,8.2,3.5,3.4,3.5,1.2,1.1,1,0.9,0.5,0.4,0.4,0.4,0.3,0.4,0.3,0.4,0.4,0.5,0.6,0.9,1.3,1.6,1.6,1.2,1,0.8,1.1]}},{"type":"Feature","geometry":{"type":"Point","coordinates":[149.06192,-20.95189]},"properties":{"id":"osm-node2247768922","name":"Sand Bay","kind":"anchorage","source":"OpenStreetMap","sourceRef":"node/2247768922","likelyAnchorage":true,"noAnchoring":false,"noAnchoringName":null,"notes":null,"fetchLandNM":[1.7,15,15,15,15,15,15,15,15,15,15,5.2,6,5.2,1.9,1.8,1.6,1.5,1.5,2,1.9,2.6,3.1,3.2,2.7,2.4,1.8,1.8,2,3,2.7,2.5,2.1,1.4,1.4,1.4],"fetchReefNM":[1.7,15,15,15,15,15,15,15,15,15,15,5.2,6,5.2,1.9,1.8,1.6,1.5,1.5,2,1.9,2.6,3.1,3.2,2.7,2.4,1.8,1.8,2,3,2.7,2.5,2.1,1.4,1.4,1.4]}},{"type":"Feature","geometry":{"type":"Point","coordinates":[149.22489,-21.24938]},"properties":{"id":"osm-node2247776135","name":"Sandringham Bay","kind":"anchorage","source":"OpenStreetMap","sourceRef":"node/2247776135","likelyAnchorage":true,"noAnchoring":false,"noAnchoringName":null,"notes":null,"fetchLandNM":[8,15,15,15,15,15,15,15,15,1.5,1.1,0.9,0.8,0.7,0.7,0.8,0.8,0.8,0.8,1,1.3,2.2,2.2,2.3,1.6,1.2,1,1,0.9,0.8,0.8,0.9,1.9,3.6,4.8,6],"fetchReefNM":[8,15,15,15,15,15,15,15,15,1.5,1.1,0.9,0.8,0.7,0.7,0.8,0.8,0.8,0.8,1,1.3,2.2,2.2,2.3,1.6,1.2,1,1,0.9,0.8,0.8,0.9,1.9,3.6,4.8,6]}},{"type":"Feature","geometry":{"type":"Point","coordinates":[149.21357,-21.26047]},"properties":{"id":"osm-node3020493627","name":"Sandringham Bay","kind":"anchorage","source":"OpenStreetMap","sourceRef":"node/3020493627","likelyAnchorage":true,"noAnchoring":false,"noAnchoringName":null,"notes":null,"fetchLandNM":[7.1,9.9,15,5.8,15,15,15,2.3,1.2,1,0.7,0.6,0.6,0.6,0.7,0.6,0.6,0.6,1,1.3,1.4,1.3,1.4,1.4,1.3,0.8,0.7,0.7,0.7,0.6,0.6,0.6,0.6,0.7,0.8,0.9],"fetchReefNM":[7.1,9.9,15,5.8,15,15,15,2.3,1.2,1,0.7,0.6,0.6,0.6,0.7,0.6,0.6,0.6,1,1.3,1.4,1.3,1.4,1.4,1.3,0.8,0.7,0.7,0.7,0.6,0.6,0.6,0.6,0.7,0.8,0.9]}},{"type":"Feature","geometry":{"type":"Point","coordinates":[148.84964,-20.36584]},"properties":{"id":"osm-node1520098263","name":"Sandy Bay","kind":"anchorage","source":"OpenStreetMap","sourceRef":"node/1520098263","likelyAnchorage":true,"noAnchoring":false,"noAnchoringName":null,"notes":null,"fetchLandNM":[0.1,0.1,0.1,0.1,0.1,0.1,0.1,0.1,0.1,0.1,0.1,0.1,0.1,0.1,0.1,0.1,0.1,0.1,0.1,3.6,1.7,1.5,1.7,1.2,1,1,1.1,0.7,0.7,0.6,0.7,0.7,0.8,0.1,0.1,0.1],"fetchReefNM":[0.1,0.1,0.1,0.1,0.1,0.1,0.1,0.1,0.1,0.1,0.1,0.1,0.1,0.1,0.1,0.1,0.1,0.1,0.1,3.6,1.7,1.5,1.7,1.2,1,1,1.1,0.7,0.7,0.6,0.7,0.7,0.8,0.1,0.1,0.1]}},{"type":"Feature","geometry":{"type":"Point","coordinates":[148.82644,-20.27999]},"properties":{"id":"osm-node6191066369","name":"Sandy Bay","kind":"anchorage","source":"OpenStreetMap","sourceRef":"node/6191066369","likelyAnchorage":true,"noAnchoring":false,"noAnchoringName":null,"notes":null,"fetchLandNM":[0.4,0.3,0.2,0.2,0.2,0.2,0.2,0.2,0.2,0.2,0.1,0.1,0.1,0.1,0.2,0.2,0.2,0.2,3.5,2.7,2.6,2.8,3,1.7,1.6,1.9,2,1.4,2.4,3.1,3.3,15,15,1.3,1.8,3.2],"fetchReefNM":[0.4,0.3,0.2,0.2,0.2,0.2,0.2,0.2,0.2,0.2,0.1,0.1,0.1,0.1,0.2,0.2,0.2,0.2,3.5,2.7,2.6,2.8,3,1.7,1.6,1.9,2,1.4,2.4,3.1,3.3,15,15,1.3,1.8,3.2]}},{"type":"Feature","geometry":{"type":"Point","coordinates":[149.29418,-21.41247]},"properties":{"id":"osm-node2247787793","name":"Sarina Inlet","kind":"anchorage","source":"OpenStreetMap","sourceRef":"node/2247787793","likelyAnchorage":true,"noAnchoring":false,"noAnchoringName":null,"notes":null,"fetchLandNM":[1,0.9,0.8,0.8,1.5,15,15,15,15,0.4,0.4,0.3,0.3,0.3,0.3,0.3,0.3,0.2,0.2,0.2,0.2,0.2,0.2,0.2,0.2,0.3,0.3,0.5,0.8,0.7,0.7,0.6,0.5,1.3,1.4,1.3],"fetchReefNM":[1,0.9,0.8,0.8,1.5,15,15,15,15,0.4,0.4,0.3,0.3,0.3,0.3,0.3,0.3,0.2,0.2,0.2,0.2,0.2,0.2,0.2,0.2,0.3,0.3,0.5,0.8,0.7,0.7,0.6,0.5,1.3,1.4,1.3]}},{"type":"Feature","geometry":{"type":"Point","coordinates":[148.49452,-20.06887]},"properties":{"id":"osm-node2459196520","name":"Shoal Bay","kind":"anchorage","source":"OpenStreetMap","sourceRef":"node/2459196520","likelyAnchorage":true,"noAnchoring":false,"noAnchoringName":null,"notes":null,"fetchLandNM":[15,15,15,15,15,15,15,15,2.4,3.4,2.7,2.6,1.1,2.4,1.9,1.3,1.4,1.3,1.1,0.6,0.8,0.9,0.9,0.8,0.8,0.8,0.9,0.9,1.5,13.7,2.1,1.7,1.7,2.2,3.3,15],"fetchReefNM":[15,15,15,15,15,15,15,15,2.4,3.4,2.7,2.6,1.1,2.4,1.9,1.3,1.4,1.3,1.1,0.6,0.8,0.9,0.9,0.8,0.8,0.8,0.9,0.9,1.5,13.7,2.1,1.7,1.7,2.2,3.3,15]}},{"type":"Feature","geometry":{"type":"Point","coordinates":[148.28758,-20.03054]},"properties":{"id":"osm-node2982684271","name":"Shoal Water Bay","kind":"anchorage","source":"OpenStreetMap","sourceRef":"node/2982684271","likelyAnchorage":true,"noAnchoring":false,"noAnchoringName":null,"notes":null,"fetchLandNM":[15,15,15,15,15,15,5.2,9.3,8.9,8.8,14.9,0.3,0.2,0.2,0.2,0.2,0.2,0.2,0.2,0.2,0.2,0.2,0.3,0.3,0.3,0.4,0.4,0.4,0.4,0.3,0.3,0.2,0.3,2.5,15,15],"fetchReefNM":[15,15,15,15,15,15,5.2,9.3,8.9,8.8,14.9,0.3,0.2,0.2,0.2,0.2,0.2,0.2,0.2,0.2,0.2,0.2,0.3,0.3,0.3,0.4,0.4,0.4,0.4,0.3,0.3,0.2,0.3,2.5,15,15]}},{"type":"Feature","geometry":{"type":"Point","coordinates":[148.77068,-20.29134]},"properties":{"id":"osm-node2569265436","name":"Shute Bay","kind":"anchorage","source":"OpenStreetMap","sourceRef":"node/2569265436","likelyAnchorage":true,"noAnchoring":false,"noAnchoringName":null,"notes":null,"fetchLandNM":[0.2,0.2,0.2,0.2,0.2,0.2,0.2,0.2,0.3,0.6,1.1,1.4,5.1,2.6,1.5,1,0.8,0.6,0.2,0.2,0.2,0.2,0.2,0.2,0.2,0.2,0.2,0.2,0.2,0.3,0.3,0.3,0.3,0.2,0.2,0.3],"fetchReefNM":[0.2,0.2,0.2,0.2,0.2,0.2,0.2,0.2,0.3,0.6,1.1,1.4,5.1,2.6,1.5,1,0.8,0.6,0.2,0.2,0.2,0.2,0.2,0.2,0.2,0.2,0.2,0.2,0.2,0.3,0.3,0.3,0.3,0.2,0.2,0.3]}},{"type":"Feature","geometry":{"type":"Point","coordinates":[148.78779,-20.29211]},"properties":{"id":"osm-way250494186","name":"Shute Harbour Marina","kind":"marina","source":"OpenStreetMap","sourceRef":"way/250494186","likelyAnchorage":true,"noAnchoring":false,"noAnchoringName":null,"notes":null,"fetchLandNM":[0.2,0.3,0.2,0.2,0.2,0.2,0.2,0.3,0.3,0.7,0.7,0.7,0.6,0.2,0.3,0.3,1.8,1.3,1.1,1,0.9,0.9,1,1,1.1,0.1,0.1,0.1,0.1,0.1,0.1,0.1,0.1,0,0,0.1],"fetchReefNM":[0.2,0.3,0.2,0.2,0.2,0.2,0.2,0.3,0.3,0.7,0.7,0.7,0.6,0.2,0.3,0.3,1.8,1.3,1.1,1,0.9,0.9,1,1,1.1,0.1,0.1,0.1,0.1,0.1,0.1,0.1,0.1,0,0,0.1]}},{"type":"Feature","geometry":{"type":"Point","coordinates":[149.03403,-20.30241]},"properties":{"id":"osm-node13823198735","name":"Silica Bay","kind":"anchorage","source":"OpenStreetMap","sourceRef":"node/13823198735","likelyAnchorage":true,"noAnchoring":false,"noAnchoringName":null,"notes":null,"fetchLandNM":[0.1,0.1,0.1,0.1,0.1,0.1,0.1,0.1,0.1,0.1,0.1,0.1,0.1,0.1,0.2,0.2,0.2,0.3,5.6,15,15,0.9,0.2,0.1,0.1,0.1,0.1,0.1,0.1,0.1,0.1,0.1,0.1,0.1,0.1,0.1],"fetchReefNM":[0.1,0.1,0.1,0.1,0.1,0.1,0.1,0.1,0.1,0.1,0.1,0.1,0.1,0.1,0.2,0.2,0.2,0.3,5.6,15,15,0.9,0.2,0.1,0.1,0.1,0.1,0.1,0.1,0.1,0.1,0.1,0.1,0.1,0.1,0.1]}},{"type":"Feature","geometry":{"type":"Point","coordinates":[148.4514,-20.12932]},"properties":{"id":"osm-node2459168296","name":"Sinclair Bay","kind":"anchorage","source":"OpenStreetMap","sourceRef":"node/2459168296","likelyAnchorage":true,"noAnchoring":false,"noAnchoringName":null,"notes":null,"fetchLandNM":[1.1,1.1,1.1,1,1,1.2,1.6,1.2,0.9,0.9,1,1,1,0.9,1,1,1,1,0.9,0.9,1,1.6,2.5,3.3,4.1,4.9,6.5,7.7,9.6,11.7,10.7,13.8,15,9.9,1.1,1],"fetchReefNM":[1.1,1.1,1.1,1,1,1.2,1.6,1.2,0.9,0.9,1,1,1,0.9,1,1,1,1,0.9,0.9,1,1.6,2.5,3.3,4.1,4.9,6.5,7.7,9.6,11.7,10.7,13.8,15,9.9,1.1,1]}},{"type":"Feature","geometry":{"type":"Point","coordinates":[148.45286,-20.11369]},"properties":{"id":"osm-node9070977180","name":"Sinclair Bay","kind":"anchorage","source":"OpenStreetMap","sourceRef":"node/9070977180","likelyAnchorage":true,"noAnchoring":false,"noAnchoringName":null,"notes":null,"fetchLandNM":[0.2,0.2,0.2,0.2,0.2,0.2,0.3,0.3,0.4,0.4,0.4,1.4,1.1,1.1,1.4,1.6,1.7,1.9,1.9,1.9,2.5,3.3,4,0.4,0.3,0.3,0.3,0.3,0.2,0.2,0.2,0.2,0.2,0.2,0.2,0.2],"fetchReefNM":[0.2,0.2,0.2,0.2,0.2,0.2,0.3,0.3,0.4,0.4,0.4,1.4,1.1,1.1,1.4,1.6,1.7,1.9,1.9,1.9,2.5,3.3,4,0.4,0.3,0.3,0.3,0.3,0.2,0.2,0.2,0.2,0.2,0.2,0.2,0.2]}},{"type":"Feature","geometry":{"type":"Point","coordinates":[149.39112,-20.91046]},"properties":{"id":"osm-node8367669359","name":"Singapore Bay","kind":"anchorage","source":"OpenStreetMap","sourceRef":"node/8367669359","likelyAnchorage":true,"noAnchoring":false,"noAnchoringName":null,"notes":null,"fetchLandNM":[0.2,0.2,0.2,0.2,0.1,0.1,0.1,0.1,0.2,0.2,0.3,0.3,0.3,0.3,0.4,0.4,0.6,15,15,15,15,15,14.5,14.2,14.6,15,15,0.2,0.1,0.1,0.1,0.1,0.1,0.2,0.2,0.2],"fetchReefNM":[0.2,0.2,0.2,0.2,0.1,0.1,0.1,0.1,0.2,0.2,0.3,0.3,0.3,0.3,0.4,0.4,0.6,15,15,15,15,15,14.5,14.2,14.6,15,15,0.2,0.1,0.1,0.1,0.1,0.1,0.2,0.2,0.2]}},{"type":"Feature","geometry":{"type":"Point","coordinates":[149.21307,-21.06542]},"properties":{"id":"osm-node2247770932","name":"Slade Bay","kind":"anchorage","source":"OpenStreetMap","sourceRef":"node/2247770932","likelyAnchorage":true,"noAnchoring":false,"noAnchoringName":null,"notes":null,"fetchLandNM":[15,15,15,15,15,13.8,14.8,15,15,0.6,0.5,0.4,0.4,0.4,0.4,0.5,0.5,0.5,0.5,0.7,0.7,0.6,0.6,0.6,0.6,0.6,0.7,0.8,0.9,1,1.2,1.7,2.4,15,15,15],"fetchReefNM":[15,15,15,15,15,13.8,14.8,15,15,0.6,0.5,0.4,0.4,0.4,0.4,0.5,0.5,0.5,0.5,0.7,0.7,0.6,0.6,0.6,0.6,0.6,0.7,0.8,0.9,1,1.2,1.7,2.4,15,15,15]}},{"type":"Feature","geometry":{"type":"Point","coordinates":[148.25491,-20.01654]},"properties":{"id":"osm-way245297470","name":"Small Ships Harbour","kind":"marina","source":"OpenStreetMap","sourceRef":"way/245297470","likelyAnchorage":true,"noAnchoring":false,"noAnchoringName":null,"notes":null,"fetchLandNM":[0.1,0.1,0.1,0.1,0.1,0.1,0.1,0.1,0.1,0.1,0.1,0.1,0.2,0.2,0.2,0.1,0.1,0.1,0.1,0,0,0,0,0,0,0.1,0.1,0.1,0.1,0.1,0.1,0.1,0.1,0.1,0.1,0.1],"fetchReefNM":[0.1,0.1,0.1,0.1,0.1,0.1,0.1,0.1,0.1,0.1,0.1,0.1,0.2,0.2,0.2,0.1,0.1,0.1,0.1,0,0,0,0,0,0,0.1,0.1,0.1,0.1,0.1,0.1,0.1,0.1,0.1,0.1,0.1]}},{"type":"Feature","geometry":{"type":"Point","coordinates":[149.06217,-20.30575]},"properties":{"id":"osm-node2982528434","name":"Solway Pass","kind":"anchorage","source":"OpenStreetMap","sourceRef":"node/2982528434","likelyAnchorage":false,"noAnchoring":false,"noAnchoringName":null,"notes":null,"fetchLandNM":[0.5,15,2.2,0.9,0.8,0.3,0.2,0.2,0.2,0.2,0.2,0.3,0.4,15,15,15,10.1,7.2,8.6,7.6,5.6,15,13.3,4.6,1,0.3,0.3,0.4,0.7,0.6,0.6,0.6,0.4,0.4,0.4,0.4],"fetchReefNM":[0.5,15,2.2,0.9,0.8,0.3,0.2,0.2,0.2,0.2,0.2,0.3,0.4,15,15,15,10.1,7.2,8.6,7.6,5.6,15,13.3,4.6,1,0.3,0.3,0.4,0.7,0.6,0.6,0.6,0.4,0.4,0.4,0.4]}},{"type":"Feature","geometry":{"type":"Point","coordinates":[148.98751,-20.3683]},"properties":{"id":"gbrmpa-80029","name":"South East Hamilton","kind":"designated_anchorage","source":"GBRMPA","sourceRef":"80029","likelyAnchorage":true,"noAnchoring":false,"noAnchoringName":null,"notes":"The area within 200 metres of the point 20°22.100′S 148°59.250′E · Management area: Townsville/Whitsunday management area · Great Barrier Reef Marine Park Regulations 2019","fetchLandNM":[3.9,0.7,0.7,0.9,0.8,0.7,15,2.3,15,15,15,15,6.4,2.7,4.3,4.8,8.7,15,15,15,10,9.2,7.6,8.5,8.8,8.9,1.4,1.8,0.8,0.6,0.7,0.8,0.8,1,1,2.8],"fetchReefNM":[3.9,0.7,0.7,0.9,0.8,0.7,15,2.3,15,15,15,15,6.4,2.7,4.3,4.8,8.7,15,15,15,10,9.2,7.6,8.5,8.8,8.9,1.4,1.8,0.8,0.6,0.7,0.8,0.8,1,1,2.8]}},{"type":"Feature","geometry":{"type":"Point","coordinates":[148.96167,-20.38164]},"properties":{"id":"gbrmpa-80055","name":"South Hamilton","kind":"designated_anchorage","source":"GBRMPA","sourceRef":"80055","likelyAnchorage":true,"noAnchoring":false,"noAnchoringName":null,"notes":"The area within 200 metres of the point 20°22.900′S 148°57.700′E · Management area: Townsville/Whitsunday management area · Great Barrier Reef Marine Park Regulations 2019","fetchLandNM":[1.3,0.5,1,1.1,1.3,2.4,15,15,15,15,15,7.4,7.6,5.2,6.6,8.5,15,15,15,15,8.1,6.3,7.1,6.9,7.1,7.4,6.9,3.8,1.2,1.3,0.5,0.5,0.6,0.6,1,1.3],"fetchReefNM":[1.3,0.5,1,1.1,1.3,2.4,15,15,15,15,15,7.4,7.6,5.2,6.6,8.5,15,15,15,15,8.1,6.3,7.1,6.9,7.1,7.4,6.9,3.8,1.2,1.3,0.5,0.5,0.6,0.6,1,1.3]}},{"type":"Feature","geometry":{"type":"Point","coordinates":[148.87964,-20.06992]},"properties":{"id":"gbrmpa-80023","name":"South Hayman","kind":"designated_anchorage","source":"GBRMPA","sourceRef":"80023","likelyAnchorage":true,"noAnchoring":false,"noAnchoringName":null,"notes":"  · Management area: Townsville/Whitsunday management area · Great Barrier Reef Marine Park Regulations 2019","fetchLandNM":[0.6,0.6,0.6,0.9,0.9,0.9,0.9,15,2.4,1.7,1.5,1.4,1.6,2.3,1,2.8,2.6,2.9,15,11.5,9.7,0.6,15,15,13.1,15,15,15,15,15,15,15,15,0.7,15,15],"fetchReefNM":[0.6,0.6,0.6,0.9,0.9,0.9,0.9,15,2.4,1.7,1.5,1.4,1.6,2.3,1,2.8,2.6,2.9,15,11.4,9.7,0.6,15,15,13.1,15,15,15,15,15,15,15,15,0.7,15,15]}},{"type":"Feature","geometry":{"type":"Point","coordinates":[148.8654,-20.82614]},"properties":{"id":"osm-node2520866837","name":"St Helens Bay","kind":"anchorage","source":"OpenStreetMap","sourceRef":"node/2520866837","likelyAnchorage":true,"noAnchoring":false,"noAnchoringName":null,"notes":null,"fetchLandNM":[12.4,15,1.9,15,15,15,15,15,15,15,1.5,1.5,1.7,2.6,3.1,1.8,2.1,3.2,2.5,2.7,3,2.1,1.5,1.5,1.4,1.5,1.5,1.5,2.9,3.7,3,2.9,2.9,15,2.4,1.8],"fetchReefNM":[12.4,15,1.9,15,15,15,15,15,15,15,1.5,1.5,1.7,2.6,3.1,1.8,2.1,3.2,2.5,2.7,3,2.1,1.5,1.5,1.4,1.5,1.5,1.5,2.9,3.7,3,2.9,2.9,15,2.4,1.8]}},{"type":"Feature","geometry":{"type":"Point","coordinates":[149.39368,-20.90288]},"properties":{"id":"osm-node8367669362","name":"Stanley Bay","kind":"anchorage","source":"OpenStreetMap","sourceRef":"node/8367669362","likelyAnchorage":true,"noAnchoring":false,"noAnchoringName":null,"notes":null,"fetchLandNM":[7.7,15,15,15,15,15,15,0.6,0.1,0.1,0.1,0.1,0.1,0.1,0.1,0.1,0.1,0.1,0.1,0.1,0.1,0.1,0.1,0.1,0.1,0.1,0.1,0.1,15,15,15,7.6,8,15,15,15],"fetchReefNM":[7.7,15,15,15,15,15,15,0.6,0.1,0.1,0.1,0.1,0.1,0.1,0.1,0.1,0.1,0.1,0.1,0.1,0.1,0.1,0.1,0.1,0.1,0.1,0.1,0.1,15,15,15,7.6,8,15,15,15]}},{"type":"Feature","geometry":{"type":"Point","coordinates":[148.90294,-20.09676]},"properties":{"id":"osm-node8846936457","name":"Stonehaven Bay","kind":"anchorage","source":"OpenStreetMap","sourceRef":"node/8846936457","likelyAnchorage":true,"noAnchoring":false,"noAnchoringName":null,"notes":null,"fetchLandNM":[0.9,0.7,0.6,0.6,0.7,0.6,0.5,0.4,0.3,0.2,0.2,0.3,0.5,0.5,0.5,0.6,0.6,0.8,0.7,0.7,0.7,1,1.1,15,15,15,15,14,15,15,2,15,0.9,2.5,2.5,2.3],"fetchReefNM":[0.9,0.7,0.6,0.6,0.7,0.6,0.5,0.4,0.3,0.2,0.2,0.3,0.5,0.5,0.5,0.6,0.6,0.8,0.7,0.7,0.7,1,1.1,15,15,15,15,14,15,15,2,15,0.9,2.5,2.5,2.3]}},{"type":"Feature","geometry":{"type":"Point","coordinates":[149.16732,-21.02203]},"properties":{"id":"osm-node3020493931","name":"Sunset Bay","kind":"anchorage","source":"OpenStreetMap","sourceRef":"node/3020493931","likelyAnchorage":true,"noAnchoring":false,"noAnchoringName":null,"notes":null,"fetchLandNM":[15,15,13.5,13.7,15,15,15,15,15,15,15,15,15,1.1,0.8,0.8,1,0.9,0.7,0.6,0.6,0.5,0.4,0.4,0.4,0.4,0.4,0.4,0.5,0.5,0.6,0.7,0.8,1,2.5,15],"fetchReefNM":[15,15,13.5,13.7,15,15,15,15,15,15,15,15,15,1.1,0.8,0.8,1,0.9,0.7,0.6,0.6,0.5,0.4,0.4,0.4,0.4,0.4,0.4,0.5,0.5,0.6,0.7,0.8,1,2.5,15]}},{"type":"Feature","geometry":{"type":"Point","coordinates":[148.7793,-20.27101]},"properties":{"id":"osm-node2569269859","name":"Swamp Bay","kind":"anchorage","source":"OpenStreetMap","sourceRef":"node/2569269859","likelyAnchorage":true,"noAnchoring":false,"noAnchoringName":null,"notes":null,"fetchLandNM":[15,15,15,3.6,3.3,3.1,2.2,2,2.8,2.6,0.3,0.2,0.2,0.2,0.2,0.2,0.2,0.2,0.2,0.2,0.2,0.2,0.2,0.2,0.2,0.2,0.2,0.2,0.2,0.2,0.2,0.2,0.2,0.4,0.7,0.9],"fetchReefNM":[15,15,15,3.6,3.3,3.1,2.2,2,2.8,2.6,0.3,0.2,0.2,0.2,0.2,0.2,0.2,0.2,0.2,0.2,0.2,0.2,0.2,0.2,0.2,0.2,0.2,0.2,0.2,0.2,0.2,0.2,0.2,0.4,0.7,0.9]}},{"type":"Feature","geometry":{"type":"Point","coordinates":[149.01398,-20.24273]},"properties":{"id":"osm-node13823198736","name":"Tongue Bay","kind":"anchorage","source":"OpenStreetMap","sourceRef":"node/13823198736","likelyAnchorage":true,"noAnchoring":false,"noAnchoringName":null,"notes":null,"fetchLandNM":[15,4.8,4,15,15,15,0.5,0.5,0.4,0.3,0.3,0.3,0.3,0.3,0.2,0.3,0.3,0.4,0.5,0.5,0.7,0.8,1,0.8,0.5,0.3,0.3,0.3,0.3,0.3,0.3,0.3,0.3,0.4,0.4,15],"fetchReefNM":[15,4.8,4,15,15,15,0.5,0.5,0.4,0.3,0.3,0.3,0.3,0.3,0.2,0.3,0.3,0.4,0.5,0.5,0.7,0.8,1,0.8,0.5,0.3,0.3,0.3,0.3,0.3,0.3,0.3,0.3,0.4,0.4,15]}},{"type":"Feature","geometry":{"type":"Point","coordinates":[148.99882,-20.30634]},"properties":{"id":"osm-node13823198685","name":"Torres Herald Bay","kind":"anchorage","source":"OpenStreetMap","sourceRef":"node/13823198685","likelyAnchorage":true,"noAnchoring":false,"noAnchoringName":null,"notes":null,"fetchLandNM":[0,0,0.1,0,0,0.1,0.1,0.1,0.1,0.1,0.1,0,0,0,0.1,0.1,0.1,0.1,2.9,2.8,2.7,2.6,1.1,1,0.2,0.1,0.1,0.1,0.1,0.1,0.1,0.1,0.1,0.1,0.1,0.1],"fetchReefNM":[0,0,0.1,0,0,0.1,0.1,0.1,0.1,0.1,0.1,0,0,0,0.1,0.1,0.1,0.1,2.9,2.8,2.7,2.6,1.1,1,0.2,0.1,0.1,0.1,0.1,0.1,0.1,0.1,0.1,0.1,0.1,0.1]}},{"type":"Feature","geometry":{"type":"Point","coordinates":[148.81961,-20.33763]},"properties":{"id":"osm-node2982555205","name":"Trammel Bay","kind":"anchorage","source":"OpenStreetMap","sourceRef":"node/2982555205","likelyAnchorage":true,"noAnchoring":false,"noAnchoringName":null,"notes":null,"fetchLandNM":[0.2,0.2,0.3,12.8,12.2,6.3,1.8,1.8,1.8,1.5,0.3,0.2,0.2,0.2,0.2,0.3,0.3,0.4,0.4,0.4,0.3,0.3,0.3,0.3,0.3,0.3,0.2,0.3,0.2,0.2,0.2,0.2,0.2,0.2,0.2,0.2],"fetchReefNM":[0.2,0.2,0.3,12.8,12.2,6.3,1.8,1.8,1.8,1.5,0.3,0.2,0.2,0.2,0.2,0.3,0.3,0.4,0.4,0.4,0.3,0.3,0.3,0.3,0.3,0.3,0.2,0.3,0.2,0.2,0.2,0.2,0.2,0.2,0.2,0.2]}},{"type":"Feature","geometry":{"type":"Point","coordinates":[149.28393,-20.8088]},"properties":{"id":"osm-node882289562","name":"Turtle Bay","kind":"anchorage","source":"OpenStreetMap","sourceRef":"node/882289562","likelyAnchorage":true,"noAnchoring":false,"noAnchoringName":null,"notes":null,"fetchLandNM":[0.1,0.1,0.1,0.4,0.8,1,1,1,15,15,15,15,15,0.5,0.5,0.5,0.5,0.3,0.2,0.1,0.1,0.1,0.1,0.1,0.1,0.1,0.1,0.1,0.1,0.1,0.1,0.1,0.1,0.1,0.1,0.1],"fetchReefNM":[0.1,0.1,0.1,0.4,0.8,1,1,1,15,15,15,15,15,0.5,0.5,0.5,0.5,0.3,0.2,0.1,0.1,0.1,0.1,0.1,0.1,0.1,0.1,0.1,0.1,0.1,0.1,0.1,0.1,0.1,0.1,0.1]}},{"type":"Feature","geometry":{"type":"Point","coordinates":[149.28676,-20.81064]},"properties":{"id":"osm-node2302288132","name":"Turtle Bay","kind":"anchorage","source":"OpenStreetMap","sourceRef":"node/2302288132","likelyAnchorage":true,"noAnchoring":false,"noAnchoringName":null,"notes":null,"fetchLandNM":[0.5,0.5,0.7,0.9,1,0.9,0.9,6.4,15,15,15,15,15,0.3,0.3,0.3,0.3,0.3,0.3,0.3,0.2,0.2,0.2,0.2,0.2,0.2,0.2,0.2,0.2,0.2,0.2,0.2,0.2,0.3,0.7,0.6],"fetchReefNM":[0.5,0.5,0.7,0.9,1,0.9,0.9,6.4,15,15,15,15,15,0.3,0.3,0.3,0.3,0.3,0.3,0.3,0.2,0.2,0.2,0.2,0.2,0.2,0.2,0.2,0.2,0.2,0.2,0.2,0.2,0.3,0.7,0.6]}},{"type":"Feature","geometry":{"type":"Point","coordinates":[148.84531,-20.27099]},"properties":{"id":"osm-node6562219639","name":"Turtle Bay","kind":"anchorage","source":"OpenStreetMap","sourceRef":"node/6562219639","likelyAnchorage":true,"noAnchoring":false,"noAnchoringName":null,"notes":null,"fetchLandNM":[0,0,0,0,0,0,0,0,0,3.5,3.9,5.2,4.8,6.4,7.2,15,0.6,2.7,3.8,0.4,3.8,0.1,0.1,0,0,0,0,0,0,0,0,0,0,0,0,0],"fetchReefNM":[0,0,0,0,0,0,0,0,0,3.5,3.9,5.2,4.8,6.4,7.2,15,0.6,2.7,3.8,0.4,3.8,0.1,0.1,0,0,0,0,0,0,0,0,0,0,0,0,0]}},{"type":"Feature","geometry":{"type":"Point","coordinates":[149.05086,-20.43497]},"properties":{"id":"osm-node8375803923","name":"Turtle Bay","kind":"anchorage","source":"OpenStreetMap","sourceRef":"node/8375803923","likelyAnchorage":true,"noAnchoring":false,"noAnchoringName":null,"notes":null,"fetchLandNM":[7.7,8.1,9.6,15,15,15,15,2,1.8,2.9,1.6,0.1,0.1,0.1,0.1,0.1,0.1,0.1,0.1,0.1,0.1,0.1,0.1,0.1,0.1,0.1,0.1,0.1,0.1,0.1,0.1,0.1,6.4,2.2,2.3,7.6],"fetchReefNM":[7.7,8.1,9.6,15,15,15,15,2,1.8,2.9,1.6,0.1,0.1,0.1,0.1,0.1,0.1,0.1,0.1,0.1,0.1,0.1,0.1,0.1,0.1,0.1,0.1,0.1,0.1,0.1,0.1,0.1,6.4,2.2,2.3,7.6]}},{"type":"Feature","geometry":{"type":"Point","coordinates":[149.00167,-20.32832]},"properties":{"id":"gbrmpa-80028","name":"Turtle Bay","kind":"designated_anchorage","source":"GBRMPA","sourceRef":"80028","likelyAnchorage":true,"noAnchoring":false,"noAnchoringName":null,"notes":"  · Management area: Townsville/Whitsunday management area · Great Barrier Reef Marine Park Regulations 2019","fetchLandNM":[1,1.3,1.2,1,1.1,1,1.1,1.2,15,15,15,15,15,15,7.3,8.4,4.1,15,15,15,1.5,10.2,1.7,1.6,2.2,2.8,2.7,2.1,1.4,1.2,1,1.5,1.4,1.7,1.6,1.4],"fetchReefNM":[1,1.3,1.2,1,1.1,1,1.1,1.2,15,15,15,15,15,15,7.3,8.4,4.1,15,15,15,1.5,10.2,1.7,1.6,2.2,2.8,2.7,2.1,1.4,1.2,1,1.5,1.4,1.7,1.6,1.4]}},{"type":"Feature","geometry":{"type":"Point","coordinates":[148.82922,-20.24343]},"properties":{"id":"osm-node2982582961","name":"Unsafe Pass","kind":"anchorage","source":"OpenStreetMap","sourceRef":"node/2982582961","likelyAnchorage":false,"noAnchoring":false,"noAnchoringName":null,"notes":null,"fetchLandNM":[0.1,0.1,10.2,6.2,6.8,7.3,8.4,7.5,6.7,6.3,4.6,4.6,5.4,1.3,1.3,1.3,0.1,0.1,0.8,4.7,4.9,3,1.3,1.1,0.9,3.2,3.1,3.1,3.7,9.1,0.2,0.2,0.2,0.1,0.1,0.1],"fetchReefNM":[0.1,0.1,10.2,6.2,6.8,7.3,8.4,7.5,6.7,6.3,4.6,4.6,5.4,1.3,1.2,1.1,0.1,0.1,0.8,4.7,4.9,3,1.3,1.1,0.9,3.2,3.1,3.1,3.7,9.1,0.2,0.2,0.2,0.1,0.1,0.1]}},{"type":"Feature","geometry":{"type":"Point","coordinates":[149.39902,-20.91788]},"properties":{"id":"osm-node8367669360","name":"Victor Bay","kind":"anchorage","source":"OpenStreetMap","sourceRef":"node/8367669360","likelyAnchorage":true,"noAnchoring":false,"noAnchoringName":null,"notes":null,"fetchLandNM":[0.1,0.1,0.1,0.2,0.2,0.2,0.2,0.2,0.2,0.3,0.3,0.3,0.4,0.6,15,15,15,15,15,15,15,15,14.6,14.3,0.2,0.1,0.1,0.1,0.1,0.1,0.1,0.1,0.2,0.1,0.1,0.1],"fetchReefNM":[0.1,0.1,0.1,0.2,0.2,0.2,0.2,0.2,0.2,0.3,0.3,0.3,0.4,0.6,15,15,15,15,15,15,15,15,14.6,14.3,0.2,0.1,0.1,0.1,0.1,0.1,0.1,0.1,0.2,0.1,0.1,0.1]}},{"type":"Feature","geometry":{"type":"Point","coordinates":[149.26125,-20.81534]},"properties":{"id":"osm-node882289563","name":"Western Bay","kind":"anchorage","source":"OpenStreetMap","sourceRef":"node/882289563","likelyAnchorage":true,"noAnchoring":false,"noAnchoringName":null,"notes":null,"fetchLandNM":[0.4,0.3,0.3,0.3,0.3,0.2,0.4,0.4,0.4,0.5,0.5,0.5,0.5,0.5,0.5,0.6,15,15,15,15,13.9,12.9,13.7,15,12.9,15,15,15,15,15,0.6,0.5,0.5,0.4,0.4,0.4],"fetchReefNM":[0.4,0.3,0.3,0.3,0.3,0.2,0.4,0.4,0.4,0.5,0.5,0.5,0.5,0.5,0.5,0.6,15,15,15,15,13.9,12.9,13.7,15,12.9,15,15,15,15,15,0.6,0.5,0.5,0.4,0.4,0.4]}},{"type":"Feature","geometry":{"type":"Point","coordinates":[149.10025,-20.28188]},"properties":{"id":"osm-node2982151595","name":"White Bay","kind":"anchorage","source":"OpenStreetMap","sourceRef":"node/2982151595","likelyAnchorage":true,"noAnchoring":false,"noAnchoringName":null,"notes":null,"fetchLandNM":[0.8,5.1,0.6,0.4,0.3,0.5,0.6,0.6,0.6,0.5,0.5,0.6,0.6,15,15,15,15,15,11.5,1.4,1.2,0.8,0.6,0.5,0.7,0.7,0.7,0.7,0.6,0.5,0.5,0.5,0.6,0.6,0.7,0.7],"fetchReefNM":[0.8,5.1,0.6,0.4,0.3,0.5,0.6,0.6,0.6,0.5,0.5,0.6,0.6,15,15,15,15,15,11.5,1.4,1.2,0.8,0.6,0.5,0.7,0.7,0.7,0.7,0.6,0.5,0.5,0.5,0.6,0.6,0.7,0.7]}},{"type":"Feature","geometry":{"type":"Point","coordinates":[149.05133,-20.26827]},"properties":{"id":"osm-node2982151597","name":"Whitehaven Bay","kind":"anchorage","source":"OpenStreetMap","sourceRef":"node/2982151597","likelyAnchorage":true,"noAnchoring":false,"noAnchoringName":null,"notes":null,"fetchLandNM":[15,6.7,15,15,5.5,15,15,15,2.6,1.5,1.4,1.5,1.6,1.5,1.7,2.4,1.7,1.6,1.5,1.3,1.2,1.1,1.1,1,1,1,1,1.2,1.2,1.4,2.2,2.1,2.2,11.4,15,2.2],"fetchReefNM":[15,6.7,15,15,5.5,15,15,15,2.6,1.5,1.4,1.5,1.6,1.5,1.7,2.4,1.7,1.6,1.5,1.3,1.2,1.1,1.1,1,1,1,1,1.2,1.2,1.4,2.2,2.1,2.2,11.4,15,2.2]}},{"type":"Feature","geometry":{"type":"Point","coordinates":[148.87557,-20.25342]},"properties":{"id":"osm-node2982562244","name":"Whitsunday Passage","kind":"anchorage","source":"OpenStreetMap","sourceRef":"node/2982562244","likelyAnchorage":false,"noAnchoring":false,"noAnchoringName":null,"notes":null,"fetchLandNM":[15,5.6,5.4,5.8,7.2,6.2,5.1,3.8,3.7,2.1,1.7,2.1,2,2.8,6.2,5.8,15,15,12.9,5,4.1,6.3,2.2,2.3,1.4,1.5,1.5,3.4,2.6,2.7,3.2,15,15,15,15,15],"fetchReefNM":[15,5.6,5.4,5.8,7.2,6.2,5.1,3.8,3.7,2.1,1.7,2.1,2,2.8,6.2,5.8,15,15,12.9,5,4.1,6.3,2.2,2.3,1.4,1.5,1.5,3.4,2.6,2.7,3.2,15,15,15,15,15]}},{"type":"Feature","geometry":{"type":"Point","coordinates":[148.72195,-20.26647]},"properties":{"id":"osm-way246106813","name":"Whitsunday Sailing Club","kind":"marina","source":"OpenStreetMap","sourceRef":"way/246106813","likelyAnchorage":true,"noAnchoring":false,"noAnchoringName":null,"notes":null,"fetchLandNM":[0,0,0,0,0,0,0,0,0,0,0,0,0,0,0,0,0,0,0,0,0,0,0,0,0,0,0,0,0,0,0.4,2.8,4.9,0,0,0],"fetchReefNM":[0,0,0,0,0,0,0,0,0,0,0,0,0,0,0,0,0,0,0,0,0,0,0,0,0,0,0,0,0,0,0.4,2.8,4.9,0,0,0]}},{"type":"Feature","geometry":{"type":"Point","coordinates":[149.09021,-20.25957]},"properties":{"id":"osm-node2982107497","name":"Windy Bay","kind":"anchorage","source":"OpenStreetMap","sourceRef":"node/2982107497","likelyAnchorage":true,"noAnchoring":false,"noAnchoringName":null,"notes":null,"fetchLandNM":[15,15,15,15,15,15,0.7,0.6,0.6,0.4,0.4,0.3,0.4,0.4,0.4,0.7,0.7,0.8,0.4,0.4,0.4,0.6,0.7,0.7,3.1,3.2,3.4,3.5,4.1,3.9,3.1,8.2,12,5.5,15,15],"fetchReefNM":[15,15,15,15,15,15,0.7,0.6,0.6,0.4,0.4,0.3,0.4,0.4,0.4,0.7,0.7,0.8,0.4,0.4,0.4,0.6,0.7,0.7,3.1,3.2,3.4,3.5,4.1,3.9,3.1,8.2,12,5.5,15,15]}},{"type":"Feature","geometry":{"type":"Point","coordinates":[148.83521,-20.3839]},"properties":{"id":"osm-node2982555212","name":"Woodcutter Bay","kind":"anchorage","source":"OpenStreetMap","sourceRef":"node/2982555212","likelyAnchorage":true,"noAnchoring":false,"noAnchoringName":null,"notes":null,"fetchLandNM":[1.1,1.5,1.8,1.5,1.4,1.1,1.2,1,0.9,1,1.1,1.6,14.7,15,15,0.3,0.3,0.2,0.2,0.2,0.2,0.3,0.4,0.4,0.6,0.6,0.3,0.2,0.2,0.2,0.2,0.2,0.2,0.2,0.3,0.3],"fetchReefNM":[1.1,1.5,1.8,1.5,1.4,1.1,1.2,1,0.9,1,1.1,1.6,14.7,15,15,0.3,0.3,0.2,0.2,0.2,0.2,0.3,0.4,0.4,0.6,0.6,0.3,0.2,0.2,0.2,0.2,0.2,0.2,0.2,0.3,0.3]}},{"type":"Feature","geometry":{"type":"Point","coordinates":[148.65609,-20.18909]},"properties":{"id":"osm-node2503741556","name":"Woodwark Bay","kind":"anchorage","source":"OpenStreetMap","sourceRef":"node/2503741556","likelyAnchorage":true,"noAnchoring":false,"noAnchoringName":null,"notes":null,"fetchLandNM":[15,15,15,15,15,15,1.2,1.1,1.2,1.1,0.9,0.7,0.7,0.8,0.8,0.8,0.8,1.2,1.3,1.7,1.6,1,0.8,0.8,0.7,0.6,0.6,0.6,0.6,0.6,0.7,0.8,0.9,15,15,15],"fetchReefNM":[15,15,15,15,15,15,1.2,1.1,1.2,1.1,0.9,0.7,0.7,0.8,0.8,0.8,0.8,1.2,1.3,1.7,1.6,1,0.8,0.8,0.7,0.6,0.6,0.6,0.6,0.6,0.7,0.8,0.9,15,15,15]}},{"type":"Feature","geometry":{"type":"Point","coordinates":[148.82771,-20.28478]},"properties":{"id":"osm-node6562219636","name":"Woody Bay","kind":"anchorage","source":"OpenStreetMap","sourceRef":"node/6562219636","likelyAnchorage":true,"noAnchoring":false,"noAnchoringName":null,"notes":null,"fetchLandNM":[0,0,0,0,0,0.1,0.1,0.1,0.1,1.2,5.9,6,6.4,7.3,15,2.4,3.2,4.1,3.2,2.5,2.3,2.3,2.8,2.7,1.6,0,0,0,0,0,0,0,0,0,0,0],"fetchReefNM":[0,0,0,0,0,0.1,0.1,0.1,0.1,1.2,5.9,6,6.4,7.3,15,2.4,3.2,4.1,3.2,2.5,2.3,2.3,2.8,2.7,1.6,0,0,0,0,0,0,0,0,0,0,0]}}]}