{"type":"FeatureCollection","meta":{"tile":"t-22e150","built":"2026-08-25"},"features":[{"type":"Feature","geometry":{"type":"Polygon","coordinates":[[[150.2232,-21.6553],[150.223,-21.6572],[150.2205,-21.6558],[150.218,-21.6577],[150.2166,-21.657],[150.2208,-21.6536],[150.2208,-21.652],[150.2252,-21.6537],[150.2232,-21.6553]]]},"properties":{"id":"gbrmpa-zone-687","type":"Commonwealth Islands Zone (GBRMPA)","zone":"Commonwealth Island Zone","color":"#b0b8bd","name":"Pine Islets (No 3) (21391103)","permit":null,"source":"GBRMPA"}},{"type":"Feature","geometry":{"type":"Polygon","coordinates":[[[152,-22.4151],[150.9995,-22.4151],[150.9995,-21.8434],[151.44,-21.8434],[152.116,-22.23],[152,-22.23],[152,-22.4151]]]},"properties":{"id":"gbrmpa-zone-115","type":"Habitat Protection Zone","zone":"Dark Blue Zone","color":"#3f6fb0","name":"HP-21-5296","permit":"Capricorn Channel","source":"GBRMPA"}},{"type":"Feature","geometry":{"type":"Polygon","coordinates":[[[150.828,-20.8],[150.8,-20.8],[150.8,-20.78],[150.82,-20.78],[150.8281,-20.788],[150.828,-20.8]]]},"properties":{"id":"gbrmpa-zone-315","type":"Habitat Protection Zone","zone":"Dark Blue Zone","color":"#3f6fb0","name":"HP-20-5219","permit":"Unnamed reef 20-345","source":"GBRMPA"}},{"type":"Feature","geometry":{"type":"Polygon","coordinates":[[[150.7017,-21.953],[150.7006,-21.9526],[150.7021,-21.9511],[150.7017,-21.953]]]},"properties":{"id":"gbrmpa-zone-750","type":"Commonwealth Islands Zone (GBRMPA)","zone":"Commonwealth Island Zone","color":"#b0b8bd","name":"High Peak Islet (21428104)","permit":null,"source":"GBRMPA"}},{"type":"Feature","geometry":{"type":"Polygon","coordinates":[[[151.67,-21.66],[151.67,-21.6402],[151.7114,-21.6402],[151.7114,-21.671],[151.67,-21.671],[151.67,-21.66]]]},"properties":{"id":"gbrmpa-zone-158","type":"Habitat Protection Zone","zone":"Dark Blue Zone","color":"#3f6fb0","name":"HP-21-5272","permit":"Unnamed reef 21-453","source":"GBRMPA"}},{"type":"Feature","geometry":{"type":"Polygon","coordinates":[[[150.1003,-20.89],[150.1003,-21.0335],[150.02,-21.0335],[150.02,-20.89],[150.1003,-20.89]],[[150.0719,-20.9538],[150.0731,-20.9545],[150.0735,-20.9523],[150.0711,-20.9499],[150.0719,-20.9538]],[[150.0314,-20.907],[150.0312,-20.9099],[150.0324,-20.9102],[150.0336,-20.9068],[150.0328,-20.9056],[150.0314,-20.907]],[[150.0295,-20.907],[150.0304,-20.9065],[150.0265,-20.9032],[150.0265,-20.905],[150.0295,-20.907]],[[150.0703,-20.9652],[150.0716,-20.9653],[150.0709,-20.9633],[150.0697,-20.9638],[150.0703,-20.9652]],[[150.0803,-21.022],[150.0831,-21.0205],[150.0813,-21.0201],[150.0803,-21.022]]]},"properties":{"id":"gbrmpa-zone-152","type":"Marine National Park Zone","zone":"Green Zone","color":"#2fae5a","name":"MNP-20-1135","permit":"Tern Reef (20-309), Bushy-Redbill Reef (20-310) and Sandpiper Reef (21-053)","source":"GBRMPA"}},{"type":"Feature","geometry":{"type":"Polygon","coordinates":[[[151.8789,-21.7088],[151.8476,-21.7088],[151.8476,-21.6874],[151.8779,-21.6874],[151.8789,-21.7088]]]},"properties":{"id":"gbrmpa-zone-52","type":"Habitat Protection Zone","zone":"Dark Blue Zone","color":"#3f6fb0","name":"HP-21-5282","permit":"Unnamed reef 21-461","source":"GBRMPA"}},{"type":"Feature","geometry":{"type":"Polygon","coordinates":[[[150.2067,-20.12],[150.1934,-20.12],[150.1867,-20.1133],[150.1867,-20.1],[150.1934,-20.0933],[150.2067,-20.0933],[150.2067,-20.12]]]},"properties":{"id":"gbrmpa-zone-189","type":"Habitat Protection Zone","zone":"Dark Blue Zone","color":"#3f6fb0","name":"HP-20-5192","permit":"Wup Reef (20-127)","source":"GBRMPA"}},{"type":"Feature","geometry":{"type":"Polygon","coordinates":[[[150.5,-21.0322],[150.5716,-21.0322],[150.5716,-20.9],[150.6,-20.9],[150.62,-20.88],[150.6998,-20.9398],[150.68,-20.9604],[150.6,-21.0203],[150.54,-21.1003],[150.5,-21.1603],[150.48,-21.1603],[150.4,-21.1203],[150.38,-21.0803],[150.4,-21.06],[150.46,-21.06],[150.5,-21.04],[150.5,-21.0322]]]},"properties":{"id":"gbrmpa-zone-198","type":"Habitat Protection Zone","zone":"Dark Blue Zone","color":"#3f6fb0","name":"HP-20-5226","permit":"Pompey Reefs (unnamed reefs 20-349, 20-352, 21-056, 21-057 and 21-060)","source":"GBRMPA"}},{"type":"Feature","geometry":{"type":"Polygon","coordinates":[[[150.5,-21.0322],[150.5,-20.9],[150.5716,-20.9],[150.5716,-21.0322],[150.5,-21.0322]]]},"properties":{"id":"gbrmpa-zone-149","type":"Marine National Park Zone","zone":"Green Zone","color":"#2fae5a","name":"MNP-20-1137","permit":"Pompey Reefs (20-351a, b and c)","source":"GBRMPA"}},{"type":"Feature","geometry":{"type":"Polygon","coordinates":[[[151.7581,-21.6652],[151.7499,-21.6001],[151.7669,-21.5676],[151.7921,-21.5676],[151.8232,-21.606],[151.8232,-21.6652],[151.7581,-21.6652]]]},"properties":{"id":"gbrmpa-zone-167","type":"Habitat Protection Zone","zone":"Dark Blue Zone","color":"#3f6fb0","name":"HP-21-5262","permit":"Unnamed reefs 21-445 and 21-451","source":"GBRMPA"}},{"type":"Feature","geometry":{"type":"Polygon","coordinates":[[[151.92,-21.9],[151.9,-21.9],[151.9,-21.8733],[151.92,-21.8667],[151.9534,-21.8667],[151.96,-21.8733],[151.96,-21.8867],[151.92,-21.9]]]},"properties":{"id":"gbrmpa-zone-113","type":"Habitat Protection Zone","zone":"Dark Blue Zone","color":"#3f6fb0","name":"HP-21-5297","permit":"Unnamed reef 21-467","source":"GBRMPA"}},{"type":"Feature","geometry":{"type":"Polygon","coordinates":[[[151.92,-21.84],[151.91,-21.84],[151.87,-21.82],[151.83,-21.81],[151.83,-21.7875],[151.87,-21.7875],[151.87,-21.79],[151.92,-21.79],[151.92,-21.84]]]},"properties":{"id":"gbrmpa-zone-121","type":"Habitat Protection Zone","zone":"Dark Blue Zone","color":"#3f6fb0","name":"HP-21-5291","permit":"Unnamed reef 21-465","source":"GBRMPA"}},{"type":"Feature","geometry":{"type":"Polygon","coordinates":[[[150.3934,-20.5267],[150.3934,-20.5467],[150.3733,-20.5467],[150.3669,-20.5402],[150.3669,-20.5271],[150.3738,-20.52],[150.3867,-20.52],[150.3934,-20.5267]],[[150.3757,-20.5325],[150.3789,-20.5318],[150.3793,-20.5292],[150.3765,-20.5297],[150.3757,-20.5325]]]},"properties":{"id":"gbrmpa-zone-342","type":"Habitat Protection Zone","zone":"Dark Blue Zone","color":"#3f6fb0","name":"HP-20-5200","permit":"Creal Reef (20-297)","source":"GBRMPA"}},{"type":"Feature","geometry":{"type":"Polygon","coordinates":[[[152.0039,-21.7291],[151.979,-21.7291],[151.9623,-21.7125],[151.9623,-21.6999],[151.9914,-21.6999],[152.0039,-21.7125],[152.0039,-21.7291]]]},"properties":{"id":"gbrmpa-zone-50","type":"Habitat Protection Zone","zone":"Dark Blue Zone","color":"#3f6fb0","name":"HP-21-5283","permit":"Unnamed reef 21-462","source":"GBRMPA"}},{"type":"Feature","geometry":{"type":"Polygon","coordinates":[[[151.979,-21.7791],[151.9498,-21.7791],[151.9373,-21.7666],[151.9373,-21.75],[151.9206,-21.75],[151.9206,-21.7291],[151.9373,-21.7208],[151.9539,-21.7208],[151.9664,-21.7333],[151.9664,-21.75],[151.979,-21.75],[151.9872,-21.7583],[151.9872,-21.7708],[151.979,-21.7791]]]},"properties":{"id":"gbrmpa-zone-47","type":"Habitat Protection Zone","zone":"Dark Blue Zone","color":"#3f6fb0","name":"HP-21-5285","permit":"Unnamed reefs 21-463 and 21-454","source":"GBRMPA"}},{"type":"Feature","geometry":{"type":"Polygon","coordinates":[[[150.148,-20.364],[150.116,-20.364],[150.116,-20.328],[150.132,-20.316],[150.152,-20.316],[150.148,-20.364]]]},"properties":{"id":"gbrmpa-zone-224","type":"Preservation Zone","zone":"Pink Zone","color":"#e58fb0","name":"P-20-22","permit":"Robertson Reef No. 1 (20-135)","source":"GBRMPA"}},{"type":"Feature","geometry":{"type":"Polygon","coordinates":[[[149.48,-19.85],[149.58,-19.9],[149.61,-19.98],[149.69,-20.05],[149.7517,-20.062],[149.77,-20.0749],[149.77,-20.1072],[149.8629,-20.1072],[149.8629,-20.2588],[150.0232,-20.2588],[150.0232,-20.42],[150.12,-20.42],[150.12,-20.4927],[150.073,-20.5153],[149.9447,-20.5153],[149.9128,-20.5474],[149.9128,-20.58],[150,-20.6],[150.1125,-20.6123],[150.1617,-20.5874],[150.18,-20.56],[150.26,-20.52],[150.2829,-20.52],[150.3145,-20.479],[150.3145,-20.42],[150.3001,-20.42],[150.3001,-20.3903],[150.1881,-20.1681],[150.13,-20.11],[149.9992,-19.8762],[150.1168,-19.8762],[150.1691,-19.9463],[150.2228,-20.0476],[150.28,-20.12],[150.4765,-20.3017],[150.4458,-20.3017],[150.4458,-20.5243],[150.52,-20.5243],[150.52,-20.5596],[150.58,-20.6196],[150.6,-20.6196],[150.62,-20.5996],[150.66,-20.5996],[150.72,-20.6397],[150.74,-20.7196],[150.8605,-20.8],[150.828,-20.8],[150.8281,-20.788],[150.82,-20.78],[150.8,-20.78],[150.8,-20.8],[150.6908,-20.8],[150.6908,-20.8886],[150.8242,-20.8886],[150.824,-21.04],[150.74,-21.04],[150.74,-21],[150.72,-21],[150.6,-21.14],[150.6,-21.1603],[150.64,-21.2203],[150.72,-21.1603],[150.8317,-21.1601],[150.8321,-21.1848],[150.7706,-21.2094],[150.76,-21.22],[150.76,-21.2356],[150.8512,-21.2049],[150.86,-21.2403],[150.9,-21.2803],[150.9,-21.3],[150.88,-21.32],[150.78,-21.32],[150.72,-21.26],[150.7,-21.28],[150.7,-21.3589],[150.7396,-21.38],[150.84,-21.38],[150.9882,-21.4397],[151.1027,-21.4397],[151.1025,-21.4],[151.1768,-21.4577],[151.1491,-21.4866],[151.1491,-21.5156],[151.3394,-21.5156],[151.3394,-21.6007],[151.0999,-21.6007],[150.8802,-21.4702],[150.6623,-21.4702],[150.4687,-21.2518],[149.9753,-21.2518],[149.9753,-21.5],[149.94,-21.5],[149.9373,-21.4958],[149.9373,-21.4875],[149.9289,-21.4875],[149.9289,-21.4708],[149.9039,-21.4708],[149.9039,-21.4791],[149.8873,-21.4791],[149.8873,-21.4958],[149.88,-21.5003],[149.8551,-21.5003],[149.855,-21.4852],[149.595,-21.485],[149.595,-21.6553],[149.64,-21.6553],[149.65,-21.6456],[149.65,-21.6703],[149.66,-21.6803],[149.66,-21.7303],[149.67,-21.7403],[149.68,-21.7403],[149.7033,-21.8564],[149.6912,-21.8812],[149.6912,-21.918],[149.651,-21.918],[149.651,-21.9036],[149.6259,-21.9036],[149.6259,-21.9421],[149.6373,-21.9421],[149.6373,-22.1815],[149.7131,-22.356],[149.6975,-22.3564],[149.6936,-22.3514],[149.6935,-22.3482],[149.6878,-22.348],[149.6841,-22.3452],[149.6578,-22.3393],[149.6544,-22.3326],[149.6524,-22.3316],[149.6523,-22.3293],[149.6458,-22.3243],[149.6328,-22.304],[149.6306,-22.3026],[149.6302,-22.2981],[149.6032,-22.2723],[149.6032,-22.2703],[149.598,-22.2685],[149.5952,-22.2643],[149.5952,-22.2553],[149.5928,-22.2558],[149.5912,-22.2595],[149.5899,-22.2593],[149.5907,-22.2518],[149.5867,-22.2487],[149.5836,-22.2415],[149.577,-22.2381],[149.5757,-22.2347],[149.5728,-22.2329],[149.5676,-22.2112],[149.5621,-22.2003],[149.5609,-22.194],[149.5624,-22.1917],[149.5552,-22.1905],[149.5567,-22.1834],[149.5748,-22.1834],[149.5748,-22.1714],[149.5883,-22.1714],[149.5883,-22.1469],[149.6015,-22.1609],[149.6141,-22.1609],[149.6141,-22.1468],[149.5808,-22.1134],[149.5764,-22.1134],[149.5764,-22.0332],[149.5199,-22.0332],[149.5191,-22.0308],[149.5216,-22.0316],[149.5231,-22.0304],[149.5224,-22.0246],[149.5155,-22.019],[149.5142,-22.0151],[149.515,-22.013],[149.511,-22.0108],[149.5101,-22.006],[149.4955,-21.9988],[149.4904,-21.993],[149.4857,-21.9806],[149.4826,-21.978],[149.4841,-21.9751],[149.4825,-21.9664],[149.4842,-21.9599],[149.4774,-21.9578],[149.4799,-21.9573],[149.474,-21.9476],[149.4694,-21.9319],[149.465,-21.9296],[149.4632,-21.9268],[149.4658,-21.9259],[149.4642,-21.9095],[149.4613,-21.9108],[149.4594,-21.9087],[149.464,-21.9066],[149.4653,-21.9009],[149.464,-21.8981],[149.4656,-21.899],[149.4617,-21.8834],[149.4617,-21.8758],[149.4646,-21.8573],[149.4682,-21.8458],[149.4716,-21.8405],[149.4646,-21.839],[149.4589,-21.8299],[149.4604,-21.8277],[149.4818,-21.8415],[149.4945,-21.8415],[149.5043,-21.8353],[149.5043,-21.8277],[149.4944,-21.8161],[149.4493,-21.8161],[149.4463,-21.8133],[149.442,-21.8138],[149.4356,-21.8092],[149.4633,-21.8092],[149.4633,-21.7544],[149.4346,-21.7544],[149.4338,-21.7519],[149.4363,-21.7452],[149.4423,-21.7422],[149.4592,-21.7293],[149.4592,-21.7405],[149.474,-21.7523],[149.4856,-21.7523],[149.4856,-21.7189],[149.4742,-21.7038],[149.4619,-21.7039],[149.4619,-21.7129],[149.4584,-21.7138],[149.4572,-21.7121],[149.4572,-21.7072],[149.4523,-21.6879],[149.4551,-21.6852],[149.462,-21.6852],[149.462,-21.67],[149.4499,-21.67],[149.4488,-21.6728],[149.4449,-21.6687],[149.4443,-21.6639],[149.4529,-21.6639],[149.4529,-21.6529],[149.45,-21.65],[149.45,-21.628],[149.4438,-21.6218],[149.451,-21.6071],[149.4594,-21.5994],[149.47,-21.6103],[149.51,-21.6103],[149.51,-21.5899],[149.4867,-21.5899],[149.4947,-21.5504],[149.49,-21.53],[149.49,-21.51],[149.44,-21.5],[149.41,-21.5],[149.41,-21.48],[149.4,-21.48],[149.4,-21.4667],[149.38,-21.4667],[149.38,-21.4966],[149.3725,-21.4987],[149.3697,-21.5017],[149.3625,-21.5046],[149.3531,-21.5036],[149.3542,-21.5002],[149.357,-21.4982],[149.353,-21.4922],[149.3538,-21.4899],[149.3455,-21.4823],[149.3438,-21.4761],[149.3403,-21.4761],[149.3391,-21.4747],[149.3364,-21.4755],[149.3366,-21.4811],[149.3331,-21.4873],[149.3287,-21.4869],[149.3186,-21.4905],[149.3053,-21.5014],[149.2905,-21.5008],[149.2878,-21.4881],[149.2841,-21.4845],[149.2841,-21.476],[149.2925,-21.4749],[149.298,-21.4703],[149.2938,-21.4663],[149.2902,-21.4673],[149.2869,-21.4581],[149.2914,-21.4583],[149.2924,-21.4404],[149.2976,-21.4268],[149.3022,-21.4275],[149.3058,-21.4261],[149.3101,-21.4272],[149.3126,-21.4255],[149.3151,-21.426],[149.3133,-21.4235],[149.3148,-21.4206],[149.3194,-21.4184],[149.3231,-21.4188],[149.3257,-21.4201],[149.3253,-21.4216],[149.3235,-21.4204],[149.325,-21.424],[149.33,-21.4278],[149.33,-21.4383],[149.344,-21.4383],[149.344,-21.428],[149.338,-21.406],[149.326,-21.406],[149.3246,-21.4153],[149.3146,-21.4106],[149.3058,-21.4108],[149.3033,-21.4126],[149.301,-21.412],[149.2954,-21.4162],[149.2847,-21.4108],[149.2812,-21.4105],[149.282,-21.4075],[149.2891,-21.4046],[149.2843,-21.4017],[149.2816,-21.3938],[149.2746,-21.3898],[149.2773,-21.3891],[149.2811,-21.391],[149.2877,-21.3898],[149.292,-21.396],[149.2972,-21.3972],[149.3005,-21.4004],[149.302,-21.3998],[149.3028,-21.3942],[149.3081,-21.3902],[149.3117,-21.3911],[149.3129,-21.3956],[149.3156,-21.3933],[149.3145,-21.392],[149.3343,-21.392],[149.3343,-21.2985],[149.326,-21.2485],[149.2729,-21.1854],[149.28,-21.1803],[149.29,-21.1803],[149.3,-21.1703],[149.3,-21.12],[149.29,-21.11],[149.2746,-21.11],[149.281,-21.0635],[149.142,-20.944],[149.0899,-20.9761],[149.0656,-20.9752],[149.0663,-20.9799],[149.0575,-20.985],[149.0497,-20.9793],[149.0448,-20.984],[149.0422,-20.9901],[149.0357,-20.9887],[149.0312,-20.9908],[149.0318,-20.989],[149.0302,-20.9875],[149.0222,-20.9938],[149.0165,-20.9946],[149.0143,-20.9914],[149.0203,-20.9804],[149.02,-20.976],[149.0159,-20.9721],[149.016,-20.9676],[149.0187,-20.969],[149.0201,-20.9681],[149.0227,-20.9573],[149.0305,-20.9598],[149.0314,-20.9573],[149.0269,-20.9502],[149.0254,-20.9445],[149.0173,-20.9415],[149.0149,-20.938],[149.0133,-20.9388],[149.0124,-20.9357],[149.0204,-20.9275],[149.0287,-20.9236],[149.0304,-20.925],[149.0405,-20.9247],[149.0441,-20.9307],[149.0491,-20.9313],[149.0594,-20.9294],[149.0632,-20.9226],[149.0375,-20.8942],[149.0278,-20.8942],[149.0228,-20.8971],[149.0223,-20.9063],[149.0186,-20.9125],[149.009,-20.9125],[149.005,-20.9146],[149.0051,-20.9124],[148.9954,-20.902],[148.9983,-20.8965],[148.9969,-20.8885],[148.8897,-20.803],[148.8738,-20.82],[148.8839,-20.8302],[148.8838,-20.8448],[148.8768,-20.8448],[148.8768,-20.8599],[148.8749,-20.8646],[148.8625,-20.8693],[148.858,-20.8694],[148.8523,-20.8725],[148.8446,-20.8698],[148.8444,-20.8647],[148.8471,-20.8571],[148.8423,-20.8557],[148.8421,-20.8511],[148.8495,-20.8463],[148.845,-20.8429],[148.8409,-20.8346],[148.8533,-20.8346],[148.8533,-20.82],[148.8467,-20.8133],[148.8328,-20.8133],[148.8328,-20.8221],[148.8243,-20.8213],[148.8211,-20.8261],[148.8194,-20.8192],[148.8121,-20.8151],[148.8122,-20.8045],[148.8199,-20.801],[148.821,-20.7989],[148.8183,-20.7957],[148.8201,-20.7947],[148.8413,-20.795],[148.8413,-20.8],[148.8634,-20.8],[148.8634,-20.7791],[148.8316,-20.7791],[148.829,-20.7766],[148.8107,-20.7719],[148.8107,-20.7243],[148.7584,-20.7243],[148.7521,-20.7235],[148.7485,-20.7207],[148.7431,-20.7204],[148.7254,-20.7143],[148.7305,-20.7131],[148.732,-20.707],[148.7467,-20.707],[148.76,-20.7],[148.7733,-20.7],[148.7733,-20.6867],[148.7667,-20.68],[148.7667,-20.6622],[148.88,-20.6622],[148.88,-20.63],[148.89,-20.61],[148.89,-20.59],[148.87,-20.57],[148.87,-20.544],[148.744,-20.544],[148.744,-20.6622],[148.7236,-20.6621],[148.7236,-20.6551],[148.7263,-20.6485],[148.7306,-20.6466],[148.7324,-20.6431],[148.7317,-20.6414],[148.7363,-20.6416],[148.7344,-20.637],[148.7308,-20.6397],[148.7282,-20.639],[148.7296,-20.6341],[148.7277,-20.6323],[148.7214,-20.6314],[148.713,-20.6359],[148.7036,-20.6363],[148.6957,-20.6326],[148.6936,-20.6264],[148.6893,-20.6221],[148.6862,-20.6068],[148.6838,-20.6056],[148.683,-20.6022],[148.6816,-20.606],[148.6807,-20.6037],[148.6822,-20.6029],[148.6756,-20.6008],[148.6745,-20.5939],[148.6701,-20.5902],[148.67,-20.5871],[148.6683,-20.5859],[148.677,-20.5815],[148.6709,-20.5804],[148.6675,-20.5757],[148.6686,-20.5708],[148.6721,-20.5796],[148.6762,-20.5768],[148.6784,-20.5771],[148.6771,-20.5762],[148.6769,-20.5716],[148.6804,-20.5687],[148.6805,-20.5584],[148.677,-20.5554],[148.677,-20.5526],[148.6807,-20.5503],[148.6808,-20.5573],[148.6813,-20.5557],[148.6858,-20.555],[148.6937,-20.5397],[148.7075,-20.5214],[148.7099,-20.5158],[148.7158,-20.5086],[148.7154,-20.5071],[148.7194,-20.504],[148.7206,-20.4949],[148.7178,-20.4872],[148.7197,-20.4872],[148.719,-20.4851],[148.7218,-20.4848],[148.7187,-20.4835],[148.727,-20.4764],[148.7296,-20.4766],[148.737,-20.4837],[148.7418,-20.4774],[148.7551,-20.4718],[148.7599,-20.4722],[148.7645,-20.4806],[148.7648,-20.4759],[148.7723,-20.4694],[148.7762,-20.4686],[148.7818,-20.4646],[148.7846,-20.4551],[148.7832,-20.4484],[148.7868,-20.4471],[148.7929,-20.4521],[148.7933,-20.4542],[148.7954,-20.4503],[148.7995,-20.4487],[148.8073,-20.4507],[148.81,-20.4561],[148.8144,-20.4558],[148.8156,-20.4608],[148.8236,-20.4689],[148.8225,-20.4803],[148.8268,-20.4871],[148.8251,-20.4942],[148.8218,-20.4963],[148.8249,-20.4983],[148.8251,-20.5003],[148.8278,-20.5021],[148.8326,-20.502],[148.8367,-20.4989],[148.8451,-20.5026],[148.8491,-20.5075],[148.8482,-20.5088],[148.8459,-20.5078],[148.8464,-20.5053],[148.8436,-20.5074],[148.8463,-20.5149],[148.8481,-20.5147],[148.8482,-20.51],[148.8501,-20.5084],[148.8544,-20.511],[148.8522,-20.5107],[148.8522,-20.5151],[148.858,-20.5128],[148.8563,-20.5157],[148.8567,-20.5189],[148.8526,-20.5215],[148.8586,-20.5289],[148.8652,-20.5288],[148.8702,-20.523],[148.8727,-20.5252],[148.8785,-20.522],[148.881,-20.5237],[148.8825,-20.5226],[148.8861,-20.5235],[148.8896,-20.5284],[148.8895,-20.5335],[148.8928,-20.5415],[148.8945,-20.5438],[148.8976,-20.5434],[148.8996,-20.5456],[148.8996,-20.5384],[148.9069,-20.5353],[148.9126,-20.5366],[148.9192,-20.5325],[148.9264,-20.5372],[148.9294,-20.5371],[148.9318,-20.5349],[148.9493,-20.5401],[149.0775,-20.5401],[149.0775,-20.5484],[149.0733,-20.5518],[149.0733,-20.5558],[149.0756,-20.5583],[149.078,-20.5583],[149.078,-20.56],[149.138,-20.56],[149.138,-20.508],[149.14,-20.46],[149.1179,-20.46],[149.1179,-20.388],[149.0014,-20.388],[149.0014,-20.4195],[148.93,-20.4195],[148.93,-20.41],[148.96,-20.38],[148.97,-20.38],[148.97,-20.37],[149.0017,-20.366],[149.004,-20.36],[149.02,-20.3518],[149.02,-20.36],[149.03,-20.36],[149.03,-20.35],[149.19,-20.26],[149.41,-19.82],[149.45,-19.82],[149.48,-19.85]],[[148.8193,-20.5053],[148.8192,-20.5053],[148.8193,-20.5054],[148.8193,-20.5053]],[[148.9259,-20.5415],[148.9255,-20.5416],[148.9257,-20.5419],[148.9259,-20.5415]],[[149.5985,-21.9567],[149.5997,-21.9581],[149.5996,-21.9572],[149.5985,-21.9567]],[[148.8143,-20.4729],[148.8155,-20.4726],[148.8163,-20.4661],[148.8143,-20.4729]],[[148.8086,-20.4869],[148.8077,-20.4897],[148.8095,-20.4913],[148.8086,-20.4869]],[[148.8693,-20.8057],[148.8718,-20.8056],[148.8737,-20.8033],[148.8693,-20.8057]],[[148.8183,-20.5051],[148.8212,-20.5049],[148.8213,-20.503],[148.8176,-20.502],[148.8183,-20.5051]],[[148.8799,-20.7989],[148.8808,-20.7978],[148.8783,-20.7953],[148.8746,-20.798],[148.8769,-20.7972],[148.8799,-20.7989]],[[149.6414,-21.3041],[149.6498,-21.3041],[149.6498,-21.2958],[149.6414,-21.2958],[149.6414,-21.3041]],[[149.4686,-21.6692],[149.4769,-21.6692],[149.4769,-21.6608],[149.4686,-21.6608],[149.4686,-21.6692]],[[149.5287,-21.9617],[149.5301,-21.9535],[149.528,-21.9535],[149.5277,-21.9606],[149.5244,-21.9726],[149.5272,-21.9782],[149.5295,-21.9779],[149.5297,-21.9763],[149.5287,-21.9617]],[[149.2157,-20.7606],[149.2257,-20.7606],[149.2257,-20.7506],[149.2157,-20.7506],[149.2157,-20.7606]],[[149.16,-20.58],[149.16,-20.59],[149.17,-20.59],[149.17,-20.58],[149.16,-20.58]],[[149.22,-20.64],[149.22,-20.65],[149.23,-20.65],[149.23,-20.64],[149.22,-20.64]],[[149.35,-20.9203],[149.36,-20.9203],[149.36,-20.91],[149.35,-20.91],[149.35,-20.9203]],[[149.6248,-21.2625],[149.6248,-21.2708],[149.6373,-21.2708],[149.6373,-21.2625],[149.6248,-21.2625]],[[149.6498,-21.3746],[149.6664,-21.3746],[149.6664,-21.3666],[149.6498,-21.3669],[149.6498,-21.3746]],[[149.176,-20.61],[149.176,-20.622],[149.188,-20.622],[149.188,-20.61],[149.176,-20.61]],[[149.6081,-22.05],[149.6081,-22.0624],[149.6206,-22.0624],[149.6206,-22.05],[149.6081,-22.05]],[[150.2334,-21.1067],[150.2334,-21.12],[150.2467,-21.12],[150.2467,-21.1067],[150.2334,-21.1067]],[[149.18,-20.6067],[149.1933,-20.6067],[149.1933,-20.5933],[149.18,-20.5933],[149.18,-20.6067]],[[149.8164,-21.475],[149.8247,-21.475],[149.8331,-21.467],[149.8331,-21.4583],[149.8247,-21.4583],[149.8164,-21.4666],[149.8164,-21.475]],[[149.22,-20.74],[149.24,-20.74],[149.24,-20.7267],[149.22,-20.7267],[149.22,-20.74]],[[149.8068,-21.4266],[149.8067,-21.44],[149.8267,-21.44],[149.8267,-21.4266],[149.8068,-21.4266]],[[149.4867,-21.48],[149.5,-21.48],[149.5,-21.46],[149.4867,-21.46],[149.4867,-21.48]],[[149.624,-21.67],[149.636,-21.6823],[149.644,-21.6823],[149.644,-21.67],[149.638,-21.6643],[149.624,-21.6643],[149.624,-21.67]],[[149.304,-21.1783],[149.316,-21.1783],[149.316,-21.1703],[149.3219,-21.1647],[149.322,-21.154],[149.31,-21.154],[149.31,-21.162],[149.304,-21.168],[149.304,-21.1783]],[[149.54,-21.0403],[149.56,-21.0403],[149.56,-21.03],[149.55,-21.02],[149.54,-21.02],[149.54,-21.0403]],[[149.6534,-21.48],[149.6734,-21.48],[149.6734,-21.46],[149.66,-21.46],[149.6534,-21.467],[149.6534,-21.48]],[[149.74,-20.5467],[149.7467,-20.5533],[149.76,-20.5533],[149.76,-20.5334],[149.74,-20.5334],[149.74,-20.5467]],[[150.2467,-21.0733],[150.2667,-21.0733],[150.2667,-21.0533],[150.2534,-21.0533],[150.2467,-21.06],[150.2467,-21.0733]],[[149.48,-21.4266],[149.4867,-21.4336],[149.5,-21.4336],[149.5,-21.4133],[149.48,-21.4133],[149.48,-21.4266]],[[149.4467,-21.46],[149.4534,-21.467],[149.4667,-21.467],[149.4667,-21.4467],[149.4467,-21.4467],[149.4467,-21.46]],[[149.7267,-20.9604],[149.7467,-20.9604],[149.7467,-20.94],[149.7334,-20.94],[149.7267,-20.9466],[149.7267,-20.9604]],[[149.2933,-21.0663],[149.3067,-21.0663],[149.3198,-21.0535],[149.3134,-21.0467],[149.2933,-21.0467],[149.2933,-21.0663]],[[150.1867,-20.1133],[150.1934,-20.12],[150.2067,-20.12],[150.2067,-20.0933],[150.1934,-20.0933],[150.1867,-20.1],[150.1867,-20.1133]],[[149.4267,-20.7733],[149.4334,-20.7803],[149.4467,-20.7803],[149.4467,-20.76],[149.44,-20.7533],[149.4267,-20.7533],[149.4267,-20.7733]],[[149.2334,-20.8737],[149.2467,-20.8737],[149.2534,-20.867],[149.2534,-20.8467],[149.24,-20.8467],[149.2334,-20.8533],[149.2334,-20.8737]],[[149.7667,-20.9937],[149.8067,-20.9937],[149.8067,-20.98],[149.7667,-20.98],[149.7667,-20.9937]],[[149.6408,-21.7201],[149.6141,-21.7468],[149.6141,-21.7534],[149.6274,-21.7534],[149.6539,-21.7266],[149.6474,-21.7201],[149.6408,-21.7201]],[[150.68,-20.65],[150.68,-20.67],[150.71,-20.67],[150.71,-20.65],[150.68,-20.65]],[[150.3669,-20.5402],[150.3733,-20.5467],[150.3934,-20.5467],[150.3934,-20.5267],[150.3867,-20.52],[150.3738,-20.52],[150.3669,-20.5271],[150.3669,-20.5402]],[[149.51,-21.91],[149.5,-21.9303],[149.5,-21.95],[149.51,-21.95],[149.5298,-21.91],[149.51,-21.91]],[[149.6134,-20.7533],[149.6067,-20.7667],[149.6067,-20.7867],[149.6267,-20.7867],[149.6333,-20.7803],[149.6333,-20.7667],[149.6267,-20.7533],[149.6134,-20.7533]],[[149.94,-21.1133],[149.9467,-21.1067],[149.9467,-21.1203],[149.96,-21.1203],[149.9667,-21.1137],[149.9734,-21.1137],[149.9734,-21.1],[149.9534,-21.1],[149.9467,-21.1067],[149.9467,-21.0933],[149.9267,-21.0933],[149.9267,-21.1067],[149.9333,-21.1133],[149.94,-21.1133]],[[149.5936,-22.0203],[149.5936,-22.0337],[149.6002,-22.0403],[149.6135,-22.027],[149.6269,-22.027],[149.6269,-22.0067],[149.6291,-22.0067],[149.6291,-21.9958],[149.6208,-21.9958],[149.6208,-22.0067],[149.6069,-22.0067],[149.5936,-22.0203]],[[149.1,-20.593],[149.1096,-20.6024],[149.123,-20.6073],[149.13,-20.6003],[149.13,-20.57],[149.1,-20.57],[149.1,-20.593]],[[149.8334,-21.4333],[149.8334,-21.4533],[149.8667,-21.4533],[149.8667,-21.4603],[149.8734,-21.467],[149.8734,-21.4737],[149.8934,-21.4737],[149.8934,-21.46],[149.8734,-21.4467],[149.8667,-21.4467],[149.8667,-21.44],[149.8533,-21.4333],[149.8334,-21.4333]],[[150.38,-20.7103],[150.38,-20.73],[150.42,-20.73],[150.42,-20.7],[150.39,-20.7],[150.38,-20.7103]],[[150.35,-21.03],[150.36,-21.0403],[150.39,-21.0403],[150.39,-21],[150.35,-21.02],[150.35,-21.03]],[[149.53,-21.6603],[149.53,-21.72],[149.55,-21.72],[149.55,-21.6603],[149.53,-21.6603]],[[149.46,-20.76],[149.48,-20.76],[149.5,-20.7403],[149.48,-20.72],[149.46,-20.72],[149.46,-20.76]],[[149.81,-21.36],[149.81,-21.3711],[149.7998,-21.3916],[149.7998,-21.3999],[149.8081,-21.3999],[149.8165,-21.3836],[149.83,-21.3903],[149.85,-21.3903],[149.85,-21.37],[149.83,-21.36],[149.81,-21.36]],[[149.38,-20.79],[149.4,-20.8003],[149.42,-20.7803],[149.42,-20.77],[149.41,-20.76],[149.38,-20.76],[149.38,-20.79]],[[149.56,-21.81],[149.53,-21.84],[149.53,-21.8603],[149.55,-21.8603],[149.57,-21.8403],[149.57,-21.81],[149.56,-21.81]],[[149.8751,-21.002],[149.889,-21.035],[149.909,-21.035],[149.9229,-21.028],[149.908,-20.991],[149.887,-20.991],[149.8751,-21.002]],[[149.69,-21.48],[149.71,-21.48],[149.71,-21.4704],[149.73,-21.4704],[149.73,-21.44],[149.72,-21.43],[149.7,-21.43],[149.7,-21.45],[149.69,-21.46],[149.69,-21.48]],[[149.61,-21.84],[149.6,-21.87],[149.62,-21.87],[149.64,-21.8503],[149.66,-21.8396],[149.66,-21.82],[149.64,-21.82],[149.62,-21.84],[149.61,-21.84]],[[149.5934,-21.44],[149.6,-21.447],[149.6134,-21.447],[149.62,-21.4336],[149.62,-21.3866],[149.6134,-21.38],[149.6,-21.38],[149.5934,-21.387],[149.5934,-21.44]],[[149.54,-21.7803],[149.5467,-21.787],[149.5533,-21.787],[149.5771,-21.7538],[149.5941,-21.7538],[149.6008,-21.7464],[149.6008,-21.7331],[149.5867,-21.7331],[149.5867,-21.7267],[149.5733,-21.7267],[149.54,-21.7666],[149.54,-21.7803]],[[149.57,-21.95],[149.57,-21.96],[149.56,-21.98],[149.55,-21.98],[149.55,-22],[149.5613,-22],[149.5597,-22.0023],[149.5603,-22.0078],[149.5661,-22.0159],[149.5692,-22.0275],[149.5703,-22.0205],[149.5666,-22.0026],[149.5775,-22.0045],[149.5823,-22.0278],[149.5845,-22.0292],[149.5901,-22.0187],[149.5927,-22.0051],[149.5907,-21.9841],[149.5866,-21.9869],[149.5807,-22.0017],[149.5737,-22.0026],[149.5674,-22],[149.57,-22],[149.59,-21.9812],[149.59,-21.96],[149.58,-21.95],[149.57,-21.95]],[[149.66,-21.2933],[149.6534,-21.3067],[149.6534,-21.3533],[149.6667,-21.3533],[149.7,-21.3337],[149.7067,-21.327],[149.7067,-21.3133],[149.7,-21.3067],[149.68,-21.2933],[149.66,-21.2933]],[[149.5667,-21.4737],[149.5733,-21.4937],[149.5867,-21.4937],[149.5867,-21.4667],[149.58,-21.46],[149.574,-21.46],[149.58,-21.4536],[149.58,-21.38],[149.56,-21.38],[149.5533,-21.3866],[149.5533,-21.453],[149.56,-21.46],[149.5667,-21.46],[149.5667,-21.4737]],[[149.57,-20.8923],[149.633,-20.8923],[149.633,-20.84],[149.5913,-20.84],[149.57,-20.8565],[149.57,-20.8923]],[[149.3789,-20.9506],[149.485,-20.9506],[149.485,-20.891],[149.3789,-20.891],[149.3789,-20.9506]],[[149.2733,-20.847],[149.28,-20.8537],[149.2867,-20.8537],[149.2867,-20.834],[149.313,-20.834],[149.313,-20.7534],[149.2364,-20.7534],[149.2364,-20.834],[149.2733,-20.834],[149.2733,-20.847]],[[150.02,-20.89],[150.02,-21.0335],[150.1003,-21.0335],[150.1003,-20.89],[150.02,-20.89]],[[149.05,-20.6496],[149.16,-20.7596],[149.17,-20.7596],[149.17,-20.7503],[149.2,-20.71],[149.22,-20.71],[149.22,-20.6903],[149.2,-20.67],[149.16,-20.65],[149.15,-20.65],[149.07,-20.61],[149.05,-20.61],[149.05,-20.6496]],[[150.5,-20.9],[150.5,-21.04],[150.46,-21.06],[150.4,-21.06],[150.38,-21.0803],[150.4,-21.1203],[150.48,-21.1603],[150.5,-21.1603],[150.54,-21.1003],[150.6,-21.0203],[150.68,-20.9604],[150.6998,-20.9398],[150.62,-20.88],[150.6,-20.9],[150.5,-20.9]],[[150.4131,-20.5469],[150.32,-20.64],[150.28,-20.64],[150.16,-20.7003],[150.16,-20.7196],[150.18,-20.7196],[150.26,-20.68],[150.36,-20.68],[150.4,-20.64],[150.42,-20.64],[150.4399,-20.6801],[150.444,-20.7581],[150.4417,-20.7874],[150.4081,-20.7874],[150.3498,-20.8083],[150.3039,-20.8375],[150.3039,-20.8586],[150.3498,-20.8586],[150.3498,-20.875],[150.3748,-20.875],[150.44,-20.858],[150.5399,-20.8],[150.5,-20.7196],[150.5,-20.64],[150.48,-20.64],[150.48,-20.6],[150.42,-20.54],[150.4131,-20.5469]]]},"properties":{"id":"gbrmpa-zone-745","type":"General Use Zone","zone":"Light Blue Zone","color":"#7fc3dd","name":"GU-19-6010","permit":null,"source":"GBRMPA"}},{"type":"Feature","geometry":{"type":"Polygon","coordinates":[[[152,-21.86],[151.94,-21.86],[151.94,-21.84],[151.99,-21.81],[152.02,-21.81],[152.02,-21.84],[152,-21.86]]]},"properties":{"id":"gbrmpa-zone-119","type":"Habitat Protection Zone","zone":"Dark Blue Zone","color":"#3f6fb0","name":"HP-21-5292","permit":"Unnamed reef 21-466","source":"GBRMPA"}},{"type":"Feature","geometry":{"type":"Polygon","coordinates":[[[152.2,-22.04],[152.2,-22],[152.32,-22.0004],[152.32,-22.02],[152.33,-22.03],[152.37,-22.03],[152.37,-22.0007],[152.4299,-22.0198],[152.49,-22.0362],[152.49,-22.06],[152.48,-22.06],[152.46,-22.08],[152.46,-22.1],[152.48,-22.12],[152.54,-22.12],[152.55,-22.11],[152.55,-22.09],[152.5741,-22.09],[152.5741,-22.2762],[152.65,-22.35],[152.58,-22.3636],[152.58,-22.41],[152.422,-22.41],[152.116,-22.23],[151.44,-21.8434],[151.44,-21.6438],[151.5813,-21.7872],[151.6338,-21.7872],[151.6041,-21.683],[151.6464,-21.683],[151.6464,-21.66],[151.67,-21.66],[151.67,-21.671],[151.7114,-21.671],[151.7114,-21.6402],[151.67,-21.6402],[151.67,-21.5013],[151.7218,-21.5013],[151.7218,-21.5284],[151.7551,-21.5483],[151.8298,-21.5269],[151.8298,-21.501],[151.8912,-21.501],[151.8912,-21.5417],[151.9356,-21.5417],[152.0111,-21.5232],[151.9912,-21.5563],[151.9171,-21.5676],[151.8846,-21.6105],[151.8993,-21.6327],[151.8993,-21.6652],[151.9364,-21.6652],[151.9364,-21.6477],[151.971,-21.59],[152.02,-21.59],[152.06,-21.55],[152.06,-21.5],[152.25,-21.5],[152.25,-21.7382],[152.2343,-21.7543],[152.22,-21.74],[152.2133,-21.74],[152.18,-21.7533],[152.18,-21.7733],[152.2069,-21.7823],[152.1286,-21.8622],[152.0106,-21.949],[152.0106,-21.9789],[152.2,-21.9789],[152.2,-22],[152.18,-22],[152.16,-22.01],[152.1,-22.01],[152.09,-22.02],[152.11,-22.04],[152.2,-22.04]],[[152.48,-22.29],[152.48,-22.3],[152.49,-22.3],[152.49,-22.29],[152.48,-22.29]],[[152.22,-21.68],[152.22,-21.6933],[152.2334,-21.6933],[152.2334,-21.68],[152.22,-21.68]],[[152.55,-22.19],[152.54,-22.2],[152.54,-22.21],[152.55,-22.21],[152.56,-22.2],[152.55,-22.19]],[[151.964,-21.66],[151.98,-21.66],[151.98,-21.64],[151.964,-21.64],[151.964,-21.66]],[[152.27,-22.11],[152.28,-22.12],[152.29,-22.12],[152.3,-22.11],[152.29,-22.1],[152.27,-22.11]],[[152.0934,-21.6333],[152.0934,-21.6467],[152.1067,-21.6467],[152.1134,-21.64],[152.1134,-21.6267],[152.1,-21.6267],[152.0934,-21.6333]],[[152.54,-22.26],[152.54,-22.28],[152.5533,-22.28],[152.56,-22.2733],[152.56,-22.26],[152.54,-22.26]],[[152.3134,-22.06],[152.32,-22.0667],[152.34,-22.0667],[152.34,-22.0533],[152.3334,-22.0467],[152.32,-22.0467],[152.3134,-22.06]],[[152.5067,-22.24],[152.5067,-22.2533],[152.5267,-22.2533],[152.5334,-22.2467],[152.5334,-22.2333],[152.5134,-22.2333],[152.5067,-22.24]],[[151.6952,-21.5772],[151.7196,-21.5772],[151.7196,-21.5542],[151.6952,-21.5542],[151.6952,-21.5772]],[[152.26,-22.03],[152.29,-22.03],[152.29,-22.01],[152.26,-22.01],[152.26,-22.03]],[[152.06,-22.04],[152.0667,-22.0467],[152.08,-22.0467],[152.0867,-22.04],[152.0867,-22.0267],[152.08,-22.02],[152.0667,-22.02],[152.06,-22.0267],[152.06,-22.04]],[[151.8476,-21.7088],[151.8789,-21.7088],[151.8779,-21.6874],[151.8476,-21.6874],[151.8476,-21.7088]],[[152.5067,-22.1733],[152.5067,-22.1867],[152.5134,-22.1933],[152.5267,-22.1933],[152.54,-22.18],[152.54,-22.1667],[152.5134,-22.1667],[152.5067,-22.1733]],[[152.06,-21.6067],[152.0867,-21.6067],[152.0934,-21.6],[152.0934,-21.5867],[152.0867,-21.58],[152.0733,-21.58],[152.06,-21.5933],[152.06,-21.6067]],[[152.1748,-21.5666],[152.2039,-21.5666],[152.2123,-21.5583],[152.2123,-21.5416],[152.1914,-21.5416],[152.1748,-21.5583],[152.1748,-21.5666]],[[152.23,-22.084],[152.23,-22.106],[152.266,-22.106],[152.266,-22.084],[152.23,-22.084]],[[152.33,-22.1],[152.34,-22.11],[152.37,-22.11],[152.38,-22.1],[152.37,-22.09],[152.34,-22.09],[152.33,-22.1]],[[152.4289,-22.1833],[152.4498,-22.1833],[152.4581,-22.1749],[152.4581,-22.15],[152.4414,-22.15],[152.4289,-22.1624],[152.4289,-22.1833]],[[152.18,-21.62],[152.22,-21.62],[152.22,-21.6067],[152.2067,-21.6067],[152.2067,-21.5933],[152.1867,-21.5933],[152.18,-21.6],[152.18,-21.62]],[[152.5164,-22.3708],[152.5456,-22.3916],[152.5664,-22.3916],[152.5664,-22.3708],[152.5498,-22.3708],[152.5331,-22.3624],[152.5164,-22.3624],[152.5164,-22.3708]],[[152.5164,-22.1458],[152.5164,-22.1583],[152.5414,-22.1583],[152.5414,-22.1624],[152.5581,-22.1624],[152.5623,-22.1583],[152.5623,-22.15],[152.5581,-22.1458],[152.5498,-22.1458],[152.5498,-22.1333],[152.5289,-22.1333],[152.5164,-22.1458]],[[151.9623,-21.7125],[151.979,-21.7291],[152.0039,-21.7291],[152.0039,-21.7125],[151.9914,-21.6999],[151.9623,-21.6999],[151.9623,-21.7125]],[[152.41,-22.03],[152.41,-22.06],[152.44,-22.06],[152.45,-22.05],[152.45,-22.04],[152.44,-22.03],[152.41,-22.03]],[[152.4706,-22.2041],[152.4956,-22.2249],[152.5164,-22.2041],[152.5164,-22.1999],[152.4914,-22.1749],[152.4706,-22.1958],[152.4706,-22.2041]],[[152.0873,-21.6791],[152.0623,-21.6958],[152.0623,-21.7166],[152.0789,-21.7166],[152.1164,-21.6999],[152.1164,-21.6791],[152.0873,-21.6791]],[[151.9,-21.9],[151.92,-21.9],[151.96,-21.8867],[151.96,-21.8733],[151.9534,-21.8667],[151.92,-21.8667],[151.9,-21.8733],[151.9,-21.9]],[[152.0914,-21.7833],[152.0914,-21.7958],[152.0998,-21.8041],[152.1248,-21.8041],[152.1331,-21.8125],[152.1498,-21.8125],[152.1664,-21.8041],[152.1664,-21.7791],[152.1373,-21.7791],[152.1289,-21.775],[152.1039,-21.775],[152.0914,-21.7833]],[[151.9373,-21.7666],[151.9498,-21.7791],[151.979,-21.7791],[151.9872,-21.7708],[151.9872,-21.7583],[151.979,-21.75],[151.9664,-21.75],[151.9664,-21.7333],[151.9539,-21.7208],[151.9373,-21.7208],[151.9206,-21.7291],[151.9206,-21.75],[151.9373,-21.75],[151.9373,-21.7666]],[[151.94,-21.86],[152,-21.86],[152.02,-21.84],[152.02,-21.81],[151.99,-21.81],[151.94,-21.84],[151.94,-21.86]],[[151.83,-21.81],[151.87,-21.82],[151.91,-21.84],[151.92,-21.84],[151.92,-21.79],[151.87,-21.79],[151.87,-21.7875],[151.83,-21.7875],[151.83,-21.81]],[[152.33,-22.27],[152.36,-22.28],[152.48,-22.28],[152.48,-22.25],[152.36,-22.25],[152.33,-22.24],[152.33,-22.27]],[[151.7499,-21.6001],[151.7581,-21.6652],[151.8232,-21.6652],[151.8232,-21.606],[151.7921,-21.5676],[151.7669,-21.5676],[151.7499,-21.6001]],[[151.6996,-21.7266],[151.7714,-21.7872],[151.7891,-21.7872],[151.7891,-21.6867],[151.6996,-21.6867],[151.6996,-21.7266]]]},"properties":{"id":"gbrmpa-zone-171","type":"General Use Zone","zone":"Light Blue Zone","color":"#7fc3dd","name":"GU-21-6017","permit":null,"source":"GBRMPA"}},{"type":"Feature","geometry":{"type":"Polygon","coordinates":[[[151.8387,-20.3858],[151.2967,-20.6467],[151,-20.35],[150.8399,-20.1195],[151.0471,-19.929],[151.8387,-20.3858]]]},"properties":{"id":"gbrmpa-zone-271","type":"General Use Zone","zone":"Light Blue Zone","color":"#7fc3dd","name":"GU-19-6011","permit":null,"source":"GBRMPA"}},{"type":"Feature","geometry":{"type":"Polygon","coordinates":[[[152.305,-20.8696],[152.305,-20.985],[152.1298,-20.985],[152.1298,-21.2496],[152.45,-21.2496],[152.45,-21.1508],[152.5974,-21.1508],[152.5974,-21.0796],[152.6943,-21.0796],[152.6943,-21.1496],[152.8,-21.1496],[152.8,-21.35],[153,-22.325],[152.7,-22.65],[152.7,-22.41],[152.7402,-22.3537],[152.6901,-22.3422],[152.65,-22.35],[152.5741,-22.2762],[152.5741,-22.09],[152.55,-22.09],[152.55,-22.11],[152.54,-22.12],[152.48,-22.12],[152.46,-22.1],[152.46,-22.08],[152.48,-22.06],[152.49,-22.06],[152.49,-22.0362],[152.5402,-22.0498],[152.6298,-21.9802],[152.6476,-21.9973],[152.6586,-21.9911],[152.6739,-21.9911],[152.6739,-21.9243],[152.6103,-21.9243],[152.6103,-21.9398],[152.5913,-21.9499],[152.46,-21.9499],[152.4299,-21.9796],[152.4299,-22.0198],[152.37,-22.0007],[152.37,-22.03],[152.33,-22.03],[152.32,-22.02],[152.32,-22.0004],[152.2392,-22],[152.282,-21.917],[152.3343,-21.8782],[152.3756,-21.8672],[152.4608,-21.8293],[152.5408,-21.7694],[152.5408,-21.7492],[152.5316,-21.7492],[152.5417,-21.6784],[152.5602,-21.6784],[152.5602,-21.6497],[152.5981,-21.5237],[152.522,-21.5237],[152.5012,-21.5698],[152.5012,-21.6346],[152.4374,-21.6346],[152.4067,-21.7094],[152.3576,-21.7275],[152.25,-21.7382],[152.25,-21.5],[152.06,-21.5],[152.06,-21.55],[152.02,-21.59],[151.971,-21.59],[151.9364,-21.6477],[151.9364,-21.6652],[151.8993,-21.6652],[151.8993,-21.6327],[151.8846,-21.6105],[151.9171,-21.5676],[151.9912,-21.5563],[152.0111,-21.5232],[151.9356,-21.5417],[151.8912,-21.5417],[151.8912,-21.501],[151.8298,-21.501],[151.8298,-21.5269],[151.7551,-21.5483],[151.7218,-21.5284],[151.7218,-21.5013],[151.67,-21.5013],[151.67,-21.55],[151.5622,-21.5007],[151.5499,-21.5007],[151.55,-21.36],[151.49,-21.28],[151.2395,-21.2797],[151.24,-21.36],[151.1662,-21.3846],[151.0517,-21.2584],[151.021,-21.2579],[151.02,-21.33],[151.1025,-21.4],[151.1027,-21.4397],[150.9882,-21.4397],[150.84,-21.38],[150.7396,-21.38],[150.7,-21.3589],[150.7,-21.28],[150.72,-21.26],[150.78,-21.32],[150.88,-21.32],[150.9,-21.3],[150.9,-21.2803],[150.86,-21.2403],[150.8512,-21.2049],[150.76,-21.2356],[150.76,-21.22],[150.7706,-21.2094],[150.8321,-21.1848],[150.8317,-21.1601],[150.72,-21.1603],[150.64,-21.2203],[150.6,-21.1603],[150.6,-21.14],[150.72,-21],[150.74,-21],[150.74,-21.04],[150.824,-21.04],[150.8242,-20.9889],[151.27,-20.9889],[151.3,-20.9296],[151.42,-20.8696],[152.305,-20.8696]],[[151.6201,-21.1286],[151.6201,-21.2904],[151.7002,-21.3599],[151.7501,-21.3599],[151.8807,-21.2803],[151.8807,-21.1286],[151.6201,-21.1286]],[[152.6049,-21.2645],[152.434,-21.362],[152.512,-21.414],[152.562,-21.384],[152.6492,-21.2645],[152.6049,-21.2645]],[[152.3551,-21.6429],[152.3551,-21.6538],[152.3785,-21.6538],[152.4007,-21.6409],[152.4007,-21.6256],[152.3817,-21.6256],[152.3551,-21.6429]],[[152.7219,-22.3483],[152.7253,-22.3448],[152.7212,-22.3453],[152.7219,-22.3483]],[[151.5926,-21.4993],[151.5948,-21.4958],[151.5907,-21.4973],[151.5902,-21.4989],[151.5926,-21.4993]],[[152.2528,-21.5442],[152.2563,-21.5443],[152.2561,-21.5405],[152.2528,-21.5442]],[[150.7924,-21.2119],[150.7941,-21.2119],[150.7952,-21.2098],[150.7918,-21.2084],[150.7924,-21.2119]],[[152.5603,-21.489],[152.5614,-21.4902],[152.5638,-21.4892],[152.5618,-21.4868],[152.5603,-21.489]],[[150.7653,-21.1336],[150.7624,-21.1334],[150.7619,-21.1361],[150.7653,-21.1336]],[[151.1592,-21.335],[151.1607,-21.3338],[151.1581,-21.332],[151.1572,-21.3331],[151.1592,-21.335]],[[152.3353,-21.2814],[152.3326,-21.2809],[152.3349,-21.2832],[152.3372,-21.2824],[152.3353,-21.2814]],[[152.4565,-21.9374],[152.4587,-21.9363],[152.4582,-21.9343],[152.4562,-21.9349],[152.4565,-21.9374]],[[152.3158,-21.2769],[152.3141,-21.2775],[152.3153,-21.2792],[152.3176,-21.2785],[152.3158,-21.2769]],[[152.6088,-22.2243],[152.6111,-22.2237],[152.6102,-22.222],[152.6079,-22.2226],[152.6088,-22.2243]],[[151.9893,-21.2106],[151.9909,-21.2092],[151.9886,-21.2082],[151.9875,-21.2096],[151.9893,-21.2106]],[[152.0268,-21.3822],[152.0249,-21.3835],[152.0256,-21.3852],[152.0272,-21.3841],[152.0268,-21.3822]],[[152.0804,-21.1066],[152.0822,-21.1061],[152.0815,-21.1039],[152.0804,-21.1066]],[[151.572,-21.3346],[151.572,-21.3331],[151.569,-21.334],[151.5698,-21.3352],[151.572,-21.3346]],[[151.6597,-21.4537],[151.661,-21.4544],[151.6612,-21.4513],[151.6597,-21.4537]],[[152.1802,-20.9306],[152.182,-20.9296],[152.1809,-20.928],[152.1802,-20.9306]],[[151.9872,-21.2235],[151.9871,-21.2208],[151.9857,-21.2225],[151.9872,-21.2235]],[[152.7567,-22.1861],[152.7582,-22.1866],[152.7596,-22.185],[152.7567,-22.1861]],[[152.0164,-21.2156],[152.0179,-21.2146],[152.0165,-21.2128],[152.0164,-21.2156]],[[152.3597,-21.6177],[152.3624,-21.6172],[152.3607,-21.6162],[152.3597,-21.6177]],[[152.6487,-22.2499],[152.6498,-22.2498],[152.6491,-22.2475],[152.6478,-22.2482],[152.6487,-22.2499]],[[152.2553,-21.4085],[152.2536,-21.4088],[152.2543,-21.4104],[152.2553,-21.4085]],[[151.6801,-21.3764],[151.6795,-21.3784],[151.6808,-21.3778],[151.6801,-21.3764]],[[152.4274,-21.9262],[152.4286,-21.9251],[152.4268,-21.9243],[152.4274,-21.9262]],[[152.28,-21.2635],[152.2813,-21.2644],[152.2818,-21.2623],[152.28,-21.2635]],[[151.6047,-21.3337],[151.6065,-21.3341],[151.6065,-21.3325],[151.6047,-21.3337]],[[152.4859,-21.3189],[152.485,-21.3177],[152.4846,-21.3191],[152.4859,-21.3189]],[[152.7505,-22.2137],[152.7524,-22.2128],[152.7515,-22.2128],[152.7505,-22.2137]],[[152.551,-21.7334],[152.5522,-21.7336],[152.5516,-21.7328],[152.551,-21.7334]],[[152.4228,-21.3586],[152.4221,-21.3586],[152.4225,-21.3594],[152.4228,-21.3586]],[[152.0863,-20.9913],[152.0881,-20.9907],[152.0864,-20.991],[152.0863,-20.9913]],[[152.1124,-20.9961],[152.1134,-20.9956],[152.1128,-20.9955],[152.1124,-20.9961]]]},"properties":{"id":"gbrmpa-zone-199","type":"Habitat Protection Zone","zone":"Dark Blue Zone","color":"#3f6fb0","name":"HP-20-5225","permit":"Swain Reefs","source":"GBRMPA"}},{"type":"Feature","geometry":{"type":"Polygon","coordinates":[[[152.545,-20.7882],[152.9177,-20.9984],[152.9633,-21.1496],[152.6943,-21.1496],[152.6943,-21.0796],[152.5974,-21.0796],[152.5974,-21.1508],[152.45,-21.1508],[152.45,-21.2496],[152.1298,-21.2496],[152.1298,-20.985],[152.305,-20.985],[152.305,-20.8696],[151.42,-20.8696],[151.3,-20.9296],[151.27,-20.9889],[150.8242,-20.9889],[150.8242,-20.8886],[150.6908,-20.8886],[150.6908,-20.8],[151.04,-20.8],[151.15,-20.7],[151.23,-20.68],[151.8387,-20.3858],[152.545,-20.7882]],[[151.212,-20.808],[151.196,-20.86],[151.196,-20.872],[151.2,-20.904],[151.256,-20.904],[151.276,-20.824],[151.276,-20.796],[151.232,-20.796],[151.22,-20.8],[151.212,-20.808]],[[152.296,-21.144],[152.3,-21.16],[152.32,-21.164],[152.32,-21.144],[152.296,-21.144]],[[152.172,-21.132],[152.172,-21.144],[152.196,-21.144],[152.196,-21.128],[152.184,-21.128],[152.172,-21.132]],[[152.6236,-21.0494],[152.625,-21.0495],[152.6247,-21.0467],[152.6206,-21.0468],[152.6212,-21.0489],[152.6236,-21.0494]],[[152.4851,-21.099],[152.4829,-21.1002],[152.4834,-21.1012],[152.4881,-21.1006],[152.488,-21.0993],[152.4851,-21.099]],[[151.0761,-20.8419],[151.0742,-20.8445],[151.0762,-20.8436],[151.0761,-20.8419]],[[152.2588,-21.1018],[152.2579,-21.1008],[152.2566,-21.1038],[152.2588,-21.1018]],[[152.3524,-21.1015],[152.3509,-21.1017],[152.352,-21.104],[152.3524,-21.1015]],[[152.2324,-21.0177],[152.2353,-21.0164],[152.2333,-21.016],[152.2324,-21.0177]],[[152.4912,-21.0057],[152.4937,-21.0042],[152.4911,-21.0044],[152.4912,-21.0057]],[[152.1434,-21.0911],[152.1454,-21.0903],[152.1447,-21.0892],[152.143,-21.0894],[152.1434,-21.0911]],[[152.1664,-21.099],[152.1686,-21.0976],[152.1684,-21.0965],[152.1664,-21.099]],[[152.5018,-21.1373],[152.5037,-21.1375],[152.5044,-21.1365],[152.5018,-21.1373]],[[152.2266,-21.0762],[152.2287,-21.0759],[152.2276,-21.0751],[152.2266,-21.0762]],[[152.1598,-21.1009],[152.1579,-21.1021],[152.1592,-21.1022],[152.1598,-21.1009]],[[152.1913,-21.171],[152.1916,-21.1694],[152.1906,-21.1702],[152.1913,-21.171]],[[152.4743,-21.001],[152.4758,-21.0016],[152.4752,-21.0006],[152.4743,-21.001]],[[152.3187,-21.119],[152.3196,-21.1187],[152.319,-21.1183],[152.3187,-21.119]]]},"properties":{"id":"gbrmpa-zone-348","type":"Marine National Park Zone","zone":"Green Zone","color":"#2fae5a","name":"MNP-20-1124","permit":"Central Swains: Hardline to Marine Park boundary","source":"GBRMPA"}},{"type":"Feature","geometry":{"type":"Polygon","coordinates":[[[150.2062,-19.437],[150.2565,-19.4666],[150.0428,-19.7572],[150.0427,-19.8256],[150.1168,-19.8762],[149.9992,-19.8762],[150.13,-20.11],[150.1881,-20.1681],[150.3001,-20.3903],[150.3001,-20.42],[150.0232,-20.42],[150.0232,-20.2588],[149.8629,-20.2588],[149.8629,-19.7017],[149.75,-19.62],[149.7,-19.66],[149.63,-19.65],[149.61,-19.63],[149.61,-19.59],[149.7885,-19.4115],[149.8811,-19.4591],[149.9894,-19.309],[150.2062,-19.437]],[[149.828,-19.596],[149.828,-19.632],[149.864,-19.632],[149.864,-19.648],[149.892,-19.648],[149.892,-19.62],[149.86,-19.596],[149.828,-19.596]],[[150.116,-20.328],[150.116,-20.364],[150.148,-20.364],[150.152,-20.316],[150.132,-20.316],[150.116,-20.328]],[[149.9639,-20.0958],[149.965,-20.0957],[149.9664,-20.0937],[149.9639,-20.0958]],[[149.958,-19.736],[149.9595,-19.7365],[149.9587,-19.7345],[149.958,-19.736]]]},"properties":{"id":"gbrmpa-zone-248","type":"Marine National Park Zone","zone":"Green Zone","color":"#2fae5a","name":"MNP-19-1098","permit":"Rafter Reef (19-146) to Bax Reef (20-138) mid-shelf transect","source":"GBRMPA"}},{"type":"Feature","geometry":{"type":"Polygon","coordinates":[[[150.14,-19.76],[150.266,-19.868],[150.28,-19.84],[150.3,-19.84],[150.32,-19.86],[150.32,-19.88],[150.3,-19.9],[150.34,-19.92],[150.4201,-19.9997],[150.4652,-19.9331],[150.52,-20.22],[150.6617,-20.2833],[150.8399,-20.1195],[150.9854,-20.3283],[150.8448,-20.4125],[150.8448,-20.5321],[150.9206,-20.5816],[151.2317,-20.5816],[151.2967,-20.6467],[151.23,-20.68],[151.15,-20.7],[151.04,-20.8],[150.8605,-20.8],[150.74,-20.7196],[150.72,-20.6397],[150.66,-20.5996],[150.62,-20.5996],[150.6,-20.6196],[150.58,-20.6196],[150.52,-20.5596],[150.5199,-20.5],[150.5359,-20.5],[150.5359,-20.3017],[150.4765,-20.3017],[150.28,-20.12],[150.2228,-20.0476],[150.1691,-19.9463],[150.1168,-19.8762],[150.0427,-19.8256],[150.0428,-19.7572],[150.0704,-19.7202],[150.14,-19.76]]]},"properties":{"id":"gbrmpa-zone-285","type":"Habitat Protection Zone","zone":"Dark Blue Zone","color":"#3f6fb0","name":"HP-19-5173","permit":"Hardline Reefs","source":"GBRMPA"}},{"type":"Feature","geometry":{"type":"Polygon","coordinates":[[[151.7196,-21.5772],[151.6952,-21.5772],[151.6952,-21.5542],[151.7196,-21.5542],[151.7196,-21.5772]]]},"properties":{"id":"gbrmpa-zone-168","type":"Habitat Protection Zone","zone":"Dark Blue Zone","color":"#3f6fb0","name":"HP-21-5261","permit":"Unnamed reef 21-443","source":"GBRMPA"}},{"type":"Feature","geometry":{"type":"Polygon","coordinates":[[[150.71,-20.67],[150.68,-20.67],[150.68,-20.65],[150.71,-20.65],[150.71,-20.67]]]},"properties":{"id":"gbrmpa-zone-331","type":"Habitat Protection Zone","zone":"Dark Blue Zone","color":"#3f6fb0","name":"HP-20-5210","permit":"Unnamed reef 20-332","source":"GBRMPA"}},{"type":"Feature","geometry":{"type":"Polygon","coordinates":[[[151.2,-20.904],[151.196,-20.872],[151.196,-20.86],[151.212,-20.808],[151.22,-20.8],[151.232,-20.796],[151.276,-20.796],[151.276,-20.824],[151.256,-20.904],[151.2,-20.904]]]},"properties":{"id":"gbrmpa-zone-314","type":"Preservation Zone","zone":"Pink Zone","color":"#e58fb0","name":"P-20-23","permit":"Olympic Reef (20-377) and surrounds","source":"GBRMPA"}},{"type":"Feature","geometry":{"type":"Polygon","coordinates":[[[151.2317,-20.5816],[150.9206,-20.5816],[150.8448,-20.5321],[150.8448,-20.4125],[150.9854,-20.3283],[151,-20.35],[151.2317,-20.5816]]]},"properties":{"id":"gbrmpa-zone-222","type":"Marine National Park Zone","zone":"Green Zone","color":"#2fae5a","name":"MNP-20-1122","permit":"Eastern Central Swains","source":"GBRMPA"}},{"type":"Feature","geometry":{"type":"Polygon","coordinates":[[[149.98,-21.64],[149.98,-21.728],[150.1253,-21.728],[150.1253,-21.9098],[150.1349,-21.9098],[150.1359,-21.9327],[150.1223,-21.9327],[150.0975,-21.9569],[150.0441,-21.9023],[149.9256,-21.9023],[149.9256,-22.0458],[149.8639,-22.0458],[149.8639,-22.1405],[149.8692,-22.1405],[149.8716,-22.1428],[149.8699,-22.1518],[149.8726,-22.1546],[149.8691,-22.1528],[149.8665,-22.1568],[149.8573,-22.1571],[149.8573,-22.2431],[149.9134,-22.3443],[149.8103,-22.382],[149.7677,-22.3721],[149.7482,-22.3611],[149.746,-22.3581],[149.7461,-22.3556],[149.744,-22.3566],[149.7355,-22.3542],[149.7308,-22.3473],[149.7275,-22.3501],[149.7214,-22.3514],[149.7131,-22.356],[149.6373,-22.1815],[149.6373,-22.0045],[149.6912,-22.0045],[149.6912,-21.8812],[149.7033,-21.8564],[149.9,-21.64],[149.98,-21.64]],[[149.8781,-21.991],[149.8756,-21.9924],[149.8686,-21.9921],[149.8662,-22.001],[149.8554,-22.0017],[149.8525,-22.0008],[149.852,-21.9991],[149.8457,-22.0018],[149.8447,-22.0048],[149.8511,-22.0129],[149.8571,-22.0112],[149.8638,-22.0131],[149.8629,-22.0075],[149.8658,-22.0044],[149.8703,-22.0054],[149.876,-22.0008],[149.8791,-22.0015],[149.8791,-21.9965],[149.8817,-21.9936],[149.8781,-21.991]],[[150.1146,-21.9202],[150.1085,-21.922],[150.1084,-21.9315],[150.1112,-21.9315],[150.1132,-21.9336],[150.116,-21.9307],[150.1182,-21.9309],[150.1148,-21.9247],[150.1171,-21.92],[150.1205,-21.918],[150.118,-21.9149],[150.1146,-21.9202]],[[149.8017,-21.8276],[149.7931,-21.8311],[149.7945,-21.8399],[149.796,-21.84],[149.7968,-21.8377],[149.7988,-21.8393],[149.7992,-21.8362],[149.8053,-21.833],[149.8017,-21.8276]],[[149.807,-21.9818],[149.8058,-21.9812],[149.8038,-21.9838],[149.8083,-21.9892],[149.8205,-21.9958],[149.8103,-21.9818],[149.807,-21.9818]],[[149.8196,-21.8237],[149.8196,-21.8304],[149.8236,-21.8369],[149.8255,-21.8358],[149.8251,-21.833],[149.8234,-21.828],[149.8196,-21.8237]],[[149.7985,-21.851],[149.7999,-21.8519],[149.8015,-21.8467],[149.7995,-21.8421],[149.7976,-21.848],[149.7985,-21.851]],[[149.8673,-22.1447],[149.8661,-22.1462],[149.8625,-22.1454],[149.8643,-22.1478],[149.8687,-22.1485],[149.8699,-22.145],[149.8673,-22.1447]],[[149.7874,-21.8135],[149.7859,-21.8148],[149.7907,-21.8179],[149.7874,-21.8135]],[[149.7743,-22.3598],[149.7741,-22.361],[149.7784,-22.3583],[149.7743,-22.3579],[149.7743,-22.3598]],[[149.8519,-22.1473],[149.8534,-22.1466],[149.8499,-22.1463],[149.8484,-22.1491],[149.8519,-22.1473]],[[149.8303,-22.0237],[149.8281,-22.0238],[149.828,-22.0251],[149.8323,-22.0261],[149.8303,-22.0237]],[[149.8447,-22.0326],[149.8407,-22.0333],[149.8403,-22.0346],[149.8439,-22.0352],[149.8447,-22.0326]],[[149.7757,-21.8215],[149.7774,-21.8214],[149.7778,-21.8193],[149.776,-21.8197],[149.7757,-21.8215]],[[149.8243,-22.0167],[149.8257,-22.0164],[149.8248,-22.0145],[149.8243,-22.0167]],[[149.8055,-21.839],[149.8061,-21.8402],[149.8078,-21.8386],[149.8055,-21.839]],[[149.8777,-21.9812],[149.8793,-21.9807],[149.8792,-21.9795],[149.8777,-21.9812]],[[149.8936,-21.9961],[149.895,-21.9963],[149.8947,-21.9948],[149.8936,-21.9961]],[[149.8,-21.8239],[149.7995,-21.8242],[149.8005,-21.8267],[149.8,-21.8239]],[[149.894,-21.971],[149.8954,-21.9709],[149.8939,-21.9695],[149.894,-21.971]],[[149.8119,-22.0399],[149.8127,-22.0389],[149.8117,-22.0391],[149.8119,-22.0399]],[[150.0987,-21.9393],[150.0993,-21.9388],[150.0987,-21.9381],[150.0987,-21.9393]]]},"properties":{"id":"gbrmpa-zone-159","type":"Marine National Park Zone","zone":"Green Zone","color":"#2fae5a","name":"MNP-21-1146","permit":"Broad Sound area including the Bedwell Group, Wild Duck and Bamborough Islands","source":"GBRMPA"}},{"type":"Feature","geometry":{"type":"Polygon","coordinates":[[[151.7891,-21.7872],[151.7714,-21.7872],[151.6996,-21.7266],[151.6996,-21.6867],[151.7891,-21.6867],[151.7891,-21.7872]]]},"properties":{"id":"gbrmpa-zone-53","type":"Habitat Protection Zone","zone":"Dark Blue Zone","color":"#3f6fb0","name":"HP-21-5281","permit":"Unnamed reefs 21-460 and 21-464","source":"GBRMPA"}},{"type":"Feature","geometry":{"type":"Polygon","coordinates":[[[150.12,-20.42],[150.3145,-20.42],[150.3145,-20.479],[150.2829,-20.52],[150.26,-20.52],[150.18,-20.56],[150.1617,-20.5874],[150.1125,-20.6123],[150,-20.6],[149.9128,-20.58],[149.9128,-20.5474],[149.9447,-20.5153],[150.073,-20.5153],[150.12,-20.4927],[150.12,-20.42]]]},"properties":{"id":"gbrmpa-zone-345","type":"Habitat Protection Zone","zone":"Dark Blue Zone","color":"#3f6fb0","name":"HP-20-5198","permit":"Credlin Reefs (20-287 and 20-288) to Boulton Reef (20-146) complex","source":"GBRMPA"}},{"type":"Feature","geometry":{"type":"Polygon","coordinates":[[[150.39,-21.0403],[150.36,-21.0403],[150.35,-21.03],[150.35,-21.02],[150.39,-21],[150.39,-21.0403]]]},"properties":{"id":"gbrmpa-zone-140","type":"Habitat Protection Zone","zone":"Dark Blue Zone","color":"#3f6fb0","name":"HP-20-5231","permit":"Unnamed reef 21-591","source":"GBRMPA"}},{"type":"Feature","geometry":{"type":"Polygon","coordinates":[[[151.6464,-21.66],[151.6464,-21.683],[151.6041,-21.683],[151.6338,-21.7872],[151.5813,-21.7872],[151.44,-21.6438],[151.44,-21.6232],[151.477,-21.6232],[151.5177,-21.6599],[151.6464,-21.66]]]},"properties":{"id":"gbrmpa-zone-163","type":"Habitat Protection Zone","zone":"Dark Blue Zone","color":"#3f6fb0","name":"HP-21-5267","permit":"Heralds Prong #2 Reef (21-459), unnamed reef 21-457 and 21-458","source":"GBRMPA"}},{"type":"Feature","geometry":{"type":"Polygon","coordinates":[[[150.42,-20.73],[150.38,-20.73],[150.38,-20.7103],[150.39,-20.7],[150.42,-20.7],[150.42,-20.73]]]},"properties":{"id":"gbrmpa-zone-326","type":"Habitat Protection Zone","zone":"Dark Blue Zone","color":"#3f6fb0","name":"HP-20-5212","permit":"Unnamed reef 20-303","source":"GBRMPA"}},{"type":"Feature","geometry":{"type":"Polygon","coordinates":[[[150.52,-20.5243],[150.4458,-20.5243],[150.4458,-20.3017],[150.5359,-20.3017],[150.5359,-20.5],[150.5199,-20.5],[150.52,-20.5243]]]},"properties":{"id":"gbrmpa-zone-226","type":"Marine National Park Zone","zone":"Green Zone","color":"#2fae5a","name":"MNP-20-1120","permit":"Hydrographers Passage, east of Boulton Reef (20-146)","source":"GBRMPA"}},{"type":"Feature","geometry":{"type":"Polygon","coordinates":[[[150.2467,-21.12],[150.2334,-21.12],[150.2334,-21.1067],[150.2467,-21.1067],[150.2467,-21.12]]]},"properties":{"id":"gbrmpa-zone-134","type":"Habitat Protection Zone","zone":"Dark Blue Zone","color":"#3f6fb0","name":"HP-21-5237","permit":"Alarm Reef (21-055)","source":"GBRMPA"}},{"type":"Feature","geometry":{"type":"Polygon","coordinates":[[[151.98,-21.66],[151.964,-21.66],[151.964,-21.64],[151.98,-21.64],[151.98,-21.66]]]},"properties":{"id":"gbrmpa-zone-160","type":"Habitat Protection Zone","zone":"Dark Blue Zone","color":"#3f6fb0","name":"HP-21-5271","permit":"Unnamed reef 21-456","source":"GBRMPA"}},{"type":"Feature","geometry":{"type":"Polygon","coordinates":[[[150.48,-20.6],[150.48,-20.64],[150.5,-20.64],[150.5,-20.7196],[150.5399,-20.8],[150.44,-20.858],[150.3748,-20.875],[150.3498,-20.875],[150.3498,-20.8586],[150.3039,-20.8586],[150.3039,-20.8375],[150.3498,-20.8083],[150.4081,-20.7874],[150.4417,-20.7874],[150.444,-20.7581],[150.4399,-20.6801],[150.42,-20.64],[150.4,-20.64],[150.36,-20.68],[150.26,-20.68],[150.18,-20.7196],[150.16,-20.7196],[150.16,-20.7003],[150.28,-20.64],[150.32,-20.64],[150.42,-20.54],[150.48,-20.6]],[[150.3549,-20.6208],[150.3599,-20.6191],[150.358,-20.6185],[150.3549,-20.6208]],[[150.4547,-20.6115],[150.4561,-20.6109],[150.4563,-20.6083],[150.4547,-20.6115]]]},"properties":{"id":"gbrmpa-zone-340","type":"Habitat Protection Zone","zone":"Dark Blue Zone","color":"#3f6fb0","name":"HP-20-5202","permit":"Cole Reef (20-301a and b), Warland Reef (20-298), Southampton Reef (20-299), Chauvel Reefs (20-307 and 20-308) complex","source":"GBRMPA"}},{"type":"Feature","geometry":{"type":"Polygon","coordinates":[[[151.1025,-21.4],[151.02,-21.33],[151.021,-21.2579],[151.0517,-21.2584],[151.1662,-21.3846],[151.24,-21.36],[151.2395,-21.2797],[151.49,-21.28],[151.55,-21.36],[151.5499,-21.5007],[151.5622,-21.5007],[151.67,-21.55],[151.67,-21.66],[151.5177,-21.6599],[151.477,-21.6232],[151.44,-21.6232],[151.44,-21.8434],[150.9995,-21.8434],[150.9995,-22.4151],[152,-22.4151],[152,-22.23],[152.116,-22.23],[152.422,-22.41],[152.58,-22.41],[152.58,-22.3636],[152.6901,-22.3422],[152.7402,-22.3537],[152.7,-22.41],[152.7,-22.65],[152.3,-22.73],[152.125,-22.9057],[152,-22.9057],[152,-22.625],[151.9604,-22.5998],[151.71,-22.5998],[151.71,-22.6501],[151.5806,-22.6501],[151.5806,-22.6096],[151.5046,-22.6096],[151.5046,-22.6502],[151.1402,-22.6502],[151.1402,-22.5824],[150.9185,-22.5824],[150.9185,-22.5382],[150.7864,-22.5382],[150.7887,-22.5367],[150.7863,-22.5335],[150.7846,-22.5345],[150.7824,-22.5307],[150.7835,-22.5295],[150.7816,-22.5299],[150.7815,-22.5282],[150.7802,-22.5291],[150.7776,-22.5261],[150.7744,-22.5297],[150.7727,-22.5295],[150.7692,-22.5219],[150.7669,-22.5262],[150.7646,-22.5271],[150.758,-22.5252],[150.7558,-22.5233],[150.7474,-22.4773],[150.7518,-22.4737],[150.7548,-22.4748],[150.7535,-22.4709],[150.7563,-22.4708],[150.7577,-22.4683],[150.7556,-22.4636],[150.751,-22.4599],[150.756,-22.459],[150.7517,-22.4577],[150.751,-22.4547],[150.7484,-22.4544],[150.7467,-22.4524],[150.75,-22.4514],[150.7498,-22.4478],[150.7543,-22.4493],[150.781,-22.4493],[150.7258,-22.3244],[150.7258,-22.3044],[150.5552,-22.3044],[150.5565,-22.3001],[150.5595,-22.296],[150.5613,-22.2957],[150.5532,-22.2901],[150.5546,-22.2876],[150.5531,-22.2859],[150.5541,-22.2847],[150.551,-22.2811],[150.5527,-22.2794],[150.5432,-22.2789],[150.5342,-22.276],[150.5327,-22.2729],[150.5351,-22.2681],[150.5341,-22.2639],[150.5295,-22.264],[150.5296,-22.2603],[150.5271,-22.2606],[150.5245,-22.2572],[150.5263,-22.2562],[150.5258,-22.252],[150.5301,-22.2529],[150.5277,-22.2489],[150.5306,-22.2475],[150.5289,-22.2435],[150.5241,-22.2428],[150.5209,-22.239],[150.5198,-22.2328],[150.5218,-22.2277],[150.512,-22.2193],[150.5058,-22.2169],[150.507,-22.2156],[150.5059,-22.2139],[150.5024,-22.214],[150.5027,-22.2125],[150.4995,-22.2111],[150.4939,-22.2112],[150.4893,-22.2079],[150.4902,-22.2063],[150.4888,-22.2054],[150.48,-22.2055],[150.48,-22.1123],[150.7113,-22.1123],[150.7113,-21.93],[150.4227,-21.5459],[149.9753,-21.5459],[149.9753,-21.2518],[150.4687,-21.2518],[150.6623,-21.4702],[150.8802,-21.4702],[151.0999,-21.6007],[151.3394,-21.6007],[151.3394,-21.5156],[151.1491,-21.5156],[151.1491,-21.4866],[151.1768,-21.4577],[151.1025,-21.4]],[[151.2304,-21.7934],[151.2304,-21.8293],[151.2906,-21.8293],[151.2906,-21.7934],[151.2304,-21.7934]],[[150.2477,-21.52],[150.2539,-21.524],[150.2574,-21.5294],[150.2593,-21.5239],[150.2619,-21.5246],[150.2664,-21.5191],[150.2728,-21.52],[150.2766,-21.518],[150.2707,-21.5131],[150.2595,-21.5225],[150.2475,-21.517],[150.2453,-21.5176],[150.2477,-21.52]],[[150.2738,-21.4877],[150.2761,-21.4833],[150.2797,-21.4865],[150.2809,-21.4852],[150.2805,-21.4812],[150.2761,-21.4786],[150.2698,-21.4813],[150.2683,-21.4801],[150.2679,-21.4761],[150.266,-21.476],[150.2629,-21.4832],[150.2682,-21.4829],[150.2683,-21.4869],[150.2731,-21.4898],[150.2738,-21.4877]],[[150.1534,-21.5299],[150.1543,-21.5277],[150.1557,-21.5285],[150.1557,-21.5263],[150.1531,-21.5235],[150.1504,-21.524],[150.1482,-21.5199],[150.1474,-21.5223],[150.1491,-21.526],[150.1534,-21.5299]],[[150.2571,-21.4873],[150.2588,-21.487],[150.2581,-21.4838],[150.2543,-21.4864],[150.2571,-21.4873]],[[150.7729,-22.4765],[150.7718,-22.4775],[150.7756,-22.4822],[150.7729,-22.4765]],[[151.4197,-21.4281],[151.4212,-21.4282],[151.4219,-21.4263],[151.4188,-21.4259],[151.4197,-21.4281]],[[151.4266,-21.3804],[151.4232,-21.3825],[151.4256,-21.3829],[151.4266,-21.3804]],[[150.7562,-22.4784],[150.7585,-22.4784],[150.7561,-22.4757],[150.7562,-22.4784]],[[150.7594,-22.4682],[150.7627,-22.4687],[150.7602,-22.4672],[150.7594,-22.4682]],[[150.5392,-22.2667],[150.5431,-22.266],[150.5395,-22.2646],[150.5392,-22.2667]],[[152.7168,-22.3579],[152.7155,-22.3591],[152.7171,-22.3604],[152.7181,-22.359],[152.7168,-22.3579]],[[150.7698,-22.5187],[150.7717,-22.5179],[150.7701,-22.5174],[150.7698,-22.5187]],[[150.7514,-22.4543],[150.7524,-22.4546],[150.7529,-22.4537],[150.7514,-22.4543]],[[150.7533,-22.4822],[150.7523,-22.481],[150.7525,-22.4821],[150.7533,-22.4822]]]},"properties":{"id":"gbrmpa-zone-744","type":"Marine National Park Zone","zone":"Green Zone","color":"#2fae5a","name":"MNP-21-1141","permit":"Offshore Cape Clinton: including eastern Townshend Island, Heralds Reef Prong (21-432), Heralds Prong No. 3 (21-434), Archer Shoal (21-161) and lagoonal areas","source":"GBRMPA"}},{"type":"Feature","geometry":{"type":"Polygon","coordinates":[[[150.8399,-20.1195],[150.6617,-20.2833],[150.52,-20.22],[150.4652,-19.9331],[150.6383,-19.6907],[151.0471,-19.929],[150.8399,-20.1195]]]},"properties":{"id":"gbrmpa-zone-289","type":"Marine National Park Zone","zone":"Green Zone","color":"#2fae5a","name":"MNP-19-1103","permit":"Offshore Mackay - adjacent to the boundary of the Marine Park","source":"GBRMPA"}},{"type":"Feature","geometry":{"type":"Polygon","coordinates":[[[151.2906,-21.7934],[151.2906,-21.8293],[151.2304,-21.8293],[151.2304,-21.7934],[151.2906,-21.7934]],[[151.2502,-21.8105],[151.2543,-21.8089],[151.2511,-21.8082],[151.2493,-21.8095],[151.2502,-21.8105]]]},"properties":{"id":"gbrmpa-zone-120","type":"Preservation Zone","zone":"Pink Zone","color":"#e58fb0","name":"P-21-32","permit":"Bell Cay Reef (21-435)","source":"GBRMPA"}},{"type":"Feature","geometry":{"type":"Polygon","coordinates":[[[149.9289,-21.4713],[149.9289,-21.4875],[149.9373,-21.4875],[149.9373,-21.4958],[149.94,-21.5],[149.9753,-21.5],[149.9753,-21.5459],[150.4227,-21.5459],[150.7113,-21.93],[150.7113,-22.1123],[150.48,-22.1123],[150.48,-22.205],[150.4787,-22.2047],[150.4748,-22.2108],[150.4743,-22.2157],[150.4637,-22.2247],[150.459,-22.2232],[150.4546,-22.2266],[150.439,-22.2308],[150.4383,-22.2401],[150.4298,-22.2471],[150.4294,-22.2509],[150.4382,-22.2569],[150.439,-22.2542],[150.4416,-22.253],[150.4413,-22.247],[150.4421,-22.2534],[150.4395,-22.255],[150.4392,-22.258],[150.4369,-22.2603],[150.4356,-22.2594],[150.4363,-22.2627],[150.4321,-22.2629],[150.4345,-22.265],[150.4334,-22.2671],[150.4282,-22.2682],[150.4263,-22.2717],[150.4144,-22.2792],[150.4167,-22.2866],[150.4225,-22.2896],[150.4226,-22.2917],[150.4195,-22.2958],[150.4207,-22.299],[150.1599,-22.2943],[150.1572,-22.2894],[150.1579,-22.2863],[150.1551,-22.2812],[150.1555,-22.2783],[150.1515,-22.2744],[150.1498,-22.2688],[150.1503,-22.2623],[150.1527,-22.2621],[150.1518,-22.2593],[150.1425,-22.252],[150.141,-22.2551],[150.139,-22.2546],[150.1351,-22.2521],[150.1341,-22.2495],[150.1262,-22.2474],[150.1213,-22.2373],[150.1166,-22.2385],[150.1106,-22.2336],[150.1099,-22.2274],[150.1081,-22.2247],[150.1026,-22.2225],[150.1007,-22.218],[150.0983,-22.2165],[150.1003,-22.213],[150.0993,-22.2093],[150.09,-22.1912],[150.087,-22.1764],[150.0853,-22.1742],[150.088,-22.1683],[150.0851,-22.1689],[150.0808,-22.1633],[150.081,-22.1604],[150.0836,-22.1579],[150.0791,-22.1558],[150.0811,-22.1516],[150.0762,-22.1512],[150.0747,-22.1564],[150.0632,-22.1517],[150.0633,-22.1458],[150.0653,-22.1462],[150.0661,-22.1445],[150.0619,-22.142],[150.0623,-22.1383],[150.0601,-22.1364],[150.06,-22.1329],[150.0583,-22.1329],[150.0575,-22.1362],[150.0531,-22.1352],[150.0477,-22.1304],[150.0449,-22.1302],[150.0436,-22.1259],[150.0427,-22.128],[150.0351,-22.13],[150.0349,-22.1343],[150.0309,-22.1367],[150.0292,-22.1413],[150.0305,-22.1445],[150.0289,-22.1464],[150.0253,-22.1475],[150.0028,-22.1431],[149.9943,-22.148],[149.9883,-22.1633],[149.9816,-22.1676],[149.9649,-22.1738],[149.9625,-22.1788],[149.9562,-22.1855],[149.9539,-22.1926],[149.943,-22.2123],[149.9423,-22.224],[149.9402,-22.2282],[149.9382,-22.243],[149.935,-22.2498],[149.9331,-22.2506],[149.932,-22.2605],[149.9287,-22.2648],[149.9236,-22.2675],[149.9185,-22.2746],[149.9186,-22.2836],[149.9169,-22.2862],[149.9163,-22.2939],[149.9191,-22.3019],[149.915,-22.3032],[149.9133,-22.3057],[149.9158,-22.3089],[149.9158,-22.3147],[149.9142,-22.316],[149.9154,-22.3223],[149.9168,-22.3233],[149.9134,-22.3443],[149.8573,-22.2431],[149.8573,-22.1571],[149.8646,-22.1571],[149.862,-22.1697],[149.867,-22.1787],[149.8651,-22.1886],[149.8694,-22.1909],[149.8721,-22.1985],[149.8772,-22.2023],[149.881,-22.1995],[149.8859,-22.1849],[149.8939,-22.1786],[149.8965,-22.1746],[149.9037,-22.172],[149.9054,-22.1752],[149.9107,-22.1746],[149.9104,-22.1814],[149.9129,-22.1867],[149.9219,-22.1817],[149.9245,-22.1733],[149.9209,-22.155],[149.9256,-22.142],[149.9299,-22.1386],[149.9305,-22.1337],[149.9256,-22.1288],[149.922,-22.1286],[149.9213,-22.125],[149.9183,-22.1215],[149.917,-22.1147],[149.9191,-22.1128],[149.9159,-22.1069],[149.916,-22.1056],[149.9175,-22.1062],[149.9155,-22.1034],[149.9147,-22.1044],[149.9136,-22.1001],[149.9102,-22.0965],[149.91,-22.092],[149.9041,-22.0757],[149.9081,-22.0721],[149.9053,-22.0679],[149.9066,-22.0641],[149.9103,-22.0618],[149.9099,-22.0592],[149.9142,-22.0595],[149.9146,-22.058],[149.9113,-22.0585],[149.9079,-22.0526],[149.9052,-22.0534],[149.9032,-22.0516],[149.8978,-22.0536],[149.8817,-22.0682],[149.8843,-22.0781],[149.8793,-22.092],[149.8832,-22.0954],[149.8859,-22.0943],[149.8829,-22.0966],[149.884,-22.1004],[149.8773,-22.0988],[149.8733,-22.1029],[149.8745,-22.1115],[149.871,-22.1148],[149.8701,-22.1202],[149.8735,-22.1252],[149.8772,-22.1247],[149.8794,-22.1209],[149.8793,-22.1241],[149.8849,-22.1252],[149.8799,-22.1255],[149.8805,-22.1289],[149.8787,-22.1253],[149.8755,-22.1264],[149.8723,-22.1336],[149.8737,-22.1356],[149.8712,-22.1345],[149.8692,-22.1405],[149.8639,-22.1405],[149.8639,-22.0458],[149.9256,-22.0458],[149.9256,-21.9023],[150.0441,-21.9023],[150.0975,-21.9569],[150.1223,-21.9327],[150.1359,-21.9327],[150.1349,-21.9098],[150.1253,-21.9098],[150.1253,-21.728],[149.98,-21.728],[149.98,-21.64],[149.9,-21.64],[149.7033,-21.8564],[149.68,-21.7403],[149.67,-21.7403],[149.66,-21.7303],[149.66,-21.6803],[149.65,-21.6703],[149.65,-21.6453],[149.7448,-21.5532],[149.8551,-21.553],[149.8551,-21.5003],[149.88,-21.5003],[149.8873,-21.4958],[149.8873,-21.4791],[149.9039,-21.4791],[149.9039,-21.4708],[149.9289,-21.4713]],[[149.9243,-21.4762],[149.925,-21.4767],[149.9249,-21.4752],[149.9243,-21.4762]],[[149.9084,-21.4767],[149.9116,-21.4851],[149.9137,-21.4857],[149.914,-21.4831],[149.9084,-21.4767]],[[149.8929,-21.4846],[149.8906,-21.4925],[149.8923,-21.4953],[149.889,-21.4998],[149.8902,-21.501],[149.8937,-21.4991],[149.8944,-21.497],[149.8988,-21.4995],[149.8929,-21.4846]],[[149.9203,-21.4869],[149.9196,-21.4882],[149.9182,-21.4874],[149.918,-21.4891],[149.922,-21.4931],[149.9208,-21.4903],[149.9226,-21.4882],[149.9203,-21.4869]],[[149.911,-21.4929],[149.9105,-21.4913],[149.9072,-21.4955],[149.9096,-21.4982],[149.9087,-21.5014],[149.9116,-21.5044],[149.9151,-21.5034],[149.9161,-21.507],[149.919,-21.5078],[149.9163,-21.5022],[149.9179,-21.4945],[149.9131,-21.4946],[149.911,-21.4929]],[[149.9293,-21.496],[149.9305,-21.4958],[149.9294,-21.4942],[149.9293,-21.496]],[[149.8125,-21.5769],[149.8136,-21.5755],[149.8126,-21.5721],[149.8125,-21.5769]],[[149.8012,-21.5988],[149.7936,-21.6024],[149.7856,-21.6012],[149.7834,-21.6075],[149.7849,-21.6094],[149.7816,-21.6136],[149.7845,-21.614],[149.7882,-21.6097],[149.7904,-21.6098],[149.7903,-21.615],[149.7927,-21.6173],[149.7979,-21.6149],[149.8036,-21.6087],[149.8067,-21.6084],[149.8091,-21.6116],[149.8193,-21.6072],[149.8197,-21.6058],[149.8153,-21.6053],[149.8093,-21.6008],[149.8097,-21.5978],[149.813,-21.5942],[149.8109,-21.5917],[149.8037,-21.5925],[149.8012,-21.5988]],[[149.8634,-21.6008],[149.8639,-21.6059],[149.8677,-21.6082],[149.8703,-21.6078],[149.871,-21.6033],[149.8669,-21.6035],[149.8634,-21.6008]],[[149.8275,-21.6034],[149.8258,-21.6038],[149.8275,-21.6073],[149.8288,-21.6067],[149.8275,-21.6034]],[[149.8268,-21.6011],[149.8258,-21.6012],[149.826,-21.6029],[149.8268,-21.6011]],[[149.7739,-21.6013],[149.7702,-21.6005],[149.7722,-21.6021],[149.7739,-21.6013]],[[150.2475,-21.6184],[150.2478,-21.6308],[150.2454,-21.636],[150.2475,-21.64],[150.2476,-21.6482],[150.2464,-21.6491],[150.2484,-21.652],[150.2504,-21.6509],[150.2495,-21.6529],[150.2477,-21.6523],[150.2466,-21.6544],[150.2435,-21.6543],[150.2427,-21.6558],[150.2425,-21.6642],[150.2448,-21.6704],[150.243,-21.6733],[150.2433,-21.676],[150.2457,-21.6749],[150.2478,-21.6768],[150.2466,-21.6712],[150.2542,-21.6682],[150.2615,-21.6724],[150.2706,-21.6741],[150.2708,-21.6774],[150.2747,-21.6811],[150.2776,-21.6776],[150.2801,-21.6773],[150.2824,-21.679],[150.2866,-21.6771],[150.2838,-21.6752],[150.2839,-21.6734],[150.2871,-21.6723],[150.2868,-21.6704],[150.2891,-21.6689],[150.2949,-21.6681],[150.2982,-21.6702],[150.3003,-21.6695],[150.3025,-21.665],[150.2946,-21.6539],[150.2914,-21.6535],[150.2898,-21.6476],[150.2917,-21.6457],[150.2907,-21.6438],[150.2884,-21.6428],[150.2851,-21.6445],[150.2783,-21.6417],[150.2718,-21.6446],[150.2637,-21.6412],[150.2532,-21.6303],[150.2475,-21.6184]],[[150.3411,-21.6498],[150.3362,-21.6503],[150.3377,-21.6549],[150.3426,-21.653],[150.3426,-21.6483],[150.3411,-21.6498]],[[150.338,-21.6558],[150.3299,-21.6591],[150.3251,-21.6586],[150.3271,-21.6613],[150.3268,-21.6655],[150.3292,-21.665],[150.3286,-21.6672],[150.3361,-21.6679],[150.3372,-21.6733],[150.3412,-21.6747],[150.3404,-21.6728],[150.3425,-21.6719],[150.34,-21.6714],[150.3397,-21.6686],[150.3428,-21.668],[150.3484,-21.6702],[150.3492,-21.6679],[150.3511,-21.6679],[150.3476,-21.6626],[150.3399,-21.6608],[150.34,-21.6564],[150.338,-21.6558]],[[150.2184,-21.6576],[150.2205,-21.6558],[150.223,-21.6572],[150.2252,-21.6537],[150.2208,-21.652],[150.2208,-21.6536],[150.2167,-21.6565],[150.2184,-21.6576]],[[150.2259,-21.6524],[150.2278,-21.6504],[150.227,-21.6492],[150.2259,-21.6524]],[[150.2295,-21.6522],[150.2301,-21.6526],[150.2304,-21.6516],[150.2295,-21.6522]],[[149.8114,-21.6278],[149.8093,-21.6274],[149.8092,-21.6286],[149.8104,-21.6293],[149.8114,-21.6278]],[[149.8003,-21.6241],[149.7995,-21.6243],[149.7998,-21.6253],[149.8003,-21.6241]],[[149.801,-21.6193],[149.7999,-21.6194],[149.8001,-21.6204],[149.801,-21.6193]],[[149.8342,-21.6621],[149.8381,-21.6609],[149.8396,-21.6636],[149.8424,-21.6628],[149.8434,-21.6608],[149.8415,-21.6604],[149.8385,-21.655],[149.8357,-21.6471],[149.8312,-21.6496],[149.8338,-21.6558],[149.8342,-21.6621]],[[149.7784,-21.6778],[149.78,-21.6772],[149.783,-21.6794],[149.7842,-21.6778],[149.7828,-21.6749],[149.7774,-21.6711],[149.7767,-21.6741],[149.7784,-21.6778]],[[149.6703,-21.7172],[149.6704,-21.7184],[149.6722,-21.7182],[149.6727,-21.7163],[149.6703,-21.7172]],[[149.6659,-21.7186],[149.6638,-21.7193],[149.6656,-21.7216],[149.6653,-21.7245],[149.6681,-21.7269],[149.6696,-21.726],[149.6716,-21.7289],[149.6751,-21.7291],[149.6738,-21.725],[149.6702,-21.7225],[149.6675,-21.7229],[149.6659,-21.7186]],[[150.3608,-21.7214],[150.3579,-21.7235],[150.3573,-21.7292],[150.3477,-21.7334],[150.3394,-21.7417],[150.3307,-21.7437],[150.3137,-21.7393],[150.3096,-21.7423],[150.3021,-21.7418],[150.2994,-21.7456],[150.3067,-21.7487],[150.3114,-21.7581],[150.3224,-21.7657],[150.3227,-21.7644],[150.3255,-21.7648],[150.3266,-21.7665],[150.3249,-21.7685],[150.3281,-21.7705],[150.3329,-21.7721],[150.3407,-21.7699],[150.3407,-21.7683],[150.349,-21.7639],[150.347,-21.7613],[150.3441,-21.7611],[150.3452,-21.7568],[150.3495,-21.7527],[150.3461,-21.743],[150.3482,-21.7426],[150.3498,-21.7396],[150.3543,-21.7387],[150.3535,-21.7368],[150.3634,-21.7279],[150.3625,-21.7254],[150.3603,-21.7251],[150.3642,-21.7225],[150.3642,-21.7197],[150.3616,-21.718],[150.3626,-21.7198],[150.3608,-21.7214]],[[150.428,-21.7555],[150.4285,-21.7565],[150.4297,-21.7556],[150.428,-21.7555]],[[150.427,-21.7559],[150.4249,-21.7566],[150.4268,-21.7572],[150.427,-21.7559]],[[150.429,-21.761],[150.4307,-21.7625],[150.4293,-21.76],[150.429,-21.761]],[[150.4382,-21.7619],[150.4364,-21.7624],[150.4369,-21.7642],[150.4413,-21.7645],[150.4409,-21.7626],[150.4382,-21.7619]],[[150.432,-21.7718],[150.4388,-21.7721],[150.4351,-21.7701],[150.432,-21.7718]],[[150.2893,-21.7472],[150.2887,-21.7478],[150.29,-21.7485],[150.2893,-21.7472]],[[150.3191,-21.734],[150.319,-21.7328],[150.317,-21.7335],[150.3174,-21.7348],[150.3191,-21.734]],[[150.1262,-21.9379],[150.1201,-21.939],[150.1261,-21.9413],[150.1289,-21.9376],[150.1264,-21.936],[150.1262,-21.9379]],[[150.6866,-21.9461],[150.6847,-21.9483],[150.6839,-21.9534],[150.682,-21.9541],[150.6859,-21.957],[150.6855,-21.9595],[150.6783,-21.9617],[150.6774,-21.9657],[150.6802,-21.9641],[150.6905,-21.9673],[150.6918,-21.9642],[150.6894,-21.9614],[150.6894,-21.9575],[150.6912,-21.9573],[150.6913,-21.9535],[150.6983,-21.9547],[150.6965,-21.9511],[150.6927,-21.9517],[150.6898,-21.9495],[150.6902,-21.9471],[150.6866,-21.9461]],[[150.702,-21.9512],[150.7009,-21.9532],[150.7023,-21.9526],[150.702,-21.9512]],[[150.1458,-21.9666],[150.1433,-21.9656],[150.1436,-21.9633],[150.1454,-21.9629],[150.1429,-21.9622],[150.1431,-21.9599],[150.1448,-21.9589],[150.1504,-21.961],[150.1467,-21.9581],[150.1417,-21.9569],[150.1398,-21.9588],[150.1396,-21.9652],[150.1429,-21.9702],[150.1432,-21.9751],[150.1399,-21.9775],[150.1427,-21.9797],[150.1478,-21.9789],[150.144,-21.9721],[150.1458,-21.9666]],[[150.1551,-21.9702],[150.1574,-21.9701],[150.1551,-21.9681],[150.1551,-21.9702]],[[150.179,-21.9697],[150.1766,-21.9705],[150.1762,-21.9738],[150.1714,-21.9723],[150.1687,-21.9755],[150.16,-21.9772],[150.1516,-21.9713],[150.1516,-21.9753],[150.1547,-21.98],[150.1609,-21.9794],[150.1651,-21.9855],[150.1646,-21.9882],[150.1669,-21.9896],[150.1658,-21.9922],[150.1681,-21.994],[150.1671,-21.9954],[150.1692,-21.9967],[150.1699,-22.0001],[150.1679,-22.0047],[150.172,-22.0022],[150.1741,-22.0027],[150.1748,-21.9999],[150.178,-22.0012],[150.1802,-21.9996],[150.1819,-21.9925],[150.1812,-21.9899],[150.1781,-21.9888],[150.1802,-21.9858],[150.1784,-21.982],[150.1856,-21.9803],[150.1864,-21.9777],[150.1818,-21.9741],[150.1836,-21.9724],[150.1817,-21.9701],[150.179,-21.9697]],[[150.3819,-21.9725],[150.3836,-21.9713],[150.3807,-21.9702],[150.3819,-21.9725]],[[150.1942,-21.9785],[150.1956,-21.9775],[150.1946,-21.9774],[150.1942,-21.9785]],[[150.586,-21.9812],[150.5852,-21.9841],[150.587,-21.9842],[150.5879,-21.9815],[150.586,-21.9812]],[[150.1899,-21.982],[150.1888,-21.9818],[150.1885,-21.983],[150.1899,-21.982]],[[150.6674,-21.9893],[150.6682,-21.9914],[150.6719,-21.9926],[150.6682,-21.9883],[150.6674,-21.9893]],[[150.376,-22.0003],[150.3778,-22.0003],[150.3818,-22.0047],[150.385,-22.0035],[150.3815,-21.9998],[150.379,-22.0003],[150.3773,-21.9972],[150.376,-21.9976],[150.376,-22.0003]],[[150.6446,-22.0032],[150.6422,-22.0075],[150.6437,-22.0102],[150.6463,-22.0107],[150.6479,-22.0093],[150.6457,-22.0078],[150.6464,-22.0023],[150.6446,-22.0032]],[[150.3854,-22.0111],[150.3834,-22.0097],[150.3826,-22.0125],[150.384,-22.0156],[150.3873,-22.0163],[150.3882,-22.0138],[150.3854,-22.0111]],[[150.3694,-22.0164],[150.3669,-22.0115],[150.3646,-22.0148],[150.3602,-22.0133],[150.3594,-22.0145],[150.3672,-22.023],[150.3713,-22.0253],[150.3745,-22.0222],[150.3694,-22.0164]],[[150.302,-22.0232],[150.2989,-22.0239],[150.2959,-22.0218],[150.2934,-22.0241],[150.29,-22.0243],[150.2924,-22.0279],[150.2942,-22.0281],[150.298,-22.026],[150.3037,-22.0257],[150.302,-22.0232]],[[150.6478,-22.0278],[150.6495,-22.0286],[150.6495,-22.027],[150.6482,-22.0264],[150.6478,-22.0278]],[[150.165,-22.0135],[150.1642,-22.0106],[150.163,-22.0111],[150.1636,-22.0134],[150.165,-22.0135]],[[150.3754,-22.0098],[150.3796,-22.0083],[150.3794,-22.006],[150.3756,-22.0079],[150.3754,-22.0098]],[[150.1323,-22.0014],[150.136,-22.0013],[150.1399,-21.997],[150.1361,-21.9949],[150.1382,-21.9925],[150.1312,-21.9871],[150.1283,-21.9865],[150.1277,-21.9913],[150.1241,-21.9951],[150.1254,-22.0006],[150.1299,-22.0027],[150.1323,-22.0014]],[[150.1429,-21.9929],[150.1441,-21.9928],[150.1425,-21.9921],[150.1429,-21.9929]],[[150.1438,-21.9967],[150.1448,-21.9968],[150.1446,-21.9955],[150.1438,-21.9967]],[[150.155,-21.9828],[150.1536,-21.9832],[150.1541,-21.9845],[150.155,-21.9828]],[[150.1434,-21.9822],[150.1426,-21.9816],[150.1422,-21.9827],[150.1434,-21.9822]],[[150.1341,-21.9537],[150.1326,-21.9543],[150.134,-21.9562],[150.1341,-21.9537]],[[150.1262,-21.9509],[150.1276,-21.9505],[150.1274,-21.9489],[150.1262,-21.9509]],[[150.1202,-21.9489],[150.1205,-21.9479],[150.1182,-21.9467],[150.1202,-21.9489]],[[150.6494,-22.0314],[150.6504,-22.0311],[150.6494,-22.0305],[150.6494,-22.0314]],[[150.4517,-22.0323],[150.4506,-22.0317],[150.4491,-22.0335],[150.4484,-22.0393],[150.4495,-22.0401],[150.4529,-22.037],[150.4517,-22.0323]],[[149.9757,-22.0349],[149.9745,-22.0339],[149.9694,-22.0366],[149.9723,-22.038],[149.9757,-22.0349]],[[150.0981,-22.0471],[150.0987,-22.0465],[150.0982,-22.0454],[150.0981,-22.0471]],[[149.9893,-22.0525],[149.9871,-22.0559],[149.9893,-22.0591],[149.9917,-22.0552],[149.9893,-22.0525]],[[150.6718,-22.0888],[150.6695,-22.0933],[150.6708,-22.0947],[150.674,-22.0945],[150.6744,-22.0913],[150.677,-22.0903],[150.6763,-22.0882],[150.6726,-22.0834],[150.6692,-22.0825],[150.6718,-22.0888]],[[150.0081,-22.1033],[150.0056,-22.1061],[150.003,-22.105],[150.0019,-22.1061],[150.0018,-22.1109],[150.0051,-22.1163],[150.0008,-22.1225],[149.9969,-22.1194],[149.9959,-22.1155],[149.9922,-22.1132],[149.9883,-22.1174],[149.9816,-22.1165],[149.9744,-22.121],[149.9744,-22.1235],[149.9716,-22.1267],[149.9712,-22.1338],[149.9633,-22.1354],[149.9619,-22.1328],[149.9547,-22.1329],[149.9498,-22.1351],[149.947,-22.1402],[149.9368,-22.146],[149.9335,-22.1521],[149.9403,-22.1616],[149.9451,-22.1608],[149.9406,-22.1627],[149.9451,-22.1719],[149.9511,-22.169],[149.9507,-22.1669],[149.9529,-22.1681],[149.9767,-22.1588],[149.9853,-22.1442],[149.9989,-22.1361],[150.0036,-22.1357],[150.0096,-22.1279],[150.0128,-22.129],[150.0212,-22.127],[150.0236,-22.1231],[150.0227,-22.12],[150.0116,-22.1158],[150.0137,-22.1101],[150.0239,-22.1127],[150.0338,-22.1102],[150.0351,-22.1113],[150.0343,-22.1147],[150.0399,-22.1133],[150.0411,-22.1115],[150.0379,-22.1067],[150.0319,-22.1075],[150.0289,-22.1104],[150.0249,-22.1111],[150.0209,-22.1074],[150.0156,-22.1079],[150.0113,-22.1009],[150.0081,-22.1033]],[[149.9365,-22.1639],[149.9311,-22.1557],[149.9297,-22.1587],[149.9316,-22.1653],[149.9358,-22.1667],[149.9365,-22.1639]],[[149.9427,-22.1342],[149.9392,-22.1355],[149.9364,-22.1395],[149.9369,-22.1413],[149.9432,-22.1382],[149.9427,-22.1342]],[[149.9225,-22.1828],[149.9222,-22.1878],[149.9186,-22.1959],[149.9198,-22.198],[149.9321,-22.1892],[149.9307,-22.18],[149.9263,-22.1743],[149.9225,-22.1828]],[[149.9211,-22.1833],[149.9129,-22.1871],[149.91,-22.1832],[149.9103,-22.175],[149.9048,-22.1755],[149.9027,-22.1729],[149.8974,-22.1744],[149.8863,-22.1856],[149.8844,-22.195],[149.8797,-22.2033],[149.88,-22.2056],[149.8721,-22.2124],[149.872,-22.2156],[149.8666,-22.2209],[149.867,-22.2235],[149.8728,-22.2273],[149.8832,-22.2299],[149.89,-22.2348],[149.8957,-22.2355],[149.9011,-22.2336],[149.9113,-22.2212],[149.9157,-22.2055],[149.9188,-22.2015],[149.9168,-22.2005],[149.9212,-22.1876],[149.9211,-22.1833]],[[149.9332,-22.2062],[149.9345,-22.2059],[149.934,-22.2013],[149.9323,-22.2022],[149.9332,-22.2062]],[[149.9386,-22.2245],[149.9407,-22.2218],[149.9412,-22.212],[149.937,-22.2183],[149.9386,-22.2245]],[[149.9092,-22.2301],[149.8967,-22.2493],[149.8985,-22.261],[149.9019,-22.2585],[149.9041,-22.2594],[149.9084,-22.2582],[149.9129,-22.2522],[149.9138,-22.2429],[149.9165,-22.2362],[149.9138,-22.2283],[149.9123,-22.2275],[149.9092,-22.2301]],[[149.9292,-22.2588],[149.9288,-22.2604],[149.9303,-22.2611],[149.9313,-22.2574],[149.9296,-22.257],[149.9292,-22.2588]],[[149.8947,-22.2617],[149.8944,-22.2544],[149.8912,-22.2548],[149.8929,-22.2577],[149.8925,-22.2627],[149.8947,-22.2617]],[[149.8916,-22.2567],[149.8902,-22.2552],[149.8778,-22.2546],[149.8853,-22.264],[149.8923,-22.2621],[149.8916,-22.2567]],[[149.8904,-22.2639],[149.8867,-22.2662],[149.8902,-22.2694],[149.893,-22.2649],[149.8904,-22.2639]],[[149.8854,-22.2541],[149.893,-22.2528],[149.8937,-22.2485],[149.8856,-22.2362],[149.8782,-22.2351],[149.8764,-22.238],[149.877,-22.2486],[149.8804,-22.2523],[149.8854,-22.2541]],[[149.8995,-22.236],[149.8903,-22.2375],[149.8936,-22.2442],[149.8988,-22.2414],[149.9013,-22.2365],[149.8995,-22.236]],[[149.8915,-22.2368],[149.8892,-22.2363],[149.8901,-22.2369],[149.8915,-22.2368]],[[149.9024,-22.2341],[149.9016,-22.2349],[149.902,-22.2354],[149.9024,-22.2341]],[[149.8737,-22.2305],[149.8694,-22.231],[149.874,-22.2323],[149.8758,-22.2315],[149.8737,-22.2305]],[[149.8778,-22.2041],[149.8726,-22.2038],[149.8754,-22.2088],[149.8778,-22.2041]],[[150.0269,-22.1461],[150.0283,-22.1462],[150.0289,-22.1456],[150.0269,-22.1461]],[[150.3589,-22.1903],[150.3598,-22.1886],[150.3581,-22.1865],[150.3589,-22.1903]],[[150.3629,-22.1919],[150.3641,-22.1917],[150.3638,-22.191],[150.3629,-22.1919]],[[150.3581,-22.1943],[150.3621,-22.1949],[150.3591,-22.1933],[150.3581,-22.1943]],[[150.4387,-22.2038],[150.4363,-22.2048],[150.4394,-22.2053],[150.4387,-22.2038]],[[150.3734,-22.2065],[150.3732,-22.2049],[150.3726,-22.2063],[150.3745,-22.2073],[150.3734,-22.2065]],[[150.4723,-22.2072],[150.473,-22.2059],[150.4725,-22.206],[150.4723,-22.2072]],[[150.4381,-22.2144],[150.4379,-22.2153],[150.4392,-22.2149],[150.4381,-22.2144]],[[150.4138,-22.2147],[150.4127,-22.2152],[150.4133,-22.2157],[150.4138,-22.2147]],[[150.3708,-22.2154],[150.3697,-22.2158],[150.3715,-22.2165],[150.3708,-22.2154]],[[150.4209,-22.2198],[150.4221,-22.2207],[150.422,-22.2194],[150.4209,-22.2198]],[[150.4158,-22.2205],[150.4144,-22.2212],[150.4153,-22.2216],[150.4158,-22.2205]],[[150.2677,-22.2258],[150.2611,-22.2272],[150.2621,-22.2287],[150.2713,-22.2317],[150.2754,-22.2292],[150.2724,-22.2262],[150.2677,-22.2258]],[[150.3308,-22.2277],[150.3328,-22.2281],[150.3327,-22.2253],[150.3308,-22.2277]],[[150.3338,-22.2272],[150.3349,-22.2273],[150.3334,-22.2257],[150.3338,-22.2272]],[[150.3345,-22.2306],[150.3354,-22.2308],[150.3347,-22.2291],[150.3345,-22.2306]],[[150.2875,-22.2309],[150.2866,-22.2316],[150.2875,-22.2316],[150.2875,-22.2309]],[[150.314,-22.2331],[150.31,-22.2365],[150.2971,-22.2389],[150.2981,-22.2443],[150.3035,-22.2483],[150.3079,-22.2459],[150.321,-22.2447],[150.3238,-22.2351],[150.314,-22.2331]],[[150.29,-22.2366],[150.2885,-22.2358],[150.2889,-22.2367],[150.29,-22.2366]],[[150.2283,-22.2868],[150.231,-22.287],[150.2287,-22.2846],[150.2283,-22.2868]]]},"properties":{"id":"gbrmpa-zone-755","type":"Habitat Protection Zone","zone":"Dark Blue Zone","color":"#3f6fb0","name":"HP-21-5258","permit":"Northumberland Island Reefs","source":"GBRMPA"}},{"type":"Feature","geometry":{"type":"Polygon","coordinates":[[[151.8807,-21.1286],[151.8807,-21.2803],[151.7501,-21.3599],[151.7002,-21.3599],[151.6201,-21.2904],[151.6201,-21.1286],[151.8807,-21.1286]],[[151.8465,-21.2383],[151.8478,-21.2392],[151.8485,-21.2372],[151.8472,-21.2367],[151.8465,-21.2383]]]},"properties":{"id":"gbrmpa-zone-131","type":"Marine National Park Zone","zone":"Green Zone","color":"#2fae5a","name":"MNP-21-1140","permit":"Central Swains: adjacent to T-Line, including Riptide Cay Reef (21-172)","source":"GBRMPA"}},{"type":"Feature","geometry":{"type":"Polygon","coordinates":[[[150.2667,-21.0733],[150.2467,-21.0733],[150.2467,-21.06],[150.2534,-21.0533],[150.2667,-21.0533],[150.2667,-21.0733]]]},"properties":{"id":"gbrmpa-zone-137","type":"Habitat Protection Zone","zone":"Dark Blue Zone","color":"#3f6fb0","name":"HP-21-5234","permit":"Prince Reef (21-054)","source":"GBRMPA"}}]}