{"type":"FeatureCollection","meta":{"region":"QLD","tile":"t-24e148","built":"2026-08-25","sources":["OpenStreetMap (ODbL)","GBRMPA (CC BY)"]},"features":[{"type":"Feature","geometry":{"type":"Point","coordinates":[149.73045,-22.21577]},"properties":{"id":"osm-node3020491452","name":"Broad Sound","kind":"anchorage","source":"OpenStreetMap","sourceRef":"node/3020491452","likelyAnchorage":false,"noAnchoring":false,"noAnchoringName":null,"notes":null,"fetchLandNM":[15,15,14.1,12.5,15,10.3,8.5,8.1,8.3,8.4,8.6,11.1,11.9,13.8,15,15,11.5,9.2,8,9.2,8.8,8.3,7.9,8,8.1,7.7,8.7,9.1,9.9,10.3,9.2,15,15,15,15,15],"fetchReefNM":[15,15,14.1,12.5,15,10.3,8.5,8.1,8.3,8.4,8.6,11.1,11.9,13.8,15,15,11.5,9.2,8,9.2,8.8,8.3,7.9,8,8.1,7.7,8.7,9.1,9.9,10.3,9.2,15,15,15,15,15]}},{"type":"Feature","geometry":{"type":"Point","coordinates":[149.80951,-22.37747]},"properties":{"id":"osm-node3333085108","name":"Broad Sound","kind":"anchorage","source":"OpenStreetMap","sourceRef":"node/3333085108","likelyAnchorage":false,"noAnchoring":false,"noAnchoringName":null,"notes":null,"fetchLandNM":[15,14,11.7,9.2,10.9,7.7,6.8,7.4,6.2,6.5,7.3,8.5,10.4,13.2,2.3,0.7,0.4,0.4,0.4,0.4,0.4,4.2,7.3,4.7,4,3.6,3.5,3,2.4,3.7,2.1,15,15,15,15,15],"fetchReefNM":[15,14,11.7,9.2,10.9,7.7,6.8,7.4,6.2,6.5,7.3,8.5,10.4,13.2,2.3,0.7,0.4,0.4,0.4,0.4,0.4,4.2,7.3,4.7,4,3.6,3.5,3,2.4,3.7,2.1,15,15,15,15,15]}},{"type":"Feature","geometry":{"type":"Point","coordinates":[149.53335,-22.08152]},"properties":{"id":"osm-node3361605895","name":"Great Barrier Reef Coast Marine Park - West Channel","kind":"anchorage","source":"OpenStreetMap","sourceRef":"node/3361605895","likelyAnchorage":false,"noAnchoring":false,"noAnchoringName":null,"notes":null,"fetchLandNM":[15,15,6.2,15,15,9.4,15,4.8,15,15,15,15,15,15,15,15,14.1,3.3,2,1.5,1.3,1.1,1,0.9,0.8,0.8,0.8,0.9,0.9,1,1.1,1.2,1.5,1.9,2.5,14.8],"fetchReefNM":[15,15,6.2,15,15,9.4,15,4.8,15,15,15,15,15,15,15,15,14.1,3.3,2,1.5,1.3,1.1,1,0.9,0.8,0.8,0.8,0.9,0.9,1,1.1,1.2,1.5,1.9,2.5,14.8]}},{"type":"Feature","geometry":{"type":"Point","coordinates":[149.72837,-22.29327]},"properties":{"id":"osm-node3020493560","name":"Port of St Lawrence","kind":"anchorage","source":"OpenStreetMap","sourceRef":"node/3020493560","likelyAnchorage":true,"noAnchoring":false,"noAnchoringName":null,"notes":null,"fetchLandNM":[15,15,15,15,11.6,10.3,10.3,9,9,10.4,12.6,11.3,14,15,7.1,7.7,4.6,3.7,3.4,3.7,4.5,4.1,5.2,5.2,4.7,5,5.4,8.1,7.1,8.6,10.6,12.5,12,15,15,15],"fetchReefNM":[15,15,15,15,11.6,10.3,10.3,9,9,10.4,12.6,11.3,14,15,7.1,7.7,4.6,3.7,3.4,3.7,4.5,4.1,5.2,5.2,4.7,5,5.4,8.1,7.1,8.6,10.6,12.5,12,15,15,15]}},{"type":"Feature","geometry":{"type":"Point","coordinates":[149.95433,-22.11359]},"properties":{"id":"osm-node3020493624","name":"Sand Bank Bay","kind":"anchorage","source":"OpenStreetMap","sourceRef":"node/3020493624","likelyAnchorage":true,"noAnchoring":false,"noAnchoringName":null,"notes":null,"fetchLandNM":[15,4.7,15,3.8,14.2,13.5,13.8,15,2.7,2.1,1.4,1.2,1.2,1.3,1.5,1.5,1,1.2,1.2,1.5,1.9,1.5,2.7,1.8,2,2,2.1,2.1,2.2,2.6,3,3.6,4,8.2,15,15],"fetchReefNM":[15,4.7,15,3.8,14.2,13.5,13.8,15,2.7,2.1,1.4,1.2,1.2,1.3,1.5,1.5,1,1.2,1.2,1.5,1.9,1.5,2.7,1.8,2,2,2.1,2.1,2.2,2.6,3,3.6,4,8.2,15,15]}}]}