{"type":"FeatureCollection","meta":{"region":"QLD","tile":"t-24e150","built":"2026-08-25","sources":["OpenStreetMap (ODbL)","GBRMPA (CC BY)"]},"features":[{"type":"Feature","geometry":{"type":"Point","coordinates":[150.75832,-23.13831]},"properties":{"id":"osm-node13481950755","name":"Brumm's Cove","kind":"anchorage","source":"OpenStreetMap","sourceRef":"node/13481950755","likelyAnchorage":true,"noAnchoring":false,"noAnchoringName":null,"notes":null,"fetchLandNM":[2.9,12.5,15,15,15,15,8.1,8.3,15,15,8.8,12.5,15,0,0,0,0,0,0,0,0,0,0,0,0,0,0,0,0,0.4,0.5,0.6,0.7,0.9,1.3,1.9],"fetchReefNM":[2.9,12.5,15,15,15,15,8.1,7.3,15,15,8.8,12.5,15,0,0,0,0,0,0,0,0,0,0,0,0,0,0,0,0,0.4,0.5,0.6,0.7,0.9,1.3,1.9]}},{"type":"Feature","geometry":{"type":"Point","coordinates":[150.96404,-23.15521]},"properties":{"id":"osm-node7394162181","name":"Butterfish Bay","kind":"anchorage","source":"OpenStreetMap","sourceRef":"node/7394162181","likelyAnchorage":true,"noAnchoring":false,"noAnchoringName":null,"notes":null,"fetchLandNM":[15,15,15,15,15,15,0.7,0.2,0.2,0.1,0.2,0.2,0.2,0.2,0.1,0.1,0.1,0.1,0.1,0.1,0.1,0.1,0.1,0.1,0.2,0.2,0.3,3.2,12,12,12.2,13.6,5,15,15,15],"fetchReefNM":[15,15,15,15,15,15,0.7,0.2,0.2,0.1,0.2,0.2,0.2,0.2,0.1,0.1,0.1,0.1,0.1,0.1,0.1,0.1,0.1,0.1,0.2,0.2,0.3,3.2,12,12,12.2,5.6,5,15,15,15]}},{"type":"Feature","geometry":{"type":"Point","coordinates":[151.23193,-23.48491]},"properties":{"id":"osm-node2101613505","name":"Cape Capricorn","kind":"anchorage","source":"OpenStreetMap","sourceRef":"node/2101613505","likelyAnchorage":true,"noAnchoring":false,"noAnchoringName":null,"notes":null,"fetchLandNM":[15,15,15,0.1,0.1,0.1,0.1,0.1,0.1,0.1,0.1,0.1,0.1,0.1,0.1,0.1,0.1,0.1,0.1,0.1,0.1,0.1,0.1,3.8,4.4,5.1,6.3,7.7,9,15,15,15,6.4,5.2,15,15],"fetchReefNM":[15,15,15,0.1,0.1,0.1,0.1,0.1,0.1,0.1,0.1,0.1,0.1,0.1,0.1,0.1,0.1,0.1,0.1,0.1,0.1,0.1,0.1,3.8,4.4,5.1,6.3,7.7,9,15,15,15,6.4,5.2,15,15]}},{"type":"Feature","geometry":{"type":"Point","coordinates":[150.97663,-23.18692]},"properties":{"id":"osm-node292205797","name":"Clam Bay","kind":"anchorage","source":"OpenStreetMap","sourceRef":"node/292205797","likelyAnchorage":true,"noAnchoring":false,"noAnchoringName":null,"notes":null,"fetchLandNM":[0.2,0.2,0.2,0.2,0.2,0.3,0.3,0.3,0.3,0.4,0.4,0.5,15,15,15,15,15,15,15,1.3,0.7,15,7.3,13.2,6.5,8.7,0.8,0.6,0.5,0.3,0.3,0.3,0.2,0.2,0.2,0.2],"fetchReefNM":[0.2,0.2,0.2,0.2,0.2,0.3,0.3,0.3,0.3,0.4,0.4,0.5,15,15,15,15,15,15,15,1.3,0.7,15,7.3,13.2,6.5,8.7,0.8,0.6,0.5,0.3,0.3,0.3,0.2,0.2,0.2,0.2]}},{"type":"Feature","geometry":{"type":"Point","coordinates":[150.89108,-23.06405]},"properties":{"id":"osm-node3020491531","name":"Considine Bay","kind":"anchorage","source":"OpenStreetMap","sourceRef":"node/3020491531","likelyAnchorage":true,"noAnchoring":false,"noAnchoringName":null,"notes":null,"fetchLandNM":[0.1,0.1,0.1,0.1,0.1,0.1,0,0,0,0,0,0,0,0,0,0,0,0,0.1,0.1,0.1,0.3,0.4,8.8,8.8,8.2,7.3,6.7,6.6,6.9,7.4,8.2,11.2,1.1,0.9,0.8],"fetchReefNM":[0.1,0.1,0.1,0.1,0.1,0.1,0,0,0,0,0,0,0,0,0,0,0,0,0.1,0.1,0.1,0.3,0.4,8.8,8.8,8.2,7.3,6.7,6.6,6.9,7.4,8.2,11.2,1.1,0.9,0.8]}},{"type":"Feature","geometry":{"type":"Point","coordinates":[150.76075,-23.14154]},"properties":{"id":"osm-node13481950756","name":"Cooee Bay","kind":"anchorage","source":"OpenStreetMap","sourceRef":"node/13481950756","likelyAnchorage":true,"noAnchoring":false,"noAnchoringName":null,"notes":null,"fetchLandNM":[3.4,15,15,15,15,15,8,7.3,15,15,8.8,0.1,0.1,0.1,0.1,0.1,0.1,0.1,0.1,0.1,0.1,0.1,0.1,0.1,0.1,0.1,0.1,0.1,0.1,0.1,0.1,0.1,0.1,1.2,1.6,2.5],"fetchReefNM":[3.4,15,15,15,15,15,8,7.2,15,15,8.8,0.1,0.1,0.1,0.1,0.1,0.1,0.1,0.1,0.1,0.1,0.1,0.1,0.1,0.1,0.1,0.1,0.1,0.1,0.1,0.1,0.1,0.1,1.2,1.6,2.5]}},{"type":"Feature","geometry":{"type":"Point","coordinates":[150.76603,-22.93586]},"properties":{"id":"osm-node3020491735","name":"Corio Bay","kind":"anchorage","source":"OpenStreetMap","sourceRef":"node/3020491735","likelyAnchorage":true,"noAnchoring":false,"noAnchoringName":null,"notes":null,"fetchLandNM":[0.9,1,1.1,1.2,1.2,1.3,1.3,1.2,1.1,1.1,1.2,15,15,15,10.4,14.9,0.5,0.5,0.5,0.6,0.7,0.9,0.9,1.6,1.2,1.1,1.1,1.3,1.6,1.8,1.3,1.1,1.2,0.9,0.9,0.9],"fetchReefNM":[0.9,1,1.1,1.2,1.2,1.3,1.3,1.2,1.1,1.1,1.2,15,15,15,10.4,14.9,0.5,0.5,0.5,0.6,0.7,0.9,0.9,1.6,1.2,1.1,1.1,1.3,1.6,1.8,1.3,1.1,1.2,0.9,0.9,0.9]}},{"type":"Feature","geometry":{"type":"Point","coordinates":[150.75422,-23.13767]},"properties":{"id":"osm-node13481950754","name":"Fisherman's Bay","kind":"anchorage","source":"OpenStreetMap","sourceRef":"node/13481950754","likelyAnchorage":true,"noAnchoring":false,"noAnchoringName":null,"notes":null,"fetchLandNM":[2.3,4,15,15,15,15,8.7,9,15,15,0.2,0.2,0.1,0.1,0.1,0.1,0.1,0.1,0.1,0.1,0.1,0.1,0.1,0.1,0.1,0.1,0.1,0.1,0.1,0.1,0.1,0.2,0.3,0.5,0.7,1.2],"fetchReefNM":[2.3,4,15,15,15,15,8.7,7.6,15,15,0.2,0.2,0.1,0.1,0.1,0.1,0.1,0.1,0.1,0.1,0.1,0.1,0.1,0.1,0.1,0.1,0.1,0.1,0.1,0.1,0.1,0.2,0.3,0.5,0.7,1.2]}},{"type":"Feature","geometry":{"type":"Point","coordinates":[150.78778,-22.64631]},"properties":{"id":"osm-node3020492170","name":"Freshwater Bay","kind":"anchorage","source":"OpenStreetMap","sourceRef":"node/3020492170","likelyAnchorage":true,"noAnchoring":false,"noAnchoringName":null,"notes":null,"fetchLandNM":[5.5,15,15,15,15,15,15,0.3,0.3,0.3,0.3,0.3,0.3,0.3,0.3,0.3,0.2,0.2,0.2,0.2,0.2,0.2,0.2,0.2,0.2,0.3,0.3,0.3,0.4,0.4,0.5,0.7,0.9,1.2,2,3.2],"fetchReefNM":[5.5,15,15,15,15,15,15,0.3,0.3,0.3,0.3,0.3,0.3,0.3,0.3,0.3,0.2,0.2,0.2,0.2,0.2,0.2,0.2,0.2,0.2,0.3,0.3,0.3,0.4,0.4,0.5,0.7,0.9,1.2,2,3.2]}},{"type":"Feature","geometry":{"type":"Point","coordinates":[150.96377,-23.17748]},"properties":{"id":"gbrmpa-80030","name":"Great Keppel Island","kind":"designated_anchorage","source":"GBRMPA","sourceRef":"80030","likelyAnchorage":true,"noAnchoring":false,"noAnchoringName":null,"notes":"The area enclosed between the coastal line and the coastal 1 kilometre line of Great Keppel Island (23‑012b) · Management area: Mackay/Capricorn management area · Great Barrier Reef Marine Park Regulations 2019","fetchLandNM":[1.2,1.4,1.6,0.9,0.8,0.8,0.7,0.7,0.8,1.2,1.4,1.3,0.7,0.6,0.6,0.6,0.6,0.6,0.6,0.8,0.9,0.8,0.9,1.6,1.6,1.7,1.5,1.6,1.5,0.9,0.8,0.7,0.8,0.9,0.9,1.2],"fetchReefNM":[1.2,1.4,1.6,0.9,0.8,0.8,0.7,0.7,0.8,1.2,1.4,1.3,0.7,0.6,0.6,0.6,0.6,0.6,0.6,0.8,0.9,0.8,0.9,1.6,1.6,1.7,1.5,1.6,1.5,0.9,0.8,0.7,0.8,0.9,0.9,1.2]}},{"type":"Feature","geometry":{"type":"Point","coordinates":[150.65579,-22.39626]},"properties":{"id":"osm-node13255230574","name":"Island Head Creek","kind":"anchorage","source":"OpenStreetMap","sourceRef":"node/13255230574","likelyAnchorage":true,"noAnchoring":false,"noAnchoringName":null,"notes":null,"fetchLandNM":[1,0.9,0.8,0.7,0.7,0.7,0.7,0.7,0.7,0.7,0.8,0.8,0.8,0.7,0.7,1,1.2,1.7,0.7,0.5,0.5,0.4,0.4,0.4,0.4,0.4,0.4,0.4,0.5,0.6,1.5,1.3,1.2,2.7,2.4,1.6],"fetchReefNM":[1,0.9,0.8,0.7,0.7,0.7,0.7,0.7,0.7,0.7,0.8,0.8,0.8,0.7,0.7,1,1.2,1.7,0.7,0.5,0.5,0.4,0.4,0.4,0.4,0.4,0.4,0.4,0.5,0.6,1.5,1.3,1.2,2.7,2.4,1.6]}},{"type":"Feature","geometry":{"type":"Point","coordinates":[150.88852,-23.39189]},"properties":{"id":"osm-node3020492502","name":"Keppel Bay","kind":"anchorage","source":"OpenStreetMap","sourceRef":"node/3020492502","likelyAnchorage":true,"noAnchoring":false,"noAnchoringName":null,"notes":null,"fetchLandNM":[6.7,15,5.6,15,3.8,15,15,15,15,15,15,9.7,8.2,8,7.6,11.9,10,9.9,10.9,6.2,4.8,4.5,4.3,4.2,4.2,4.3,4.4,4.7,5,5.8,6.2,7.9,7.4,7.7,9.9,15],"fetchReefNM":[6.7,15,5.6,15,3.8,15,15,15,15,15,15,9.7,8.2,8,7.6,11.9,10,9.9,10.9,6.2,4.8,4.5,4.3,4.2,4.2,4.3,4.4,4.7,5,5.8,6.2,7.9,7.4,7.7,9.9,15]}},{"type":"Feature","geometry":{"type":"Point","coordinates":[150.79483,-22.93927]},"properties":{"id":"osm-node3020492939","name":"Little Corio Bay","kind":"anchorage","source":"OpenStreetMap","sourceRef":"node/3020492939","likelyAnchorage":true,"noAnchoring":false,"noAnchoringName":null,"notes":null,"fetchLandNM":[0.2,0.2,0.2,0.4,15,15,15,15,15,15,15,15,15,15,15,15,15,15,14.4,0.3,0.2,0.2,0.2,0.2,0.1,0.1,0.1,0.1,0.1,0.1,0.1,0.1,0.2,0.2,0.2,0.2],"fetchReefNM":[0.2,0.2,0.2,0.4,15,15,15,15,15,15,15,15,15,15,15,15,15,15,14.4,0.3,0.2,0.2,0.2,0.2,0.1,0.1,0.1,0.1,0.1,0.1,0.1,0.1,0.2,0.2,0.2,0.2]}},{"type":"Feature","geometry":{"type":"Point","coordinates":[150.80727,-22.66515]},"properties":{"id":"osm-node7644248794","name":"One Mile Beach","kind":"anchorage","source":"OpenStreetMap","sourceRef":"node/7644248794","likelyAnchorage":true,"noAnchoring":false,"noAnchoringName":null,"notes":null,"fetchLandNM":[15,15,15,15,15,15,15,15,15,15,15,10.8,2.3,1.6,1.2,0.9,0.9,0.6,0.5,0.4,0.4,0.3,0.3,0.2,0.2,0.2,0.2,0.2,0.2,0.2,0.2,0.3,0.3,0.4,0.5,0.8],"fetchReefNM":[15,15,15,15,15,15,15,15,15,15,15,10.8,2.3,1.6,1.2,0.9,0.9,0.6,0.5,0.4,0.4,0.3,0.3,0.2,0.2,0.2,0.2,0.2,0.2,0.2,0.2,0.3,0.3,0.4,0.5,0.8]}},{"type":"Feature","geometry":{"type":"Point","coordinates":[150.70294,-22.41914]},"properties":{"id":"osm-node3020493286","name":"Pearl Bay","kind":"anchorage","source":"OpenStreetMap","sourceRef":"node/3020493286","likelyAnchorage":true,"noAnchoring":false,"noAnchoringName":null,"notes":null,"fetchLandNM":[15,15,15,15,15,15,15,2.3,2.5,15,15,15,2.1,2.5,2.1,1.7,1.4,1.2,1.2,1,0.9,0.9,0.8,0.8,0.7,0.7,0.7,0.7,0.8,0.9,1,1.1,1.5,2,2.7,15],"fetchReefNM":[15,15,15,15,15,15,15,2.3,2.5,15,15,15,2.1,2.5,2.1,1.7,1.4,1.2,1.2,1,0.9,0.9,0.8,0.8,0.7,0.7,0.7,0.7,0.8,0.9,1,1.1,1.5,2,2.7,15]}},{"type":"Feature","geometry":{"type":"Point","coordinates":[150.74872,-22.56021]},"properties":{"id":"osm-node2101613498","name":"Port Clinton","kind":"anchorage","source":"OpenStreetMap","sourceRef":"node/2101613498","likelyAnchorage":true,"noAnchoring":false,"noAnchoringName":null,"notes":null,"fetchLandNM":[5,1.8,1.3,1.1,1.2,1.3,0.9,0.8,0.7,0.7,0.7,0.7,0.7,0.8,0.9,0.8,1.2,1,1.2,1.7,3.4,3.1,2.3,1.6,1.5,1.4,1.3,1.4,2.1,3.8,5.2,5.4,3.8,3.1,3.5,4.8],"fetchReefNM":[5,1.8,1.3,1.1,1.2,1.3,0.9,0.8,0.7,0.7,0.7,0.7,0.7,0.8,0.9,0.8,1.2,1,1.2,1.7,3.4,3.1,2.3,1.6,1.5,1.4,1.3,1.4,2.1,3.8,5.2,5.4,3.8,3.1,3.5,4.8]}},{"type":"Feature","geometry":{"type":"Point","coordinates":[150.7534,-22.4979]},"properties":{"id":"osm-node3020493317","name":"Port Clinton","kind":"anchorage","source":"OpenStreetMap","sourceRef":"node/3020493317","likelyAnchorage":true,"noAnchoring":false,"noAnchoringName":null,"notes":null,"fetchLandNM":[1.4,1.2,15,15,1.7,1.5,15,15,15,15,15,15,15,14.8,1.5,1.7,1.9,1.6,1.9,7.2,4.5,4,4.3,5,1.7,1.6,1.5,1.5,1.4,1.4,1.5,1.5,1.5,1.6,1.6,1.4],"fetchReefNM":[1.4,1.2,15,15,1.7,1.5,15,15,15,15,15,15,15,14.8,1.5,1.7,1.9,1.6,1.9,7.2,4.5,4,4.3,5,1.7,1.6,1.5,1.5,1.4,1.4,1.5,1.5,1.5,1.6,1.6,1.4]}},{"type":"Feature","geometry":{"type":"Point","coordinates":[150.74261,-22.49121]},"properties":{"id":"osm-node13255230584","name":"Port Clinton","kind":"anchorage","source":"OpenStreetMap","sourceRef":"node/13255230584","likelyAnchorage":true,"noAnchoring":false,"noAnchoringName":null,"notes":null,"fetchLandNM":[1.1,1,0.9,1.2,1.1,15,15,1.9,15,15,15,15,15,15,2.9,2.5,2.1,4.9,6,5.3,4.1,4.3,1.3,1.1,1,0.9,0.8,0.8,0.8,0.7,0.7,0.8,0.8,0.8,0.9,1],"fetchReefNM":[1.1,1,0.9,1.2,1.1,15,15,1.9,15,15,15,15,15,15,2.9,2.5,2.1,4.9,6,5.3,4.1,4.3,1.3,1.1,1,0.9,0.8,0.8,0.8,0.7,0.7,0.8,0.8,0.8,0.9,1]}},{"type":"Feature","geometry":{"type":"Point","coordinates":[151.35421,-23.89066]},"properties":{"id":"osm-node3020493319","name":"Port Curtis","kind":"anchorage","source":"OpenStreetMap","sourceRef":"node/3020493319","likelyAnchorage":true,"noAnchoring":false,"noAnchoringName":null,"notes":null,"fetchLandNM":[4.3,3,1.8,1.3,1.2,1.3,1.2,15,15,15,15,15,15,12.6,8.2,5.1,3.6,2.8,2.6,1.9,1.7,1.6,1.5,1.4,1.3,1.3,1.3,1.4,1.5,1.7,1.9,2.9,5.8,7.4,8.7,3.9],"fetchReefNM":[4.3,3,1.8,1.3,1.2,1.3,1.2,15,15,15,15,15,15,12.6,8.2,5.1,3.6,2.8,2.6,1.9,1.7,1.6,1.5,1.4,1.3,1.3,1.3,1.4,1.5,1.7,1.9,2.9,5.8,7.4,8.7,3.9]}},{"type":"Feature","geometry":{"type":"Point","coordinates":[151.55056,-23.98504]},"properties":{"id":"osm-node3020493607","name":"Rodds Bay","kind":"anchorage","source":"OpenStreetMap","sourceRef":"node/3020493607","likelyAnchorage":true,"noAnchoring":false,"noAnchoringName":null,"notes":null,"fetchLandNM":[15,15,15,15,15,15,15,15,15,3.2,3.1,3.1,4.6,9.1,4.8,4.7,3.3,4,7.6,2.6,2.6,2.7,2.8,3,3.2,3.6,4.3,6.9,8.9,12.2,15,11.2,15,15,15,15],"fetchReefNM":[15,15,15,15,15,15,15,15,15,3.2,3.1,3.1,4.6,9.1,4.8,4.7,3.3,4,7.6,2.6,2.6,2.7,2.8,3,3.2,3.6,4.3,6.9,8.9,12.2,15,11.2,15,15,15,15]}},{"type":"Feature","geometry":{"type":"Point","coordinates":[150.78822,-23.16154]},"properties":{"id":"osm-node3020493614","name":"Rosslyn Bay","kind":"anchorage","source":"OpenStreetMap","sourceRef":"node/3020493614","likelyAnchorage":true,"noAnchoring":false,"noAnchoringName":null,"notes":null,"fetchLandNM":[0.1,0.2,0.1,0.1,0.1,0.1,0.1,0.1,0.1,0.1,0.1,0.1,0.1,0.1,0.1,0.1,0.1,0.2,0.2,0.1,0.1,0.1,0.1,0.2,0.2,0.2,0.2,0.2,0.2,0.2,0.2,0.2,0.2,0.1,0.1,0.1],"fetchReefNM":[0.1,0.2,0.1,0.1,0.1,0.1,0.1,0.1,0.1,0.1,0.1,0.1,0.1,0.1,0.1,0.1,0.1,0.2,0.2,0.1,0.1,0.1,0.1,0.2,0.2,0.2,0.2,0.2,0.2,0.2,0.2,0.2,0.2,0.1,0.1,0.1]}},{"type":"Feature","geometry":{"type":"Point","coordinates":[150.78752,-23.16175]},"properties":{"id":"osm-way28690907","name":"Rosslyn Bay Boat Harbour","kind":"marina","source":"OpenStreetMap","sourceRef":"way/28690907","likelyAnchorage":true,"noAnchoring":false,"noAnchoringName":null,"notes":null,"fetchLandNM":[0.1,0.1,0.1,0.2,0.2,0.2,0.2,0.2,0.2,0.1,0.1,0.1,0.1,0.1,0.1,0.2,0.1,0.1,0.1,0.1,0.1,0.1,0.1,0.1,0.1,0.1,0.1,0.2,0.2,0.2,0.2,0.2,0.2,0.2,0.2,0.1],"fetchReefNM":[0.1,0.1,0.1,0.2,0.2,0.2,0.2,0.2,0.2,0.1,0.1,0.1,0.1,0.1,0.1,0.2,0.1,0.1,0.1,0.1,0.1,0.1,0.1,0.1,0.1,0.1,0.1,0.2,0.2,0.2,0.2,0.2,0.2,0.2,0.2,0.1]}},{"type":"Feature","geometry":{"type":"Point","coordinates":[150.80569,-23.21198]},"properties":{"id":"osm-node3020493866","name":"Shoal Bay","kind":"anchorage","source":"OpenStreetMap","sourceRef":"node/3020493866","likelyAnchorage":true,"noAnchoring":false,"noAnchoringName":null,"notes":null,"fetchLandNM":[15,15,15,9.1,15,15,15,7.6,7.4,9.1,15,15,15,0.9,0.9,0.9,1,1,1.1,1,1,0.9,0.8,0.8,0.8,0.8,0.8,0.8,0.9,1,1.1,1.2,1.1,1.5,1.7,1.8],"fetchReefNM":[15,15,15,9.1,15,15,15,7.6,7.4,9.1,15,15,15,0.9,0.9,0.9,1,1,1.1,1,1,0.9,0.8,0.8,0.8,0.8,0.8,0.8,0.9,1,1.1,1.2,1.1,1.5,1.7,1.8]}},{"type":"Feature","geometry":{"type":"Point","coordinates":[151.35355,-23.82697]},"properties":{"id":"osm-node3020493867","name":"Shoal Bay","kind":"anchorage","source":"OpenStreetMap","sourceRef":"node/3020493867","likelyAnchorage":true,"noAnchoring":false,"noAnchoringName":null,"notes":null,"fetchLandNM":[0.5,0.5,0.5,0.4,0.4,0.4,0.4,0.4,0.4,0.4,0.4,0.5,0.6,0.6,0.8,1.1,1.9,7.3,6.3,5.1,4.1,3.3,3.3,2.9,1,0.9,0.7,0.7,0.7,0.6,0.5,0.5,0.5,0.5,0.5,0.5],"fetchReefNM":[0.5,0.5,0.5,0.4,0.4,0.4,0.4,0.4,0.4,0.4,0.4,0.5,0.6,0.6,0.8,1.1,1.9,7.3,6.3,5.1,4.1,3.3,3.3,2.9,1,0.9,0.7,0.7,0.7,0.6,0.5,0.5,0.5,0.5,0.5,0.5]}},{"type":"Feature","geometry":{"type":"Point","coordinates":[150.41159,-22.39281]},"properties":{"id":"osm-node3020493872","name":"Shoalwater Bay","kind":"anchorage","source":"OpenStreetMap","sourceRef":"node/3020493872","likelyAnchorage":true,"noAnchoring":false,"noAnchoringName":null,"notes":null,"fetchLandNM":[15,7.4,5,7,4.5,4.9,6.3,7.7,6.4,6.9,7.2,7.6,8.5,11.5,15,10.1,8.5,6.9,6.1,5,4.6,4.7,4.6,4.8,5.2,5.8,6.2,10.1,8.2,7.6,15,15,12.9,10.2,15,15],"fetchReefNM":[15,7.4,5,7,4.5,4.9,6.3,7.7,6.4,6.9,7.2,7.6,8.5,11.5,15,10.1,8.5,6.9,6.1,5,4.6,4.7,4.6,4.8,5.2,5.8,6.2,10.1,8.2,7.6,15,15,12.9,10.2,15,15]}},{"type":"Feature","geometry":{"type":"Point","coordinates":[150.74366,-22.56195]},"properties":{"id":"osm-node3020493888","name":"South Arm","kind":"anchorage","source":"OpenStreetMap","sourceRef":"node/3020493888","likelyAnchorage":true,"noAnchoring":false,"noAnchoringName":null,"notes":null,"fetchLandNM":[5.4,15,1.9,1.5,1.4,1.5,1.7,1.1,1,0.9,0.9,0.9,1,0.9,1,1,1,1.4,1.5,3.7,3.1,2.7,1.6,1.3,1.1,1.1,1,1.1,1.2,3.2,4.8,5.1,5.7,3.4,2.9,4.5],"fetchReefNM":[5.4,15,1.9,1.5,1.4,1.5,1.7,1.1,1,0.9,0.9,0.9,1,0.9,1,1,1,1.4,1.5,3.7,3.1,2.7,1.6,1.3,1.1,1.1,1,1.1,1.2,3.2,4.8,5.1,5.7,3.4,2.9,4.5]}},{"type":"Feature","geometry":{"type":"Point","coordinates":[150.06984,-22.14824]},"properties":{"id":"osm-node3020493909","name":"Stanage Bay","kind":"anchorage","source":"OpenStreetMap","sourceRef":"node/3020493909","likelyAnchorage":true,"noAnchoring":false,"noAnchoringName":null,"notes":null,"fetchLandNM":[15,13,9.4,10.7,15,15,14.7,15,15,15,15,0.5,0.4,0.4,0.4,0.5,0.5,0.4,0.4,0.4,0.3,0.3,0.3,0.3,0.3,0.3,0.3,0.3,0.3,0.3,0.2,0.2,0.3,0.3,15,15],"fetchReefNM":[15,13,9.4,10.7,15,15,14.7,15,15,15,15,0.5,0.4,0.4,0.4,0.5,0.5,0.4,0.4,0.4,0.3,0.3,0.3,0.3,0.3,0.3,0.3,0.3,0.3,0.3,0.2,0.2,0.3,0.3,15,15]}},{"type":"Feature","geometry":{"type":"Point","coordinates":[150.77876,-23.15927]},"properties":{"id":"osm-node3020493912","name":"Statue Bay","kind":"anchorage","source":"OpenStreetMap","sourceRef":"node/3020493912","likelyAnchorage":true,"noAnchoring":false,"noAnchoringName":null,"notes":null,"fetchLandNM":[14.4,15,15,15,8.7,7.6,7.7,15,15,0.3,0.3,0.3,0.3,0.3,0.4,0.5,0.5,0.4,0.4,0.3,0.4,0.4,0.4,0.4,0.4,0.4,0.5,0.5,0.6,0.7,0.8,1,2.5,3.1,3.9,4.9],"fetchReefNM":[14.4,15,15,15,8.7,7.6,7.7,15,15,0.3,0.3,0.3,0.3,0.3,0.4,0.5,0.5,0.4,0.4,0.3,0.4,0.4,0.4,0.4,0.4,0.4,0.5,0.5,0.6,0.7,0.8,1,2.5,3.1,3.9,4.9]}},{"type":"Feature","geometry":{"type":"Point","coordinates":[150.51648,-22.35027]},"properties":{"id":"osm-node13255230573","name":"Strong Tide Passage","kind":"anchorage","source":"OpenStreetMap","sourceRef":"node/13255230573","likelyAnchorage":false,"noAnchoring":false,"noAnchoringName":null,"notes":null,"fetchLandNM":[1,1,1,2.1,15,15,2.4,2.1,1.5,1.4,1.3,1.4,1.5,1.7,1.8,2,1.4,1,1.3,1.8,11.3,10.4,10,10.5,11.1,12.6,15,13,1.5,1.6,1.2,1.1,1.1,0.7,0.7,0.8],"fetchReefNM":[1,1,1,2.1,15,15,2.4,2.1,1.5,1.4,1.3,1.4,1.5,1.7,1.8,2,1.4,1,1.3,1.8,11.3,10.4,10,10.5,11.1,12.6,15,13,1.5,1.6,1.2,1.1,1.1,0.7,0.7,0.8]}},{"type":"Feature","geometry":{"type":"Point","coordinates":[150.47101,-22.21592]},"properties":{"id":"osm-node3020493932","name":"Supply Bay","kind":"anchorage","source":"OpenStreetMap","sourceRef":"node/3020493932","likelyAnchorage":true,"noAnchoring":false,"noAnchoringName":null,"notes":null,"fetchLandNM":[15,15,15,15,0.6,0.3,0.3,0.3,0.3,0.3,0.2,0.2,0.2,0.2,0.2,0.2,0.2,0.2,0.3,0.3,1.5,0.7,0.7,0.8,1.8,15,8.4,1.7,15,1.8,15,15,14.9,15,15,15],"fetchReefNM":[15,15,15,15,0.6,0.3,0.3,0.3,0.3,0.3,0.2,0.2,0.2,0.2,0.2,0.2,0.2,0.2,0.3,0.3,1.5,0.7,0.7,0.8,1.8,15,8.4,1.7,15,1.8,15,15,14.9,15,15,15]}},{"type":"Feature","geometry":{"type":"Point","coordinates":[150.23142,-22.3701]},"properties":{"id":"osm-node3020494560","name":"West Bight","kind":"anchorage","source":"OpenStreetMap","sourceRef":"node/3020494560","likelyAnchorage":true,"noAnchoring":false,"noAnchoringName":null,"notes":null,"fetchLandNM":[3.6,15,15,8.6,12,13.8,2.7,1.3,1.7,1.7,15,15,3.9,2.4,2,1.8,1.6,1.4,1.4,1.5,1.3,1.5,1.3,1.3,1.3,1.3,1.3,1.3,2.9,3.3,3.4,3.2,3.5,3.2,15,15],"fetchReefNM":[3.6,15,15,8.6,12,13.8,2.7,1.3,1.7,1.7,15,15,3.9,2.4,2,1.8,1.6,1.4,1.4,1.5,1.3,1.5,1.3,1.3,1.3,1.3,1.3,1.3,2.9,3.3,3.4,3.2,3.5,3.2,15,15]}},{"type":"Feature","geometry":{"type":"Point","coordinates":[150.69495,-22.52692]},"properties":{"id":"osm-node3020494563","name":"West Water","kind":"anchorage","source":"OpenStreetMap","sourceRef":"node/3020494563","likelyAnchorage":true,"noAnchoring":false,"noAnchoringName":null,"notes":null,"fetchLandNM":[2.1,1.2,1.1,1.1,1.2,1.3,1.5,1.7,15,3.4,3.5,4.1,4.2,4.4,4.5,1.9,1.7,1.6,1.6,2,1,1,0.9,1,1.1,1.2,1.2,1.3,1.5,1.6,1.9,1.8,1.8,2.2,2.7,2.1],"fetchReefNM":[2.1,1.2,1.1,1.1,1.2,1.3,1.5,1.7,15,3.4,3.5,4.1,4.2,4.4,4.5,1.9,1.7,1.6,1.6,2,1,1,0.9,1,1.1,1.2,1.2,1.3,1.5,1.6,1.9,1.8,1.8,2.2,2.7,2.1]}},{"type":"Feature","geometry":{"type":"Point","coordinates":[151.87716,-23.46801]},"properties":{"id":"gbrmpa-80031","name":"Wistari Reef","kind":"designated_anchorage","source":"GBRMPA","sourceRef":"80031","likelyAnchorage":true,"noAnchoring":false,"noAnchoringName":null,"notes":"The area enclosed between the reef edge and the 1 kilometre line of Wistari Reef (23‑053) · Management area: Mackay/Capricorn management area · Great Barrier Reef Marine Park Regulations 2019","fetchLandNM":[15,15,15,15,15,2.5,15,15,15,15,15,15,15,15,15,15,15,15,15,15,15,15,15,15,15,6.1,15,15,15,15,15,15,15,15,15,15],"fetchReefNM":[0.7,0.8,0.9,1,1.2,1.6,1.9,2,2.2,2.3,2.4,2.3,2,1.5,1.4,1.3,1.2,1.2,1.2,1.3,1.4,1.6,1.6,1.8,1.9,2,2,1.6,1.1,0.9,0.8,0.7,0.6,0.6,0.6,0.6]}},{"type":"Feature","geometry":{"type":"Point","coordinates":[150.98144,-23.16782]},"properties":{"id":"osm-node292205773","name":"Wreck Bay","kind":"anchorage","source":"OpenStreetMap","sourceRef":"node/292205773","likelyAnchorage":true,"noAnchoring":false,"noAnchoringName":null,"notes":null,"fetchLandNM":[15,15,15,15,15,15,15,15,15,15,0.7,15,15,0.8,0.8,0.7,0.6,0.5,0.4,0.4,0.5,0.4,0.4,0.4,0.4,0.3,0.4,0.5,0.5,0.5,0.6,0.6,0.7,0.7,0.6,15],"fetchReefNM":[15,15,15,15,15,15,15,15,15,15,0.7,15,15,0.8,0.8,0.7,0.6,0.5,0.4,0.4,0.5,0.4,0.4,0.4,0.4,0.3,0.4,0.5,0.5,0.5,0.6,0.6,0.7,0.7,0.6,15]}}]}