{"type":"FeatureCollection","meta":{"tile":"t-26e150","built":"2026-08-25"},"features":[{"type":"Feature","geometry":{"type":"Polygon","coordinates":[[[153.3945,-22.5619],[153.5299,-22.9994],[152.7318,-22.9994],[152.7318,-23.6331],[153.4997,-24.2997],[153.4997,-24.4984],[153.1982,-24.4984],[153.1982,-24.3438],[153.1309,-24.295],[153.0472,-24.295],[153.0472,-24.3273],[152.9937,-24.3273],[152.9937,-24.4984],[152.4375,-24.4984],[152.4375,-24.4367],[152.1,-24.4367],[152.1,-24.4984],[152.0412,-24.4985],[152.0115,-24.4447],[152.008,-24.437],[152.0102,-24.434],[152.0082,-24.428],[152.0031,-24.4274],[151.9887,-24.3896],[152.0435,-24.3896],[152.0435,-24.2328],[151.937,-24.2326],[151.9361,-24.2342],[151.9336,-24.2341],[151.9245,-24.2234],[151.9201,-24.2106],[151.9171,-24.2088],[151.9137,-24.2103],[151.9108,-24.2069],[151.907,-24.2095],[151.904,-24.2061],[151.8978,-24.1922],[151.89,-24.1583],[151.8855,-24.1493],[151.8126,-24.1493],[151.8046,-24.1402],[151.7952,-24.1236],[151.7887,-24.1157],[151.777,-24.0827],[151.7699,-24.039],[151.7721,-24.0256],[151.7679,-24.0247],[151.7685,-24.0208],[151.7656,-24.018],[151.772,-24.018],[151.772,-24.008],[151.762,-24.008],[151.762,-24.0158],[151.7604,-24.0175],[151.7585,-24.0169],[151.7574,-24.0199],[151.7551,-24.0197],[151.749,-24.0163],[151.7443,-24.01],[151.7433,-24.0031],[151.7411,-24.0014],[151.7411,-23.9958],[151.7181,-23.9958],[151.7181,-24.015],[151.696,-24.005],[151.6884,-23.993],[151.6884,-23.978],[151.634,-23.965],[151.622,-23.965],[151.606,-23.976],[151.5985,-24.0107],[151.5458,-24.0339],[151.5426,-24.029],[151.5074,-24.0175],[151.4906,-24.0058],[151.4819,-24.0027],[151.4692,-23.9949],[151.4602,-23.9984],[151.4423,-23.9916],[151.4705,-23.9646],[151.4706,-23.9708],[151.4748,-23.9791],[151.4831,-23.9833],[151.4873,-23.9791],[151.5039,-23.9499],[151.5039,-23.9416],[151.4946,-23.9416],[151.551,-23.8877],[151.551,-23.8735],[151.4593,-23.8485],[151.3886,-23.8754],[151.3898,-23.8674],[151.3998,-23.8666],[151.3998,-23.8083],[151.3831,-23.8083],[151.3664,-23.7916],[151.3461,-23.7916],[151.3405,-23.7822],[151.3386,-23.7728],[151.3377,-23.7624],[151.3414,-23.7624],[151.3414,-23.7458],[151.3164,-23.7458],[151.3039,-23.7292],[151.2972,-23.7289],[151.2949,-23.7153],[151.2957,-23.7126],[151.2898,-23.7001],[151.3641,-23.7001],[151.3093,-23.5667],[151.2867,-23.5667],[151.2867,-23.5079],[151.2376,-23.5079],[151.2354,-23.5044],[151.2348,-23.4976],[151.2357,-23.4908],[151.2391,-23.4898],[151.2392,-23.4871],[151.2343,-23.483],[151.1081,-23.4586],[151.1081,-23.4458],[151.0998,-23.4458],[151.0998,-23.4569],[151.0733,-23.4516],[151.0733,-23.4333],[151.0667,-23.4333],[151.0533,-23.42],[151.04,-23.42],[151.04,-23.436],[150.9612,-23.3751],[150.8727,-23.4805],[150.8626,-23.4682],[150.8443,-23.4516],[150.8428,-23.4525],[150.8419,-23.4484],[150.8196,-23.4213],[150.8067,-23.3991],[150.7977,-23.3732],[150.7961,-23.3614],[150.8167,-23.3614],[150.8224,-23.358],[150.8224,-23.3413],[150.8267,-23.3315],[150.8539,-23.3178],[150.8567,-23.3131],[150.8418,-23.3033],[150.8418,-23.2482],[150.8351,-23.2316],[150.8275,-23.2284],[150.8275,-23.2196],[150.8186,-23.2196],[150.8015,-23.1837],[150.8014,-23.1801],[150.7964,-23.1768],[150.7946,-23.1665],[150.7962,-23.1634],[150.801,-23.1635],[150.801,-23.1552],[150.7757,-23.0551],[150.7768,-23.0183],[150.7828,-22.9638],[150.8002,-22.9499],[150.8086,-22.9333],[150.8048,-22.9248],[150.7964,-22.9171],[150.7905,-22.9158],[150.7905,-22.8959],[150.797,-22.8521],[150.7924,-22.8521],[150.7971,-22.8253],[150.7997,-22.8196],[150.8036,-22.8157],[150.8104,-22.8183],[150.8064,-22.8056],[150.8075,-22.8017],[150.8092,-22.7999],[150.8164,-22.7999],[150.8164,-22.7916],[150.8057,-22.7916],[150.8096,-22.7635],[150.8129,-22.7503],[150.8165,-22.7482],[150.8177,-22.7448],[150.8167,-22.7394],[150.8183,-22.7339],[150.8249,-22.7308],[150.8209,-22.7245],[150.8211,-22.7212],[150.8239,-22.7196],[150.8222,-22.7161],[150.823,-22.7112],[150.8261,-22.7081],[150.8256,-22.707],[150.8305,-22.7036],[150.8264,-22.6983],[150.8288,-22.6874],[150.8305,-22.6849],[150.8334,-22.6846],[150.8334,-22.6933],[150.8533,-22.6933],[150.8533,-22.68],[150.8334,-22.68],[150.8328,-22.6838],[150.8298,-22.6819],[150.8173,-22.6812],[150.8166,-22.6771],[150.8126,-22.68],[150.8043,-22.6719],[150.8024,-22.6583],[150.8045,-22.6557],[150.8043,-22.6482],[150.8012,-22.6454],[150.7935,-22.6458],[150.7856,-22.6333],[150.7914,-22.6333],[150.7914,-22.6249],[150.7833,-22.6249],[150.7885,-22.572],[150.804,-22.572],[150.804,-22.5551],[150.7884,-22.5543],[150.7881,-22.5504],[150.7845,-22.5503],[150.7798,-22.545],[150.7823,-22.5444],[150.7798,-22.5405],[150.7811,-22.5387],[150.9185,-22.5382],[150.9185,-22.5824],[151.1402,-22.5824],[151.1402,-22.6502],[151.5046,-22.6502],[151.5046,-22.6831],[151.5806,-22.6831],[151.5806,-22.6501],[151.71,-22.6501],[151.71,-22.5998],[151.9604,-22.5998],[152,-22.625],[152,-22.9057],[152.125,-22.9057],[152.3,-22.73],[152.7,-22.65],[153,-22.325],[152.8,-21.35],[152.8,-21.1496],[152.9633,-21.1496],[153.1813,-21.8672],[153.3945,-22.5619]],[[150.8081,-22.6291],[150.8164,-22.6291],[150.8164,-22.6208],[150.8081,-22.6208],[150.8081,-22.6291]],[[151.7706,-23.9999],[151.7789,-23.9999],[151.7789,-23.9916],[151.7706,-23.9916],[151.7706,-23.9999]],[[151.7706,-23.9833],[151.7789,-23.9833],[151.7789,-23.9708],[151.7706,-23.9708],[151.7706,-23.9833]],[[151.5081,-24.0041],[151.5081,-24.0124],[151.5206,-24.0124],[151.5206,-24.0041],[151.5164,-23.9999],[151.5123,-23.9999],[151.5081,-24.0041]],[[150.952,-22.6641],[150.9598,-22.6641],[150.966,-22.658],[150.966,-22.6501],[150.9578,-22.6501],[150.952,-22.656],[150.952,-22.6641]],[[150.9867,-22.7333],[150.9933,-22.74],[151.0067,-22.74],[151.0067,-22.7337],[150.9963,-22.7237],[150.9867,-22.7237],[150.9867,-22.7333]],[[151.1394,-23.3978],[151.1411,-23.4022],[151.1516,-23.408],[151.1557,-23.408],[151.1585,-23.4067],[151.1647,-23.3994],[151.1647,-23.3949],[151.1607,-23.3934],[151.1424,-23.3956],[151.1394,-23.3978]],[[150.8467,-23.4133],[150.8467,-23.4267],[150.8667,-23.4267],[150.8667,-23.4133],[150.8467,-23.4133]],[[151.5867,-23.0867],[151.6,-23.0933],[151.6133,-23.0933],[151.6133,-23.08],[151.6067,-23.0733],[151.5867,-23.0733],[151.5867,-23.0867]],[[150.86,-23.2533],[150.8867,-23.2533],[150.8867,-23.2333],[150.86,-23.2333],[150.86,-23.2533]],[[151.06,-23.1667],[151.0733,-23.1733],[151.0867,-23.1733],[151.0934,-23.16],[151.0934,-23.1466],[151.0733,-23.1466],[151.06,-23.1533],[151.06,-23.1667]],[[151.64,-23.67],[151.62,-23.66],[151.6,-23.67],[151.6,-23.69],[151.62,-23.7],[151.65,-23.69],[151.64,-23.67]],[[151.7571,-22.8349],[151.7571,-22.8981],[151.791,-22.8981],[151.791,-22.8349],[151.7571,-22.8349]],[[151.6206,-23.0833],[151.6206,-23.1124],[151.7248,-23.1124],[151.7248,-23.0833],[151.6206,-23.0833]],[[151.82,-23],[151.82,-23.0293],[151.8039,-23.0249],[151.7581,-23.0249],[151.7456,-23.0166],[151.7164,-23.0166],[151.7164,-23.0375],[151.7581,-23.0458],[151.7873,-23.0458],[151.8331,-23.0624],[151.87,-23.0624],[151.87,-23.01],[151.86,-23],[151.82,-23]],[[151.6151,-22.8995],[151.7058,-22.8995],[151.7058,-22.9196],[151.7258,-22.9296],[151.7458,-22.9196],[151.7458,-22.8995],[151.7058,-22.8995],[151.7058,-22.8089],[151.6151,-22.8089],[151.6151,-22.8995]],[[150.9581,-23.222],[150.977,-23.222],[150.9998,-23.2083],[150.9998,-23.1089],[151.0872,-23.1089],[151.0872,-23.0532],[150.9055,-23.0532],[150.888,-23.0279],[150.8684,-23.0279],[150.8684,-23.0517],[150.8765,-23.0536],[150.8765,-23.104],[150.886,-23.104],[150.9017,-23.166],[150.9373,-23.1999],[150.9456,-23.1999],[150.9456,-23.1933],[150.9493,-23.1911],[150.9581,-23.1999],[150.9581,-23.222]],[[151.0465,-23.387],[151.2241,-23.387],[151.2241,-23.2632],[151.1552,-23.1866],[151.0466,-23.1866],[151.0466,-23.275],[150.8998,-23.275],[150.8789,-23.2666],[150.8706,-23.2791],[150.8873,-23.2874],[150.9,-23.2874],[150.9,-23.3751],[150.9501,-23.3751],[150.9664,-23.3604],[151.0465,-23.3604],[151.0465,-23.387]],[[151.8591,-23.1382],[151.6724,-23.2977],[151.6724,-23.34],[151.8335,-23.34],[151.885,-23.43],[151.75,-23.485],[151.7,-23.485],[151.7,-23.5333],[151.6039,-23.5333],[151.6039,-23.5596],[151.6387,-23.5929],[151.7206,-23.5929],[151.7206,-23.579],[151.77,-23.5648],[151.9645,-23.5648],[152.3257,-23.9018],[152.38,-23.9018],[152.38,-24.1327],[152.2,-24.1327],[152.2,-24.3331],[152.63,-24.3331],[152.63,-24.23],[152.8,-24.23],[152.8,-24.08],[152.2338,-23.6282],[152.225,-23.5648],[152.225,-23.525],[152.1757,-23.4756],[152.1289,-23.4756],[151.9815,-23.2666],[151.9815,-23.17],[151.9667,-23.1382],[151.8591,-23.1382]]]},"properties":{"id":"gbrmpa-zone-129","type":"General Use Zone","zone":"Light Blue Zone","color":"#7fc3dd","name":"GU-21-6016","permit":null,"source":"GBRMPA"}},{"type":"Feature","geometry":{"type":"Polygon","coordinates":[[[151.7181,-24.015],[151.7177,-24.0199],[151.7156,-24.0194],[151.7001,-24.0133],[151.6902,-24.0076],[151.6884,-24.006],[151.6884,-23.993],[151.696,-24.005],[151.7181,-24.015]]]},"properties":{"id":"gbrmpa-zone-88","type":"Conservation Park Zone","zone":"Yellow Zone","color":"#e8c23f","name":"CP-23-4111","permit":"Richards Point (south)","source":"GBRMPA"}},{"type":"Feature","geometry":{"type":"Polygon","coordinates":[[[151.6884,-23.978],[151.6884,-24.006],[151.6733,-23.9889],[151.6669,-23.9865],[151.6623,-23.9871],[151.6556,-23.9824],[151.6516,-23.9827],[151.6516,-23.9695],[151.6884,-23.978]]]},"properties":{"id":"gbrmpa-zone-91","type":"Marine National Park Zone","zone":"Green Zone","color":"#2fae5a","name":"MNP-23-1170","permit":"Richards Point","source":"GBRMPA"}},{"type":"Feature","geometry":{"type":"Polygon","coordinates":[[[151.6516,-23.9695],[151.6516,-23.9827],[151.6449,-23.9768],[151.6397,-23.9814],[151.6352,-23.9812],[151.6261,-23.9741],[151.6237,-23.9749],[151.6246,-23.9773],[151.6224,-23.9793],[151.6118,-23.9791],[151.6059,-23.9905],[151.6056,-23.9939],[151.6073,-23.9946],[151.6026,-24.0034],[151.6021,-24.0072],[151.6034,-24.0086],[151.5985,-24.0107],[151.606,-23.976],[151.622,-23.965],[151.634,-23.965],[151.6516,-23.9695]]]},"properties":{"id":"gbrmpa-zone-92","type":"Conservation Park Zone","zone":"Yellow Zone","color":"#e8c23f","name":"CP-23-4110","permit":"Richards Point","source":"GBRMPA"}},{"type":"Feature","geometry":{"type":"Polygon","coordinates":[[[151.9403,-24.2328],[151.9454,-24.2397],[151.9504,-24.2577],[151.9545,-24.2821],[151.9629,-24.3085],[151.9693,-24.319],[151.9909,-24.3896],[151.9887,-24.3896],[151.9656,-24.3151],[151.9614,-24.3104],[151.9544,-24.2895],[151.9444,-24.2436],[151.9433,-24.24],[151.9405,-24.2384],[151.9408,-24.2363],[151.939,-24.2365],[151.9395,-24.2349],[151.9378,-24.2342],[151.9378,-24.2328],[151.9403,-24.2328]]]},"properties":{"id":"gbrmpa-zone-82","type":"Conservation Park Zone","zone":"Yellow Zone","color":"#e8c23f","name":"CP-24-4113","permit":"Adjacent to Deepwater National Park","source":"GBRMPA"}},{"type":"Feature","geometry":{"type":"Polygon","coordinates":[[[151.772,-24.008],[151.772,-24.018],[151.7656,-24.018],[151.7648,-24.0159],[151.762,-24.0158],[151.762,-24.008],[151.772,-24.008]]]},"properties":{"id":"gbrmpa-zone-85","type":"Habitat Protection Zone","zone":"Dark Blue Zone","color":"#3f6fb0","name":"HP-24-5375","permit":"Bustard Head coastal area: Inner Rocks (24-005)","source":"GBRMPA"}},{"type":"Feature","geometry":{"type":"Polygon","coordinates":[[[151.7721,-24.0256],[151.7699,-24.039],[151.777,-24.0827],[151.7887,-24.1157],[151.7952,-24.1236],[151.8046,-24.1402],[151.8126,-24.1493],[151.8854,-24.1493],[151.8846,-24.156],[151.8823,-24.1603],[151.8734,-24.1651],[151.866,-24.1726],[151.8563,-24.1738],[151.8407,-24.1719],[151.8234,-24.1621],[151.8043,-24.1452],[151.792,-24.126],[151.7857,-24.1219],[151.7856,-24.1141],[151.7765,-24.0926],[151.77,-24.0692],[151.7662,-24.0394],[151.7629,-24.0354],[151.7687,-24.0293],[151.7682,-24.0257],[151.7721,-24.0256]]]},"properties":{"id":"gbrmpa-zone-84","type":"Conservation Park Zone","zone":"Yellow Zone","color":"#e8c23f","name":"CP-24-4112","permit":"Bustard Bay","source":"GBRMPA"}},{"type":"Feature","geometry":{"type":"Polygon","coordinates":[[[151.7411,-23.9958],[151.7411,-24.0014],[151.7381,-24.0037],[151.7378,-24.008],[151.7398,-24.0103],[151.7405,-24.0175],[151.7435,-24.0214],[151.7297,-24.0226],[151.7177,-24.0199],[151.7181,-23.9958],[151.7411,-23.9958]]]},"properties":{"id":"gbrmpa-zone-87","type":"Habitat Protection Zone","zone":"Dark Blue Zone","color":"#3f6fb0","name":"HP-23-5373","permit":"Rodds Peninsula coastal area: Jansen Rock (24-002) and Clews Point (24-003)","source":"GBRMPA"}},{"type":"Feature","geometry":{"type":"Polygon","coordinates":[[[152.0435,-24.3896],[151.9909,-24.3896],[151.9693,-24.319],[151.9629,-24.3085],[151.9545,-24.2821],[151.9504,-24.2577],[151.9454,-24.2397],[151.9403,-24.2328],[152.0435,-24.2328],[152.0435,-24.3896]]]},"properties":{"id":"gbrmpa-zone-81","type":"Marine National Park Zone","zone":"Green Zone","color":"#2fae5a","name":"MNP-24-1171","permit":"Adjacent to Deepwater National Park","source":"GBRMPA"}},{"type":"Feature","geometry":{"type":"Polygon","coordinates":[[[151.5206,-24.0124],[151.5081,-24.0124],[151.5081,-24.0041],[151.5123,-23.9999],[151.5164,-23.9999],[151.5206,-24.0041],[151.5206,-24.0124]]]},"properties":{"id":"gbrmpa-zone-86","type":"Habitat Protection Zone","zone":"Dark Blue Zone","color":"#3f6fb0","name":"HP-23-5374","permit":"Creek Rocks (24-001)","source":"GBRMPA"}}]}