{"type":"FeatureCollection","meta":{"region":"QLD","tile":"t-26e152","built":"2026-08-25","sources":["OpenStreetMap (ODbL)","GBRMPA (CC BY)"]},"features":[{"type":"Feature","geometry":{"type":"Point","coordinates":[152.40079,-24.75889]},"properties":{"id":"osm-node3020491471","name":"Bundaberg Harbour","kind":"anchorage","source":"OpenStreetMap","sourceRef":"node/3020491471","likelyAnchorage":true,"noAnchoring":false,"noAnchoringName":null,"notes":null,"fetchLandNM":[0.2,0.2,0.1,0,0,0,0,0,0,0,0,0,0,0,0,0,0,0.1,15,15,15,15,15,15,15,15,15,15,15,3.3,2.5,2.5,2.1,1.1,0.3,0.3],"fetchReefNM":[0.2,0.2,0.1,0,0,0,0,0,0,0,0,0,0,0,0,0,0,0.1,15,15,15,15,15,15,15,15,15,15,15,3.3,2.5,2.5,2.1,1.1,0.3,0.3]}},{"type":"Feature","geometry":{"type":"Point","coordinates":[152.3873,-24.76067]},"properties":{"id":"osm-way200196832","name":"Bundaberg Port Marina","kind":"marina","source":"OpenStreetMap","sourceRef":"way/200196832","likelyAnchorage":true,"noAnchoring":false,"noAnchoringName":null,"notes":null,"fetchLandNM":[1.2,1.1,1,0.9,0.8,0.7,0.8,0.8,0.8,0.8,1.6,1.8,3,5.6,8.1,11.3,15,15,15,15,15,15,15,15,15,15,15,15,15,3.1,2.5,2,2.1,2,1.8,1.5],"fetchReefNM":[1.2,1.1,1,0.9,0.8,0.7,0.8,0.8,0.8,0.8,1.6,1.8,3,5.6,8.1,11.3,15,15,15,15,15,15,15,15,15,15,15,15,15,3.1,2.5,2,2.1,2,1.8,1.5]}},{"type":"Feature","geometry":{"type":"Point","coordinates":[153.05445,-25.8995]},"properties":{"id":"osm-node12911732086","name":"Charted anchorage","kind":"anchorage","source":"OpenStreetMap","sourceRef":"node/12911732086","likelyAnchorage":true,"noAnchoring":false,"noAnchoringName":null,"notes":null,"fetchLandNM":[1.8,1.5,0.5,0.4,0.4,0.3,0.2,0.2,0.2,0.2,0.2,0.2,0.2,0.3,0.2,0.2,0.2,0.2,0.3,0.3,0.6,0.5,0.3,0.2,0.2,0.2,0.1,0.1,0.1,0.2,1.5,1.7,3.4,3.2,0.9,0.8],"fetchReefNM":[1.8,1.5,0.5,0.4,0.4,0.3,0.2,0.2,0.2,0.2,0.2,0.2,0.2,0.3,0.2,0.2,0.2,0.2,0.3,0.3,0.6,0.5,0.3,0.2,0.2,0.2,0.1,0.1,0.1,0.2,1.5,1.7,3.4,3.2,0.9,0.8]}},{"type":"Feature","geometry":{"type":"Point","coordinates":[152.90844,-25.2972]},"properties":{"id":"osm-way235174910","name":"Fisherman's Wharf Marina","kind":"marina","source":"OpenStreetMap","sourceRef":"way/235174910","likelyAnchorage":true,"noAnchoring":false,"noAnchoringName":null,"notes":null,"fetchLandNM":[0,0.1,0.1,0.3,0.3,0.3,0.2,0.1,0.1,0.1,0.1,0.1,0.1,0.1,0.1,0.1,0.1,0.1,0.1,0.1,0.1,0.1,0.1,0.1,0.1,0.1,0.1,0,0,0,0,0,0,0,0,0],"fetchReefNM":[0,0.1,0.1,0.3,0.3,0.3,0.2,0.1,0.1,0.1,0.1,0.1,0.1,0.1,0.1,0.1,0.1,0.1,0.1,0.1,0.1,0.1,0.1,0.1,0.1,0.1,0.1,0,0,0,0,0,0,0,0,0]}},{"type":"Feature","geometry":{"type":"Point","coordinates":[152.91065,-25.29414]},"properties":{"id":"osm-way235174932","name":"Great Sandy Strait Marina","kind":"marina","source":"OpenStreetMap","sourceRef":"way/235174932","likelyAnchorage":true,"noAnchoring":false,"noAnchoringName":null,"notes":null,"fetchLandNM":[0.1,0.1,0.1,0.1,0.1,0.1,0.1,0.1,0.1,0.1,0.1,0.1,0.1,0.1,0.1,0.1,0.1,0.1,0.2,0.2,0.2,0.3,0.1,0.1,0.1,0.1,0.1,0.1,0.1,0.1,0.1,0.1,0.1,0.1,0.1,0.1],"fetchReefNM":[0.1,0.1,0.1,0.1,0.1,0.1,0.1,0.1,0.1,0.1,0.1,0.1,0.1,0.1,0.1,0.1,0.1,0.1,0.2,0.2,0.2,0.3,0.1,0.1,0.1,0.1,0.1,0.1,0.1,0.1,0.1,0.1,0.1,0.1,0.1,0.1]}},{"type":"Feature","geometry":{"type":"Point","coordinates":[152.90998,-25.2927]},"properties":{"id":"osm-way199956935","name":"Great Sandy Straits Marina Tourist Terminal","kind":"marina","source":"OpenStreetMap","sourceRef":"way/199956935","likelyAnchorage":true,"noAnchoring":false,"noAnchoringName":null,"notes":null,"fetchLandNM":[0.1,0.1,0.1,0.1,0.1,0.1,0.1,0.1,0.1,0.1,0.1,0,0,0,0,0,0,0,0,0,0,0,0,0,0,15,15,15,8.4,1.8,1.4,1.1,0.9,0.7,0.2,0.1],"fetchReefNM":[0.1,0.1,0.1,0.1,0.1,0.1,0.1,0.1,0.1,0.1,0.1,0,0,0,0,0,0,0,0,0,0,0,0,0,0,15,15,15,8.4,1.8,1.4,1.1,0.9,0.7,0.2,0.1]}},{"type":"Feature","geometry":{"type":"Point","coordinates":[152.7066,-25.15563]},"properties":{"id":"osm-node3020492452","name":"Hervey Bay","kind":"anchorage","source":"OpenStreetMap","sourceRef":"node/3020492452","likelyAnchorage":true,"noAnchoring":false,"noAnchoringName":null,"notes":null,"fetchLandNM":[15,15,15,15,15,15,15,15,15,15,15,15,14.9,11.9,8.4,7.8,7.2,6.8,6.3,5.9,5.7,5.5,5.2,5.1,4.9,5.2,4.5,4.1,5,8,10.3,14.7,15,15,15,15],"fetchReefNM":[15,15,15,15,15,15,15,15,15,15,15,15,14.9,11.9,8.4,7.8,7.2,6.8,6.3,5.9,5.7,5.5,5.2,5.1,4.9,5.2,4.5,4.1,5,8,10.3,14.7,15,15,15,15]}},{"type":"Feature","geometry":{"type":"Point","coordinates":[152.91011,-25.29572]},"properties":{"id":"osm-way235174935","name":"Hervey Bay Marina","kind":"marina","source":"OpenStreetMap","sourceRef":"way/235174935","likelyAnchorage":true,"noAnchoring":false,"noAnchoringName":null,"notes":null,"fetchLandNM":[0.2,0.2,0.2,0.2,15,0.2,0.1,0.1,0.1,0.1,0.1,0.1,0.1,0.1,0.1,0.1,0.1,0.1,0.1,0.1,0.1,0.2,0.2,0.2,0.1,0.1,0.1,0,0,0,0,0,0.1,0.1,0.1,0.2],"fetchReefNM":[0.2,0.2,0.2,0.2,15,0.2,0.1,0.1,0.1,0.1,0.1,0.1,0.1,0.1,0.1,0.1,0.1,0.1,0.1,0.1,0.1,0.2,0.2,0.2,0.1,0.1,0.1,0,0,0,0,0,0.1,0.1,0.1,0.2]}},{"type":"Feature","geometry":{"type":"Point","coordinates":[152.7148,-24.11362]},"properties":{"id":"gbrmpa-80032","name":"Lady Elliot Island","kind":"designated_anchorage","source":"GBRMPA","sourceRef":"80032","likelyAnchorage":true,"noAnchoring":false,"noAnchoringName":null,"notes":"The area enclosed between the coastal line and the coastal 1 kilometre line of Lady Elliot Island (24‑008) · Management area: Mackay/Capricorn management area · Great Barrier Reef Marine Park Regulations 2019","fetchLandNM":[0.2,0.2,0.2,0.2,0.2,0.2,0.2,0.2,0.2,0.2,0.1,0.1,0.1,0.1,0.1,0.1,0.1,0.1,0.2,0.2,0.2,0.2,0.2,0.2,0.2,0.2,0.2,0.2,0.2,0.2,0.2,0.2,0.2,0.2,0.2,0.2],"fetchReefNM":[0.2,0.2,0.2,0.2,0.2,0.2,0.2,0.2,0.2,0.2,0.1,0.1,0.1,0.1,0.1,0.1,0.1,0.1,0.2,0.2,0.2,0.2,0.2,0.2,0.2,0.2,0.2,0.2,0.2,0.2,0.2,0.2,0.2,0.2,0.2,0.2]}},{"type":"Feature","geometry":{"type":"Point","coordinates":[153.31182,-24.94093]},"properties":{"id":"osm-node3020492983","name":"Marloo Bay","kind":"anchorage","source":"OpenStreetMap","sourceRef":"node/3020492983","likelyAnchorage":true,"noAnchoring":false,"noAnchoringName":null,"notes":null,"fetchLandNM":[15,15,15,15,15,15,15,15,15,15,15,15,15,2.3,1.8,1.5,1.3,1.1,0.9,0.8,0.7,0.7,0.7,0.7,0.7,0.8,0.8,0.9,1.1,1.3,1.7,2.2,3.3,5.3,8.3,14.2],"fetchReefNM":[15,15,15,15,15,15,15,15,15,15,15,15,15,2.3,1.8,1.5,1.3,1.1,0.9,0.8,0.7,0.7,0.7,0.7,0.7,0.8,0.8,0.9,1.1,1.3,1.7,2.2,3.3,5.3,8.3,14.2]}},{"type":"Feature","geometry":{"type":"Point","coordinates":[152.70792,-25.54003]},"properties":{"id":"osm-node2062796267","name":"Mary River Marina","kind":"marina","source":"OpenStreetMap","sourceRef":"node/2062796267","likelyAnchorage":true,"noAnchoring":false,"noAnchoringName":null,"notes":null,"fetchLandNM":[15,15,15,15,15,14.4,13.4,13.7,10.8,10.6,9.2,9.8,12,12.5,15,15,15,15,15,15,15,15,15,15,15,15,15,15,15,15,15,15,15,15,15,15],"fetchReefNM":[15,15,15,15,15,14.4,13.4,13.7,10.8,10.6,9.2,9.8,12,12.5,15,15,15,15,15,15,15,15,15,15,15,15,15,15,15,15,15,15,15,15,15,15]}},{"type":"Feature","geometry":{"type":"Point","coordinates":[153.06089,-25.82016]},"properties":{"id":"osm-node3020493287","name":"Pelican Bay","kind":"anchorage","source":"OpenStreetMap","sourceRef":"node/3020493287","likelyAnchorage":true,"noAnchoring":false,"noAnchoringName":null,"notes":null,"fetchLandNM":[0.4,0.4,0.4,0.4,0.4,0.4,0.4,0.5,0.5,0.5,0.6,0.6,0.7,0.6,0.4,0.3,0.2,0.2,0.2,0.2,0.3,0.4,0.5,0.6,0.6,2.3,2.3,2.8,3.7,5.2,4.7,0.9,0.8,0.6,0.5,0.4],"fetchReefNM":[0.4,0.4,0.4,0.4,0.4,0.4,0.4,0.5,0.5,0.5,0.6,0.6,0.7,0.6,0.4,0.3,0.2,0.2,0.2,0.2,0.3,0.4,0.5,0.6,0.6,2.3,2.3,2.8,3.7,5.2,4.7,0.9,0.8,0.6,0.5,0.4]}},{"type":"Feature","geometry":{"type":"Point","coordinates":[153.15166,-24.94154]},"properties":{"id":"osm-node3020493304","name":"Platypus Bay","kind":"anchorage","source":"OpenStreetMap","sourceRef":"node/3020493304","likelyAnchorage":true,"noAnchoring":false,"noAnchoringName":null,"notes":null,"fetchLandNM":[7.3,6.5,5.7,5.1,4.6,4.4,4.4,4.4,4.5,4.5,4.4,4.5,4.8,5,5.3,5.8,6.4,7.5,9,11,14.1,15,15,15,15,15,15,15,15,15,15,15,15,15,15,7.7],"fetchReefNM":[7.3,6.5,5.7,5.1,4.6,4.4,4.4,4.4,4.5,4.5,4.4,4.5,4.8,5,5.3,5.8,6.4,7.5,9,11,14.1,15,15,15,15,15,15,15,15,15,15,15,15,15,15,7.7]}},{"type":"Feature","geometry":{"type":"Point","coordinates":[152.76046,-25.23689]},"properties":{"id":"osm-node3020493559","name":"Port of Maryborough","kind":"anchorage","source":"OpenStreetMap","sourceRef":"node/3020493559","likelyAnchorage":true,"noAnchoring":false,"noAnchoringName":null,"notes":null,"fetchLandNM":[15,15,15,15,15,15,15,15,13.9,15,2.9,2.8,2.9,2.7,2.4,2.2,2.1,2,1.9,1.9,2,2.1,2.4,2.7,3.1,3.6,4.3,5.6,6.6,7.9,8.5,15,15,15,15,15],"fetchReefNM":[15,15,15,15,15,15,15,15,13.9,15,2.9,2.8,2.9,2.7,2.4,2.2,2.1,2,1.9,1.9,2,2.1,2.4,2.7,3.1,3.6,4.3,5.6,6.6,7.9,8.5,15,15,15,15,15]}},{"type":"Feature","geometry":{"type":"Point","coordinates":[152.94085,-25.75728]},"properties":{"id":"osm-node3020493858","name":"Shark Inlet","kind":"anchorage","source":"OpenStreetMap","sourceRef":"node/3020493858","likelyAnchorage":true,"noAnchoring":false,"noAnchoringName":null,"notes":null,"fetchLandNM":[10.5,7.9,6.1,5.1,4,3.6,3.4,3.4,3.7,3.8,0.4,0.3,0.3,0.2,0.2,0.2,0.2,0.2,0.2,0.2,0.2,0.4,0.3,0.4,0.4,0.3,0.3,0.3,0.3,0.3,0.3,0.3,0.3,0.4,0.4,9.2],"fetchReefNM":[10.5,7.9,6.1,5.1,4,3.6,3.4,3.4,3.7,3.8,0.4,0.3,0.3,0.2,0.2,0.2,0.2,0.2,0.2,0.2,0.2,0.4,0.3,0.4,0.4,0.3,0.3,0.3,0.3,0.3,0.3,0.3,0.3,0.4,0.4,9.2]}},{"type":"Feature","geometry":{"type":"Point","coordinates":[152.98933,-25.79691]},"properties":{"id":"osm-node3020494169","name":"Tin Can Bay","kind":"anchorage","source":"OpenStreetMap","sourceRef":"node/3020494169","likelyAnchorage":true,"noAnchoring":false,"noAnchoringName":null,"notes":null,"fetchLandNM":[5.1,3.5,3.2,2.4,2.2,2.2,2.1,2.2,2.5,3.5,15,4.7,3.7,3.4,1.9,1.3,0.9,0.7,0.5,0.4,0.3,0.3,0.2,0.2,0.2,0.3,0.3,1.1,1,1.1,1.1,1.1,0.5,0.7,0.8,1.1],"fetchReefNM":[5.1,3.5,3.2,2.4,2.2,2.2,2.1,2.2,2.5,3.5,15,4.7,3.7,3.4,1.9,1.3,0.9,0.7,0.5,0.4,0.3,0.3,0.2,0.2,0.2,0.3,0.3,1.1,1,1.1,1.1,1.1,0.5,0.7,0.8,1.1]}},{"type":"Feature","geometry":{"type":"Point","coordinates":[153.04215,-25.86921]},"properties":{"id":"osm-node3020494170","name":"Tin Can Inlet","kind":"anchorage","source":"OpenStreetMap","sourceRef":"node/3020494170","likelyAnchorage":true,"noAnchoring":false,"noAnchoringName":null,"notes":null,"fetchLandNM":[1.4,1.7,0.7,0.5,0.5,0.5,0.5,0.5,0.5,0.6,1,0.3,0.3,1.4,1.3,1.8,0.8,1.9,2.2,2.1,2.5,1.3,1,0.7,0.8,0.9,0.9,1,1.4,1.7,1.7,1.3,1.4,2.1,12.6,5.4],"fetchReefNM":[1.4,1.7,0.7,0.5,0.5,0.5,0.5,0.5,0.5,0.6,1,0.3,0.3,1.4,1.3,1.8,0.8,1.9,2.2,2.1,2.5,1.3,1,0.7,0.8,0.9,0.9,1,1.4,1.7,1.7,1.3,1.4,2.1,12.6,5.4]}},{"type":"Feature","geometry":{"type":"Point","coordinates":[153.04247,-25.80225]},"properties":{"id":"osm-node3020494574","name":"Wide Bay Harbour","kind":"anchorage","source":"OpenStreetMap","sourceRef":"node/3020494574","likelyAnchorage":true,"noAnchoring":false,"noAnchoringName":null,"notes":null,"fetchLandNM":[0.5,0.5,0.5,0.5,0.5,0.5,0.7,0.9,15,15,15,1.1,0.8,0.6,0.5,0.4,0.4,0.4,2.4,0.5,2.8,2.3,2,1.9,2.1,2.4,2.7,3,3.9,3.3,3.6,8.5,11.9,0.8,0.6,0.6],"fetchReefNM":[0.5,0.5,0.5,0.5,0.5,0.5,0.7,0.9,15,15,15,1.1,0.8,0.6,0.5,0.4,0.4,0.4,2.4,0.5,2.8,2.3,2,1.9,2.1,2.4,2.7,3,3.9,3.3,3.6,8.5,11.9,0.8,0.6,0.6]}}]}