{"type":"FeatureCollection","meta":{"region":"QLD","tile":"t-26e150","built":"2026-08-25","sources":["OpenStreetMap (ODbL)","GBRMPA (CC BY)"]},"features":[{"type":"Feature","geometry":{"type":"Point","coordinates":[151.82371,-24.13143]},"properties":{"id":"osm-node3020491476","name":"Bustard Bay","kind":"anchorage","source":"OpenStreetMap","sourceRef":"node/3020491476","likelyAnchorage":true,"noAnchoring":false,"noAnchoringName":null,"notes":null,"fetchLandNM":[15,15,15,15,15,15,15,15,15,15,15,3.5,3.8,3.7,3.3,2.9,2.5,2.2,1.9,1.7,1.5,1.4,1.4,1.3,1.3,1.4,1.4,1.5,1.7,2.3,2.5,3.2,4.3,6.2,15,15],"fetchReefNM":[15,15,15,15,15,15,15,15,15,15,15,3.5,3.8,3.7,3.3,2.9,2.5,2.2,1.9,1.7,1.5,1.4,1.4,1.3,1.3,1.4,1.4,1.5,1.7,2.3,2.5,3.2,4.3,6.2,15,15]}},{"type":"Feature","geometry":{"type":"Point","coordinates":[151.4523,-24.02887]},"properties":{"id":"osm-node3020491527","name":"Colosseum Inlet","kind":"anchorage","source":"OpenStreetMap","sourceRef":"node/3020491527","likelyAnchorage":true,"noAnchoring":false,"noAnchoringName":null,"notes":null,"fetchLandNM":[0.8,0.8,0.7,1,0.9,0.7,0.5,0.5,0.6,0.7,0.7,1.7,2.1,2.2,3.7,2.4,0.2,0.2,0.1,0.1,0.2,0.2,0.1,0.1,0.1,0.1,0.1,0.2,0.3,1.1,1.4,1.6,1.7,0.9,0.9,0.9],"fetchReefNM":[0.8,0.8,0.7,1,0.9,0.7,0.5,0.5,0.6,0.7,0.7,1.7,2.1,2.2,3.7,2.4,0.2,0.2,0.1,0.1,0.2,0.2,0.1,0.1,0.1,0.1,0.1,0.2,0.3,1.1,1.4,1.6,1.7,0.9,0.9,0.9]}},{"type":"Feature","geometry":{"type":"Point","coordinates":[151.58498,-24.04487]},"properties":{"id":"osm-node3020492976","name":"Mangrove Bay","kind":"anchorage","source":"OpenStreetMap","sourceRef":"node/3020492976","likelyAnchorage":true,"noAnchoring":false,"noAnchoringName":null,"notes":null,"fetchLandNM":[15,15,3.4,2.5,2.9,3,2.5,4.1,4.4,0.5,0.5,0.5,0.6,0.6,0.6,0.6,0.6,0.6,0.5,0.5,0.5,0.4,0.4,0.4,0.4,0.4,0.4,0.4,0.5,0.6,0.6,15,15,15,15,15],"fetchReefNM":[15,15,3.4,2.5,2.9,3,2.5,4.1,4.4,0.5,0.5,0.5,0.6,0.6,0.6,0.6,0.6,0.6,0.5,0.5,0.5,0.4,0.4,0.4,0.4,0.4,0.4,0.4,0.5,0.6,0.6,15,15,15,15,15]}},{"type":"Feature","geometry":{"type":"Point","coordinates":[151.56336,-24.00484]},"properties":{"id":"osm-node3020493608","name":"Rodds Bay","kind":"anchorage","source":"OpenStreetMap","sourceRef":"node/3020493608","likelyAnchorage":true,"noAnchoring":false,"noAnchoringName":null,"notes":null,"fetchLandNM":[15,15,15,15,15,15,3.1,2.5,2.4,2.2,4.9,6.2,7.6,4.8,3.5,3.3,3.1,2,2.7,6.1,5.7,2,1.8,2,2.4,2.7,3.3,4.1,7.9,11.2,15,12.5,15,15,15,15],"fetchReefNM":[15,15,15,15,15,15,3.1,2.5,2.4,2.2,4.9,6.2,7.6,4.8,3.5,3.3,3.1,2,2.7,6.1,5.7,2,1.8,2,2.4,2.7,3.3,4.1,7.9,11.2,15,12.5,15,15,15,15]}},{"type":"Feature","geometry":{"type":"Point","coordinates":[151.62424,-24.03711]},"properties":{"id":"osm-node3020493609","name":"Rodds Harbour","kind":"anchorage","source":"OpenStreetMap","sourceRef":"node/3020493609","likelyAnchorage":true,"noAnchoring":false,"noAnchoringName":null,"notes":null,"fetchLandNM":[0.8,0.8,0.9,0.9,0.9,1.9,1.9,2.1,2.3,2.4,3,3.6,3.8,3.8,5.8,2.9,1.1,1.1,1.1,1.1,0.9,0.8,0.8,0.8,0.8,0.9,2.6,2.8,6.1,13.6,15,15,15,1.9,1.9,1.8],"fetchReefNM":[0.8,0.8,0.9,0.9,0.9,1.9,1.9,2.1,2.3,2.4,3,3.6,3.8,3.8,5.8,2.9,1.1,1.1,1.1,1.1,0.9,0.8,0.8,0.8,0.8,0.9,2.6,2.8,6.1,13.6,15,15,15,1.9,1.9,1.8]}}]}