{"type":"FeatureCollection","meta":{"region":"QLD","tile":"t-28e152","built":"2026-08-25","sources":["OpenStreetMap (ODbL)","GBRMPA (CC BY)"]},"features":[{"type":"Feature","geometry":{"type":"Point","coordinates":[153.11803,-26.3851]},"properties":{"id":"osm-node765740426","name":"Alexandria Bay","kind":"anchorage","source":"OpenStreetMap","sourceRef":"node/765740426","likelyAnchorage":true,"noAnchoring":false,"noAnchoringName":null,"notes":null,"fetchLandNM":[0.3,0.3,15,15,15,15,15,15,15,15,15,15,15,15,15,15,15,0.4,0.3,0.3,0.3,0.2,0.2,0.2,0.1,0.1,0.1,0.1,0.1,0.1,0.1,0.1,0.2,0.2,0.2,0.3],"fetchReefNM":[0.3,0.3,15,15,15,15,15,15,15,15,15,15,15,15,15,15,15,0.4,0.3,0.3,0.3,0.2,0.2,0.2,0.1,0.1,0.1,0.1,0.1,0.1,0.1,0.1,0.2,0.2,0.2,0.3]}},{"type":"Feature","geometry":{"type":"Point","coordinates":[153.43738,-27.3974]},"properties":{"id":"osm-node6535108358","name":"Amity","kind":"anchorage","source":"OpenStreetMap","sourceRef":"node/6535108358","likelyAnchorage":true,"noAnchoring":false,"noAnchoringName":null,"notes":null,"fetchLandNM":[3.5,15,15,0.1,0.1,0.1,0.1,0,0,0,0,0,0,0,0,0,0.1,0.1,0.3,0.7,11.8,6.7,7.5,11.1,11.5,11.4,10.8,14.5,13,10,15,15,15,2.4,2.3,2.3],"fetchReefNM":[3.5,15,15,0.1,0.1,0.1,0.1,0,0,0,0,0,0,0,0,0,0.1,0.1,0.3,0.7,11.8,6.7,7.5,11.1,11.5,11.4,10.8,14.5,13,10,15,15,15,2.4,2.3,2.3]}},{"type":"Feature","geometry":{"type":"Point","coordinates":[153.40192,-27.87831]},"properties":{"id":"osm-way429415050","name":"AMT Marine","kind":"marina","source":"OpenStreetMap","sourceRef":"way/429415050","likelyAnchorage":true,"noAnchoring":false,"noAnchoringName":null,"notes":null,"fetchLandNM":[0,0,0,0,0,0,0,0,0,0,0,0,0,0,0.1,0.1,0.1,0.2,0.1,0.1,0.1,0.1,0.1,0.1,0.1,0,0,0,0,0,0,0,0,0,0,0],"fetchReefNM":[0,0,0,0,0,0,0,0,0,0,0,0,0,0,0.1,0.1,0.1,0.2,0.1,0.1,0.1,0.1,0.1,0.1,0.1,0,0,0,0,0,0,0,0,0,0,0]}},{"type":"Feature","geometry":{"type":"Point","coordinates":[153.11755,-26.68872]},"properties":{"id":"osm-way776409101","name":"Baronga Broadwater","kind":"marina","source":"OpenStreetMap","sourceRef":"way/776409101","likelyAnchorage":true,"noAnchoring":false,"noAnchoringName":null,"notes":null,"fetchLandNM":[0.7,0.6,0.6,0.5,0.5,0.6,0.6,1.2,1.1,1,1.1,1.1,1.2,1.3,1.5,1.9,2.7,7.1,8.9,13.2,15,15,15,15,15,15,15,15,15,15,15,15,15,15,1.1,0.9],"fetchReefNM":[0.7,0.6,0.6,0.5,0.5,0.6,0.6,1.2,1.1,1,1.1,1.1,1.2,1.3,1.5,1.9,2.7,7.1,8.9,13.2,15,15,15,15,15,15,15,15,15,15,15,15,15,15,1.1,0.9]}},{"type":"Feature","geometry":{"type":"Point","coordinates":[153.39249,-27.29264]},"properties":{"id":"osm-node6612831892","name":"Big Sand Hills","kind":"anchorage","source":"OpenStreetMap","sourceRef":"node/6612831892","likelyAnchorage":true,"noAnchoring":false,"noAnchoringName":null,"notes":null,"fetchLandNM":[1.6,1.3,1,0.8,0.7,0.7,0.7,0.6,0.6,0.7,0.7,0.7,0.8,1,1.6,2.9,4.1,2.3,15,12.2,15,14.2,13.1,14.3,13.5,7.3,15,15,15,15,15,15,15,15,15,2.5],"fetchReefNM":[1.6,1.3,1,0.8,0.7,0.7,0.7,0.6,0.6,0.7,0.7,0.7,0.8,1,1.6,2.9,4.1,2.3,15,12.2,15,14.2,13.1,14.3,13.5,7.3,15,15,15,15,15,15,15,15,15,2.5]}},{"type":"Feature","geometry":{"type":"Point","coordinates":[152.61896,-27.34129]},"properties":{"id":"osm-node6267177824","name":"Billies Bay","kind":"anchorage","source":"OpenStreetMap","sourceRef":"node/6267177824","likelyAnchorage":true,"noAnchoring":false,"noAnchoringName":null,"notes":null,"fetchLandNM":[15,15,15,15,15,15,15,15,15,15,15,15,15,15,15,15,15,15,15,15,15,15,15,15,15,15,15,15,15,15,15,15,15,15,15,15],"fetchReefNM":[15,15,15,15,15,15,15,15,15,15,15,15,15,15,15,15,15,15,15,15,15,15,15,15,15,15,15,15,15,15,15,15,15,15,15,15]}},{"type":"Feature","geometry":{"type":"Point","coordinates":[153.39362,-27.32035]},"properties":{"id":"osm-node6612816566","name":"Blue Hole","kind":"anchorage","source":"OpenStreetMap","sourceRef":"node/6612816566","likelyAnchorage":true,"noAnchoring":false,"noAnchoringName":null,"notes":null,"fetchLandNM":[3.2,2.3,1.7,1.3,1.2,1.1,1.1,1.1,1.1,1.2,1.3,1.5,1.8,0.6,0.6,0.7,0.8,0.9,15,10.2,15,13.5,12.8,13.9,13.6,12.9,7.2,15,15,15,15,15,15,15,15,6.5],"fetchReefNM":[3.2,2.3,1.7,1.3,1.2,1.1,1.1,1.1,1.1,1.2,1.3,1.5,1.8,0.6,0.6,0.7,0.8,0.9,15,10.2,15,13.5,12.8,13.9,13.6,12.9,7.2,15,15,15,15,15,15,15,15,6.5]}},{"type":"Feature","geometry":{"type":"Point","coordinates":[153.0805,-27.27738]},"properties":{"id":"osm-node1157097416","name":"Bramble Bay","kind":"anchorage","source":"OpenStreetMap","sourceRef":"node/1157097416","likelyAnchorage":true,"noAnchoring":false,"noAnchoringName":null,"notes":null,"fetchLandNM":[0.8,1.1,1.2,1.4,1.5,1.5,15,15,15,15,15,9.2,15,7.2,7.5,5.7,4.6,3.8,2.7,2.5,2,1.7,1.3,1.1,1,1,0.9,0.9,0.8,0.8,0.8,1.2,1.5,1.7,1.2,0.9],"fetchReefNM":[0.8,1.1,1.2,1.4,1.5,1.5,15,15,15,15,15,9.2,15,7.2,7.5,5.7,4.6,3.8,2.7,2.5,2,1.7,1.3,1.1,1,1,0.9,0.9,0.8,0.8,0.8,1.2,1.5,1.7,1.2,0.9]}},{"type":"Feature","geometry":{"type":"Point","coordinates":[153.37283,-27.67526]},"properties":{"id":"osm-node3020491459","name":"Browns Bay","kind":"anchorage","source":"OpenStreetMap","sourceRef":"node/3020491459","likelyAnchorage":true,"noAnchoring":false,"noAnchoringName":null,"notes":null,"fetchLandNM":[0.4,0.4,0.4,0.3,0.3,0.3,0.3,0.3,0.3,0.3,0.3,0.3,0.3,0.3,0.3,0.3,0.3,0.3,0.6,0.4,0.5,2,1.8,0.8,0.8,0.6,0.6,0.8,0.8,0.9,1,0.3,0.3,0.3,0.3,0.4],"fetchReefNM":[0.4,0.4,0.4,0.3,0.3,0.3,0.3,0.3,0.3,0.3,0.3,0.3,0.3,0.3,0.3,0.3,0.3,0.3,0.6,0.4,0.5,2,1.8,0.8,0.8,0.6,0.6,0.8,0.8,0.9,1,0.3,0.3,0.3,0.3,0.4]}},{"type":"Feature","geometry":{"type":"Point","coordinates":[153.04959,-27.4485]},"properties":{"id":"osm-node13518342362","name":"Bulimba Reach","kind":"anchorage","source":"OpenStreetMap","sourceRef":"node/13518342362","likelyAnchorage":true,"noAnchoring":false,"noAnchoringName":null,"notes":null,"fetchLandNM":[15,7.8,6.9,6.8,7,7.4,6.2,7.1,6.6,7.3,7.9,13.4,15,15,15,15,15,15,15,15,15,15,15,15,15,15,15,15,15,15,15,15,15,15,15,15],"fetchReefNM":[15,7.8,6.9,6.8,7,7.4,6.2,7.1,6.6,7.3,7.9,13.4,15,15,15,15,15,15,15,15,15,15,15,15,15,15,15,15,15,15,15,15,15,15,15,15]}},{"type":"Feature","geometry":{"type":"Point","coordinates":[153.06947,-27.33038]},"properties":{"id":"osm-node8362749899","name":"Cabbage Tree Creek Marina","kind":"marina","source":"OpenStreetMap","sourceRef":"node/8362749899","likelyAnchorage":true,"noAnchoring":false,"noAnchoringName":null,"notes":null,"fetchLandNM":[1.1,0.8,0.7,0.7,0.7,0.8,0.9,1,1,0.7,0.8,1.2,3.9,5.4,9.7,15,15,15,15,15,15,15,15,15,15,15,15,15,15,15,15,15,15,15,15,8.2],"fetchReefNM":[1.1,0.8,0.7,0.7,0.7,0.8,0.9,1,1,0.7,0.8,1.2,3.9,5.4,9.7,15,15,15,15,15,15,15,15,15,15,15,15,15,15,15,15,15,15,15,15,8.2]}},{"type":"Feature","geometry":{"type":"Point","coordinates":[153.00432,-27.5233]},"properties":{"id":"osm-node13518342349","name":"Canoe Reach","kind":"anchorage","source":"OpenStreetMap","sourceRef":"node/13518342349","likelyAnchorage":true,"noAnchoring":false,"noAnchoringName":null,"notes":null,"fetchLandNM":[15,15,12.3,11.9,12.5,11.4,10.3,10.6,12.8,15,15,15,15,15,15,15,15,15,15,15,15,15,15,15,15,15,15,15,15,15,15,15,15,15,15,15],"fetchReefNM":[15,15,12.3,11.9,12.5,11.4,10.3,10.6,12.8,15,15,15,15,15,15,15,15,15,15,15,15,15,15,15,15,15,15,15,15,15,15,15,15,15,15,15]}},{"type":"Feature","geometry":{"type":"Point","coordinates":[153.01856,-27.49448]},"properties":{"id":"osm-node13518342344","name":"Cemetery Reach","kind":"anchorage","source":"OpenStreetMap","sourceRef":"node/13518342344","likelyAnchorage":true,"noAnchoring":false,"noAnchoringName":null,"notes":null,"fetchLandNM":[15,13.9,10.3,10,10.3,9.2,9.6,9,9.4,12.2,14.2,15,15,15,15,15,15,15,15,15,15,15,15,15,15,15,15,15,15,15,15,15,15,15,15,15],"fetchReefNM":[15,13.9,10.3,10,10.3,9.2,9.6,9,9.4,12.2,14.2,15,15,15,15,15,15,15,15,15,15,15,15,15,15,15,15,15,15,15,15,15,15,15,15,15]}},{"type":"Feature","geometry":{"type":"Point","coordinates":[153.3828,-27.51465]},"properties":{"id":"osm-node6531603344","name":"Charted anchorage","kind":"anchorage","source":"OpenStreetMap","sourceRef":"node/6531603344","likelyAnchorage":true,"noAnchoring":false,"noAnchoringName":null,"notes":null,"fetchLandNM":[15,9.2,15,5.8,1.3,1.3,1.4,1.5,1.6,1.6,0.1,0.1,0.1,0.1,0.1,0.1,0.1,7.6,6.2,4.6,6.5,7.7,3.9,5.4,5.7,5.8,4.8,5,1.8,1.7,1.5,1.3,1.2,1,1.3,15],"fetchReefNM":[15,9.2,15,5.8,1.3,1.3,1.4,1.5,1.6,1.6,0.1,0.1,0.1,0.1,0.1,0.1,0.1,7.6,6.2,4.6,6.5,7.7,3.9,5.4,5.7,5.8,4.8,5,1.8,1.7,1.5,1.3,1.2,1,1.3,15]}},{"type":"Feature","geometry":{"type":"Point","coordinates":[153.36472,-27.60524]},"properties":{"id":"osm-node8320305625","name":"Charted anchorage","kind":"anchorage","source":"OpenStreetMap","sourceRef":"node/8320305625","likelyAnchorage":true,"noAnchoring":false,"noAnchoringName":null,"notes":null,"fetchLandNM":[0.8,0.8,6.5,4.7,3.9,3.2,3,2.7,2.6,2.5,2.3,0.2,0.2,0.2,0.2,0.2,0.2,0.3,0.7,0.6,0.6,0.5,0.3,0.3,0.3,0.3,0.3,0.2,0.2,0.2,0.3,0.3,0.3,0.2,0.4,0.6],"fetchReefNM":[0.8,0.8,6.5,4.7,3.9,3.2,3,2.7,2.6,2.5,2.3,0.2,0.2,0.2,0.2,0.2,0.2,0.3,0.7,0.6,0.6,0.5,0.3,0.3,0.3,0.3,0.3,0.2,0.2,0.2,0.3,0.3,0.3,0.2,0.4,0.6]}},{"type":"Feature","geometry":{"type":"Point","coordinates":[153.35369,-27.58841]},"properties":{"id":"osm-node8320305626","name":"Charted anchorage","kind":"anchorage","source":"OpenStreetMap","sourceRef":"node/8320305626","likelyAnchorage":true,"noAnchoring":false,"noAnchoringName":null,"notes":null,"fetchLandNM":[5,5.3,15,0.3,0.3,0.3,0.2,0.2,0.2,0.2,0.2,0.2,0.2,0.2,0.1,0.1,0.1,0.1,0.4,0.8,2.1,1.3,3.4,2.9,2.9,2.8,2.8,2.2,2,2.7,1.6,1.3,1.3,1.7,15,5.5],"fetchReefNM":[5,5.3,15,0.3,0.3,0.3,0.2,0.2,0.2,0.2,0.2,0.2,0.2,0.2,0.1,0.1,0.1,0.1,0.4,0.8,2.1,1.3,3.4,2.9,2.9,2.8,2.8,2.2,2,2.7,1.6,1.3,1.3,1.7,15,5.5]}},{"type":"Feature","geometry":{"type":"Point","coordinates":[153.31012,-27.5913]},"properties":{"id":"osm-node8320305654","name":"Charted anchorage","kind":"anchorage","source":"OpenStreetMap","sourceRef":"node/8320305654","likelyAnchorage":true,"noAnchoring":false,"noAnchoringName":null,"notes":null,"fetchLandNM":[0.1,0.1,0.1,0.1,0.1,0.2,6.1,5.7,2.5,2.3,2.3,2.2,1.7,1.8,1.2,4.5,2.9,3.9,1.5,1.3,1.1,0.9,0.7,0.5,0.5,0.3,0.2,0.2,0.2,0.2,0.2,0.1,0.1,0.1,0.1,0.1],"fetchReefNM":[0.1,0.1,0.1,0.1,0.1,0.2,6.1,5.7,2.5,2.3,2.3,2.2,1.7,1.8,1.2,4.5,2.9,3.9,1.5,1.3,1.1,0.9,0.7,0.5,0.5,0.3,0.2,0.2,0.2,0.2,0.2,0.1,0.1,0.1,0.1,0.1]}},{"type":"Feature","geometry":{"type":"Point","coordinates":[153.3165,-27.58452]},"properties":{"id":"osm-node8320305655","name":"Charted anchorage","kind":"anchorage","source":"OpenStreetMap","sourceRef":"node/8320305655","likelyAnchorage":true,"noAnchoring":false,"noAnchoringName":null,"notes":null,"fetchLandNM":[0.1,0.1,0.2,0.1,0.7,0.9,1.1,5.4,5.1,2.2,2.1,2.1,2.1,2.3,1.7,2,1.4,3.5,4.3,2,1.8,1.4,0.3,0.3,0.3,0.3,0.2,0.2,0.2,0.2,0.1,0.1,0.1,0.1,0.1,0.1],"fetchReefNM":[0.1,0.1,0.2,0.1,0.7,0.9,1.1,5.4,5.1,2.2,2.1,2.1,2.1,2.3,1.7,2,1.4,3.5,4.3,2,1.8,1.4,0.3,0.3,0.3,0.3,0.2,0.2,0.2,0.2,0.1,0.1,0.1,0.1,0.1,0.1]}},{"type":"Feature","geometry":{"type":"Point","coordinates":[153.32259,-27.58614]},"properties":{"id":"osm-node8320305656","name":"Charted anchorage","kind":"anchorage","source":"OpenStreetMap","sourceRef":"node/8320305656","likelyAnchorage":true,"noAnchoring":false,"noAnchoringName":null,"notes":null,"fetchLandNM":[0.7,0.7,0.7,0.8,0.9,6.2,5.4,5,4.7,1.8,1.7,1.7,1.8,1.9,1.4,1.5,1.8,3.1,4.1,3.1,2,1.8,1.6,1.4,1.2,0.6,0.5,0.6,0.5,0.5,0.4,0.4,0.4,4.1,12.9,0.8],"fetchReefNM":[0.7,0.7,0.7,0.8,0.9,6.2,5.4,5,4.7,1.8,1.7,1.7,1.8,1.9,1.4,1.5,1.8,3.1,4.1,3.1,2,1.8,1.6,1.4,1.2,0.6,0.5,0.6,0.5,0.5,0.4,0.4,0.4,4.1,12.9,0.8]}},{"type":"Feature","geometry":{"type":"Point","coordinates":[153.30696,-27.5736]},"properties":{"id":"osm-node8320305666","name":"Charted anchorage","kind":"anchorage","source":"OpenStreetMap","sourceRef":"node/8320305666","likelyAnchorage":true,"noAnchoring":false,"noAnchoringName":null,"notes":null,"fetchLandNM":[0.2,0.2,4.8,4.1,10.5,5.3,6.5,1.3,1.1,0.7,2.8,2.8,2.8,0.5,0.6,0.6,0.5,0.3,0.2,0.2,0.1,0.1,0.1,0.1,0.1,0.1,0.1,0.1,0.1,0.1,0.1,0.1,0.1,0.1,0.1,0.2],"fetchReefNM":[0.2,0.2,4.8,4.1,10.5,5.3,6.5,1.3,1.1,0.7,2.8,2.8,2.8,0.5,0.6,0.6,0.5,0.3,0.2,0.2,0.1,0.1,0.1,0.1,0.1,0.1,0.1,0.1,0.1,0.1,0.1,0.1,0.1,0.1,0.1,0.2]}},{"type":"Feature","geometry":{"type":"Point","coordinates":[153.19765,-27.47657]},"properties":{"id":"osm-node8365797428","name":"Charted anchorage","kind":"anchorage","source":"OpenStreetMap","sourceRef":"node/8365797428","likelyAnchorage":true,"noAnchoring":false,"noAnchoringName":null,"notes":null,"fetchLandNM":[0.2,0.2,0.2,0.2,0.2,0.2,0.2,0.2,0.2,0.2,0.3,0.3,0.4,5.7,9,11.8,15,15,15,15,15,15,15,15,15,15,15,15,15,15,15,15,15,5.6,0.4,0.3],"fetchReefNM":[0.2,0.2,0.2,0.2,0.2,0.2,0.2,0.2,0.2,0.2,0.3,0.3,0.4,5.7,9,11.8,15,15,15,15,15,15,15,15,15,15,15,15,15,15,15,15,15,5.6,0.4,0.3]}},{"type":"Feature","geometry":{"type":"Point","coordinates":[153.24224,-27.46739]},"properties":{"id":"osm-node8365797429","name":"Charted anchorage","kind":"anchorage","source":"OpenStreetMap","sourceRef":"node/8365797429","likelyAnchorage":true,"noAnchoring":false,"noAnchoringName":null,"notes":null,"fetchLandNM":[7.4,15,15,15,13.5,11.1,15,11,10.4,9.7,8.7,5.3,10.4,11.9,3.7,1.8,1.6,1.1,1.2,0.5,0.4,0.2,0.1,0.1,0.1,0.1,0.1,0.1,0.1,0.1,0.1,0.1,0.1,0.1,7,2.3],"fetchReefNM":[7.4,15,15,15,13.5,11.1,15,11,10.4,9.7,8.7,5.3,10.4,11.9,3.7,1.8,1.6,1.1,1.2,0.5,0.4,0.2,0.1,0.1,0.1,0.1,0.1,0.1,0.1,0.1,0.1,0.1,0.1,0.1,7,2.3]}},{"type":"Feature","geometry":{"type":"Point","coordinates":[153.22673,-27.42403]},"properties":{"id":"osm-node8424541814","name":"Charted anchorage","kind":"anchorage","source":"OpenStreetMap","sourceRef":"node/8424541814","likelyAnchorage":true,"noAnchoring":false,"noAnchoringName":null,"notes":null,"fetchLandNM":[0.2,0.2,0.2,0.2,0.2,0.2,0.2,0.2,0.2,0.2,0.2,0.3,0.4,8.1,15,6.3,4.4,2,3.5,3.5,3.6,3.3,2.7,2.6,2.6,2.9,3,3.1,2.9,3,3.7,3.5,3.6,3.8,15,15],"fetchReefNM":[0.2,0.2,0.2,0.2,0.2,0.2,0.2,0.2,0.2,0.2,0.2,0.3,0.4,8.1,15,6.3,4.4,2,3.5,3.5,3.6,3.3,2.7,2.6,2.6,2.9,3,3.1,2.9,3,3.7,3.5,3.6,3.8,15,15]}},{"type":"Feature","geometry":{"type":"Point","coordinates":[153.22585,-27.38676]},"properties":{"id":"osm-node8424541815","name":"Charted anchorage","kind":"anchorage","source":"OpenStreetMap","sourceRef":"node/8424541815","likelyAnchorage":true,"noAnchoring":false,"noAnchoringName":null,"notes":null,"fetchLandNM":[15,15,2.7,2.7,12.5,0.4,0.3,0.2,0.2,0.2,0.2,0.2,0.3,0.3,0.3,0.3,0.3,0.3,0.3,0.3,0.2,4.1,4.2,3.8,3.2,3,3.3,2.6,2.4,2.2,2.2,2.2,2.4,11.7,15,15],"fetchReefNM":[15,15,2.7,2.7,12.5,0.4,0.3,0.2,0.2,0.2,0.2,0.2,0.3,0.3,0.3,0.3,0.3,0.3,0.3,0.3,0.2,4.1,4.2,3.8,3.2,3,3.3,2.6,2.4,2.2,2.2,2.2,2.4,11.7,15,15]}},{"type":"Feature","geometry":{"type":"Point","coordinates":[153.03116,-27.47943]},"properties":{"id":"osm-node9654958386","name":"Charted anchorage","kind":"anchorage","source":"OpenStreetMap","sourceRef":"node/9654958386","likelyAnchorage":true,"noAnchoring":false,"noAnchoringName":null,"notes":null,"fetchLandNM":[15,10.7,9.1,8.9,9.2,7.6,8.8,8,8.4,9.2,12.4,14.7,15,15,15,15,15,15,15,15,15,15,15,15,15,15,15,15,15,15,15,15,15,15,15,15],"fetchReefNM":[15,10.7,9.1,8.9,9.2,7.6,8.8,8,8.4,9.2,12.4,14.7,15,15,15,15,15,15,15,15,15,15,15,15,15,15,15,15,15,15,15,15,15,15,15,15]}},{"type":"Feature","geometry":{"type":"Point","coordinates":[153.05342,-27.47088]},"properties":{"id":"osm-node9655007862","name":"Charted anchorage","kind":"anchorage","source":"OpenStreetMap","sourceRef":"node/9655007862","likelyAnchorage":true,"noAnchoring":false,"noAnchoringName":null,"notes":null,"fetchLandNM":[15,9.1,8,8,8.4,6.8,7.4,6.7,7.2,7.5,11.2,12.5,15,15,15,15,15,15,15,15,15,15,15,15,15,15,15,15,15,15,15,15,15,15,15,15],"fetchReefNM":[15,9.1,8,8,8.4,6.8,7.4,6.7,7.2,7.5,11.2,12.5,15,15,15,15,15,15,15,15,15,15,15,15,15,15,15,15,15,15,15,15,15,15,15,15]}},{"type":"Feature","geometry":{"type":"Point","coordinates":[153.40039,-27.69963]},"properties":{"id":"osm-node12901220935","name":"Charted anchorage","kind":"anchorage","source":"OpenStreetMap","sourceRef":"node/12901220935","likelyAnchorage":true,"noAnchoring":false,"noAnchoringName":null,"notes":null,"fetchLandNM":[0.7,0.5,0.1,0.1,0.1,0,0,0,0,0,0,0,0,0,0,0.1,0.1,0.1,0.2,0.2,0.3,0.4,0.5,1.2,0.7,0.2,0.1,0.1,0.1,0.1,0.1,0.2,0.2,0.6,0.5,2.7],"fetchReefNM":[0.7,0.5,0.1,0.1,0.1,0,0,0,0,0,0,0,0,0,0,0.1,0.1,0.1,0.2,0.2,0.3,0.4,0.5,1.2,0.7,0.2,0.1,0.1,0.1,0.1,0.1,0.2,0.2,0.6,0.5,2.7]}},{"type":"Feature","geometry":{"type":"Point","coordinates":[153.38632,-27.71097]},"properties":{"id":"osm-node12901220936","name":"Charted anchorage","kind":"anchorage","source":"OpenStreetMap","sourceRef":"node/12901220936","likelyAnchorage":true,"noAnchoring":false,"noAnchoringName":null,"notes":null,"fetchLandNM":[0.2,0.2,0.3,0.8,0.8,1,0.4,0.1,0.1,0,0,0,0,0,0.2,0.1,0.1,0.1,0,0,0,0.1,0.1,0.1,0.1,0.2,0.3,0.4,1.7,1.9,0.3,0.2,0.1,0.1,0.1,0.2],"fetchReefNM":[0.2,0.2,0.3,0.8,0.8,1,0.4,0.1,0.1,0,0,0,0,0,0.2,0.1,0.1,0.1,0,0,0,0.1,0.1,0.1,0.1,0.2,0.3,0.4,1.7,1.9,0.3,0.2,0.1,0.1,0.1,0.2]}},{"type":"Feature","geometry":{"type":"Point","coordinates":[152.9676,-27.51007]},"properties":{"id":"osm-node13518342351","name":"Chelmer Reach","kind":"anchorage","source":"OpenStreetMap","sourceRef":"node/13518342351","likelyAnchorage":true,"noAnchoring":false,"noAnchoringName":null,"notes":null,"fetchLandNM":[15,15,15,12.4,12.4,13.1,12.6,11.9,12.5,15,15,15,15,15,15,15,15,15,15,15,15,15,15,15,15,15,15,15,15,15,15,15,15,15,15,15],"fetchReefNM":[15,15,15,12.4,12.4,13.1,12.6,11.9,12.5,15,15,15,15,15,15,15,15,15,15,15,15,15,15,15,15,15,15,15,15,15,15,15,15,15,15,15]}},{"type":"Feature","geometry":{"type":"Point","coordinates":[153.35638,-27.86997]},"properties":{"id":"osm-way122112973","name":"Cova Marina","kind":"marina","source":"OpenStreetMap","sourceRef":"way/122112973","likelyAnchorage":true,"noAnchoring":false,"noAnchoringName":null,"notes":null,"fetchLandNM":[0,0,0.1,0.1,0.1,0.1,0.1,0.1,0.1,0,0,0.1,0.1,0.1,0.1,0.1,0.1,0.1,0.1,0.1,0,0,0,0.1,0.1,0.1,0.1,0.1,0.1,0,0,0,0,0,0,0],"fetchReefNM":[0,0,0.1,0.1,0.1,0.1,0.1,0.1,0.1,0,0,0.1,0.1,0.1,0.1,0.1,0.1,0.1,0.1,0.1,0,0,0,0.1,0.1,0.1,0.1,0.1,0.1,0,0,0,0,0,0,0]}},{"type":"Feature","geometry":{"type":"Point","coordinates":[153.3643,-27.58764]},"properties":{"id":"osm-node587667058","name":"Cow Bay","kind":"anchorage","source":"OpenStreetMap","sourceRef":"node/587667058","likelyAnchorage":true,"noAnchoring":false,"noAnchoringName":null,"notes":null,"fetchLandNM":[0.2,15,5.6,5.2,3.8,3.3,2.8,2.6,2.6,2.5,2.7,2.7,0.2,0.2,0.1,0.1,0.1,0.1,0.1,0.1,0.1,0.1,0.1,0.1,0.1,0.1,0.1,0.1,0.1,0.1,0.1,0.1,0.1,0.1,0.1,0.1],"fetchReefNM":[0.2,15,5.6,5.2,3.8,3.3,2.8,2.6,2.6,2.5,2.7,2.7,0.2,0.2,0.1,0.1,0.1,0.1,0.1,0.1,0.1,0.1,0.1,0.1,0.1,0.1,0.1,0.1,0.1,0.1,0.1,0.1,0.1,0.1,0.1,0.1]}},{"type":"Feature","geometry":{"type":"Point","coordinates":[153.35521,-27.5873]},"properties":{"id":"osm-node587665048","name":"Dalpura Bay","kind":"anchorage","source":"OpenStreetMap","sourceRef":"node/587665048","likelyAnchorage":true,"noAnchoring":false,"noAnchoringName":null,"notes":null,"fetchLandNM":[5,5.3,0.3,0.2,0.2,0.1,0.1,0.1,0.1,0.1,0.1,0.2,0.2,0.2,0.2,0.2,0.2,0.2,0.2,0.2,2.3,1.6,3.5,3,3,3,2.9,2.3,2,2.8,1.5,1.3,1.4,13.4,15,5.4],"fetchReefNM":[5,5.3,0.3,0.2,0.2,0.1,0.1,0.1,0.1,0.1,0.1,0.2,0.2,0.2,0.2,0.2,0.2,0.2,0.2,0.2,2.3,1.6,3.5,3,3,3,2.9,2.3,2,2.8,1.5,1.3,1.4,13.4,15,5.4]}},{"type":"Feature","geometry":{"type":"Point","coordinates":[153.40695,-27.51619]},"properties":{"id":"osm-node6535108398","name":"Deanbilla Bay","kind":"anchorage","source":"OpenStreetMap","sourceRef":"node/6535108398","likelyAnchorage":true,"noAnchoring":false,"noAnchoringName":null,"notes":null,"fetchLandNM":[0.7,0.6,0.6,0.5,0.5,0.4,0.4,0.4,0.4,0.4,0.4,0.4,0.3,0.4,0.4,0.5,0.7,0.9,7.3,6.3,5.9,4.6,7.9,4.7,6,6.9,6.9,1.2,3,2.6,2,11.5,13.2,15,0.8,0.8],"fetchReefNM":[0.7,0.6,0.6,0.5,0.5,0.4,0.4,0.4,0.4,0.4,0.4,0.4,0.3,0.4,0.4,0.5,0.7,0.9,7.3,6.3,5.9,4.6,7.9,4.7,6,6.9,6.9,1.2,3,2.6,2,11.5,13.2,15,0.8,0.8]}},{"type":"Feature","geometry":{"type":"Point","coordinates":[153.40433,-27.50595]},"properties":{"id":"osm-node6535108399","name":"Deanbilla Bay","kind":"anchorage","source":"OpenStreetMap","sourceRef":"node/6535108399","likelyAnchorage":true,"noAnchoring":false,"noAnchoringName":null,"notes":null,"fetchLandNM":[0.2,0.2,0.2,0.2,0.2,0.2,0.2,0.2,0.2,0.3,0.3,0.4,0.5,0.6,0.8,0.9,1.1,1.6,7.9,7,6.8,6.8,8.3,6.7,1.2,6.9,1,2.8,1.8,1.7,14.1,0.3,0.2,0.2,0.2,0.2],"fetchReefNM":[0.2,0.2,0.2,0.2,0.2,0.2,0.2,0.2,0.2,0.3,0.3,0.4,0.5,0.6,0.8,0.9,1.1,1.6,7.9,7,6.8,6.8,8.3,6.7,1.2,6.9,1,2.8,1.8,1.7,14.1,0.3,0.2,0.2,0.2,0.2]}},{"type":"Feature","geometry":{"type":"Point","coordinates":[153.08911,-27.15322]},"properties":{"id":"osm-node3020491769","name":"Deception Bay","kind":"anchorage","source":"OpenStreetMap","sourceRef":"node/3020491769","likelyAnchorage":true,"noAnchoring":false,"noAnchoringName":null,"notes":null,"fetchLandNM":[3.3,3.9,4.3,4.6,5.7,5.2,15,15,15,14.9,15,15,15,15,13.8,2.6,2.5,3,3.1,3,3,3.1,3.3,3.7,3.6,3.2,3.1,2.8,2.3,2.2,2.3,2.3,2.5,2.7,2.9,3.1],"fetchReefNM":[3.3,3.9,4.3,4.6,5.7,5.2,15,15,15,14.9,15,15,15,15,13.8,2.6,2.5,3,3.1,3,3,3.1,3.3,3.7,3.6,3.2,3.1,2.8,2.3,2.2,2.3,2.3,2.5,2.7,2.9,3.1]}},{"type":"Feature","geometry":{"type":"Point","coordinates":[153.11534,-27.43553]},"properties":{"id":"osm-node13518342366","name":"Eagle Farm Flats Reach","kind":"anchorage","source":"OpenStreetMap","sourceRef":"node/13518342366","likelyAnchorage":false,"noAnchoring":false,"noAnchoringName":null,"notes":null,"fetchLandNM":[5.1,4.8,4.5,2.6,3,3.2,3.6,3.1,3,3.1,3.9,4.2,9,13.4,15,15,15,15,15,15,15,15,15,15,15,15,15,15,15,15,15,15,15,15,15,5.7],"fetchReefNM":[5.1,4.8,4.5,2.6,3,3.2,3.6,3.1,3,3.1,3.9,4.2,9,13.4,15,15,15,15,15,15,15,15,15,15,15,15,15,15,15,15,15,15,15,15,15,5.7]}},{"type":"Feature","geometry":{"type":"Point","coordinates":[153.40037,-27.8847]},"properties":{"id":"osm-way396537759","name":"Ephraim Island Marina","kind":"marina","source":"OpenStreetMap","sourceRef":"way/396537759","likelyAnchorage":true,"noAnchoring":false,"noAnchoringName":null,"notes":null,"fetchLandNM":[0.2,0.2,0.2,0.3,0.2,0.2,0.1,0.1,0,0,0,0,0,0,0,0,0,0.1,0.5,0.4,0.3,0.3,0.3,0.2,0.2,0.2,0.2,0.2,0.2,0.2,0.2,0.2,0.3,0.3,0.3,0.4],"fetchReefNM":[0.2,0.2,0.2,0.3,0.2,0.2,0.1,0.1,0,0,0,0,0,0,0,0,0,0.1,0.5,0.4,0.3,0.3,0.3,0.2,0.2,0.2,0.2,0.2,0.2,0.2,0.2,0.2,0.3,0.3,0.3,0.4]}},{"type":"Feature","geometry":{"type":"Point","coordinates":[153.41038,-27.76106]},"properties":{"id":"osm-node4336260619","name":"Five Ways","kind":"anchorage","source":"OpenStreetMap","sourceRef":"node/4336260619","likelyAnchorage":true,"noAnchoring":false,"noAnchoringName":null,"notes":null,"fetchLandNM":[0.2,0.2,0.2,0.2,0.3,0.4,0.6,1.6,1.6,0.1,0.1,0.2,0.3,0.5,0.4,0.2,0.1,0.1,0.1,0.1,0.1,0.1,0.2,0.3,0.1,0.1,0.1,0.5,0.4,0.3,0.3,0.4,0.3,0.2,0.2,0.2],"fetchReefNM":[0.2,0.2,0.2,0.2,0.3,0.4,0.6,1.6,1.6,0.1,0.1,0.2,0.3,0.5,0.4,0.2,0.1,0.1,0.1,0.1,0.1,0.1,0.2,0.3,0.1,0.1,0.1,0.5,0.4,0.3,0.3,0.4,0.3,0.2,0.2,0.2]}},{"type":"Feature","geometry":{"type":"Point","coordinates":[153.03189,-27.47449]},"properties":{"id":"osm-way483862886","name":"Gardens Point Boat Harbour","kind":"marina","source":"OpenStreetMap","sourceRef":"way/483862886","likelyAnchorage":true,"noAnchoring":false,"noAnchoringName":null,"notes":null,"fetchLandNM":[15,10.4,8.9,8.6,8.7,7.7,8.6,7.9,8.4,8.9,12.4,14.4,15,15,15,15,15,15,15,15,15,15,15,15,15,15,15,15,15,15,15,15,15,15,15,15],"fetchReefNM":[15,10.4,8.9,8.6,8.7,7.7,8.6,7.9,8.4,8.9,12.4,14.4,15,15,15,15,15,15,15,15,15,15,15,15,15,15,15,15,15,15,15,15,15,15,15,15]}},{"type":"Feature","geometry":{"type":"Point","coordinates":[153.33679,-27.86205]},"properties":{"id":"osm-node10142036548","name":"Gold Coast City Marina","kind":"marina","source":"OpenStreetMap","sourceRef":"node/10142036548","likelyAnchorage":true,"noAnchoring":false,"noAnchoringName":null,"notes":null,"fetchLandNM":[0,0,0,0,0,0,0,0,0.1,0.1,0.3,0.1,0.1,0.1,0,0,0,0,0,0,0,0,0,0,0,0.1,0.1,0.1,0.1,0.1,0.1,0,0,0,0,0],"fetchReefNM":[0,0,0,0,0,0,0,0,0.1,0.1,0.3,0.1,0.1,0.1,0,0,0,0,0,0,0,0,0,0,0,0.1,0.1,0.1,0.1,0.1,0.1,0,0,0,0,0]}},{"type":"Feature","geometry":{"type":"Point","coordinates":[153.11165,-26.37797]},"properties":{"id":"osm-node2873300633","name":"Granite Bay","kind":"anchorage","source":"OpenStreetMap","sourceRef":"node/2873300633","likelyAnchorage":true,"noAnchoring":false,"noAnchoringName":null,"notes":null,"fetchLandNM":[15,15,15,15,15,15,15,0.2,0.1,0.1,0.1,0.1,0.1,0.1,0.1,0.1,0.1,0.1,0.1,0.1,0.1,0.1,0.1,0.1,0.1,0.1,0.1,0.1,0.2,2.4,2.8,3.3,4.1,5.2,6.9,9.8],"fetchReefNM":[15,15,15,15,15,15,15,0.2,0.1,0.1,0.1,0.1,0.1,0.1,0.1,0.1,0.1,0.1,0.1,0.1,0.1,0.1,0.1,0.1,0.1,0.1,0.1,0.1,0.2,2.4,2.8,3.3,4.1,5.2,6.9,9.8]}},{"type":"Feature","geometry":{"type":"Point","coordinates":[153.07248,-27.44399]},"properties":{"id":"osm-node13518342363","name":"Hamilton Reach","kind":"anchorage","source":"OpenStreetMap","sourceRef":"node/13518342363","likelyAnchorage":true,"noAnchoring":false,"noAnchoringName":null,"notes":null,"fetchLandNM":[7.6,6.3,6,6.1,6.5,4.9,5.1,5.8,5.4,5.7,6.4,10.7,12.7,15,15,15,15,15,15,15,15,15,15,15,15,15,15,15,15,15,15,15,15,15,15,15],"fetchReefNM":[7.6,6.3,6,6.1,6.5,4.9,5.1,5.8,5.4,5.7,6.4,10.7,12.7,15,15,15,15,15,15,15,15,15,15,15,15,15,15,15,15,15,15,15,15,15,15,15]}},{"type":"Feature","geometry":{"type":"Point","coordinates":[153.07319,-27.26644]},"properties":{"id":"osm-node3020492439","name":"Hays Inlet","kind":"anchorage","source":"OpenStreetMap","sourceRef":"node/3020492439","likelyAnchorage":true,"noAnchoring":false,"noAnchoringName":null,"notes":null,"fetchLandNM":[0.5,0.4,0.4,0.4,0.3,0.3,0.4,1.5,1.6,15,15,15,15,7.9,8.2,6.4,5.2,3.5,3.1,2.3,1.3,1.1,0.5,0.4,0.4,0.4,0.4,0.4,0.6,0.7,0.7,0.7,0.6,0.9,1.1,0.8],"fetchReefNM":[0.5,0.4,0.4,0.4,0.3,0.3,0.4,1.5,1.6,15,15,15,15,7.9,8.2,6.4,5.2,3.5,3.1,2.3,1.3,1.1,0.5,0.4,0.4,0.4,0.4,0.4,0.6,0.7,0.7,0.7,0.6,0.9,1.1,0.8]}},{"type":"Feature","geometry":{"type":"Point","coordinates":[153.46056,-27.02531]},"properties":{"id":"osm-way658702085","name":"Honeymoon Bay","kind":"anchorage","source":"OpenStreetMap","sourceRef":"way/658702085","likelyAnchorage":true,"noAnchoring":false,"noAnchoringName":null,"notes":null,"fetchLandNM":[15,15,15,15,15,15,15,15,15,15,15,0.3,0.3,0.2,0.2,0.2,0.1,0.1,0.1,0.1,0.1,0.1,0.1,0.1,0.1,0.1,0.1,0.1,0.1,0.3,0.3,15,15,15,15,15],"fetchReefNM":[15,15,15,15,15,15,15,15,15,15,15,0.3,0.3,0.2,0.2,0.2,0.1,0.1,0.1,0.1,0.1,0.1,0.1,0.1,0.1,0.1,0.1,0.1,0.1,0.3,0.3,15,15,15,15,15]}},{"type":"Feature","geometry":{"type":"Point","coordinates":[153.37446,-27.8693]},"properties":{"id":"osm-way1248139223","name":"Hope Harbour Marina","kind":"marina","source":"OpenStreetMap","sourceRef":"way/1248139223","likelyAnchorage":true,"noAnchoring":false,"noAnchoringName":null,"notes":null,"fetchLandNM":[0,0,0,0,0,0,0,0,0,0.3,0.3,0.3,0.3,0.3,0.2,0.2,0.2,0.2,0.2,0.2,0.2,0.2,0.2,0.3,0,0,0,0,0,0,0,0,0,0,0,0],"fetchReefNM":[0,0,0,0,0,0,0,0,0,0.3,0.3,0.3,0.3,0.3,0.2,0.2,0.2,0.2,0.2,0.2,0.2,0.2,0.2,0.3,0,0,0,0,0,0,0,0,0,0,0,0]}},{"type":"Feature","geometry":{"type":"Point","coordinates":[153.34784,-27.75283]},"properties":{"id":"osm-way174080997","name":"Horizon Shores","kind":"marina","source":"OpenStreetMap","sourceRef":"way/174080997","likelyAnchorage":true,"noAnchoring":false,"noAnchoringName":null,"notes":null,"fetchLandNM":[3.5,1.6,1.4,0.1,0.1,0.2,0.2,0.2,0.2,0.2,0.2,0.2,0.3,0.4,0.6,1.3,3.6,5.8,6.3,15,15,15,15,15,15,15,15,15,15,15,15,15,15,15,3.5,3.3],"fetchReefNM":[3.5,1.6,1.4,0.1,0.1,0.2,0.2,0.2,0.2,0.2,0.2,0.2,0.3,0.4,0.6,1.3,3.6,5.8,6.3,15,15,15,15,15,15,15,15,15,15,15,15,15,15,15,3.5,3.3]}},{"type":"Feature","geometry":{"type":"Point","coordinates":[153.36379,-27.50131]},"properties":{"id":"osm-node732073362","name":"Horse Shoe Bay","kind":"anchorage","source":"OpenStreetMap","sourceRef":"node/732073362","likelyAnchorage":true,"noAnchoring":false,"noAnchoringName":null,"notes":null,"fetchLandNM":[0,0.1,0.1,0.1,0.1,0.1,0.2,0.3,0.4,2,2.6,1.2,2.9,1.4,4,4.9,6.9,7.2,4.9,7,4,5.6,4.9,1.2,0.8,0.5,0.3,0.1,0.1,0.1,0.1,0.1,0.1,0,0,0],"fetchReefNM":[0,0.1,0.1,0.1,0.1,0.1,0.2,0.3,0.4,2,2.6,1.2,2.9,1.4,4,4.9,6.9,7.2,4.9,7,4,5.6,4.9,1.2,0.8,0.5,0.3,0.1,0.1,0.1,0.1,0.1,0.1,0,0,0]}},{"type":"Feature","geometry":{"type":"Point","coordinates":[153.36145,-27.50482]},"properties":{"id":"osm-node6531603350","name":"Horseshoe Bay","kind":"anchorage","source":"OpenStreetMap","sourceRef":"node/6531603350","likelyAnchorage":true,"noAnchoring":false,"noAnchoringName":null,"notes":null,"fetchLandNM":[0.2,0.2,0.3,0.3,0.4,0.5,0.5,2.5,2.1,2.5,1.3,2.8,1.4,3.4,4.1,5.4,9.1,6.8,4.6,6.1,3.8,5.3,4.6,5,0.9,0.6,0.5,0.4,0.3,0.3,0.3,0.2,0.2,0.2,0.2,0.2],"fetchReefNM":[0.2,0.2,0.3,0.3,0.4,0.5,0.5,2.5,2.1,2.5,1.3,2.8,1.4,3.4,4.1,5.4,9.1,6.8,4.6,6.1,3.8,5.3,4.6,5,0.9,0.6,0.5,0.4,0.3,0.3,0.3,0.2,0.2,0.2,0.2,0.2]}},{"type":"Feature","geometry":{"type":"Point","coordinates":[153.05049,-27.47491]},"properties":{"id":"osm-node13518342339","name":"Humbug Reach","kind":"anchorage","source":"OpenStreetMap","sourceRef":"node/13518342339","likelyAnchorage":true,"noAnchoring":false,"noAnchoringName":null,"notes":null,"fetchLandNM":[15,9.3,8.3,8.3,8.7,7.1,7.6,7,7.5,8,11.5,13,15,15,15,15,15,15,15,15,15,15,15,15,15,15,15,15,15,15,15,15,15,15,15,15],"fetchReefNM":[15,9.3,8.3,8.3,8.7,7.1,7.6,7,7.5,8,11.5,13,15,15,15,15,15,15,15,15,15,15,15,15,15,15,15,15,15,15,15,15,15,15,15,15]}},{"type":"Feature","geometry":{"type":"Point","coordinates":[153.42431,-27.96707]},"properties":{"id":"osm-way436814085","name":"Imperial Hotel Gold Coast Marina","kind":"marina","source":"OpenStreetMap","sourceRef":"way/436814085","likelyAnchorage":true,"noAnchoring":false,"noAnchoringName":null,"notes":null,"fetchLandNM":[0.2,0.2,0.2,0.2,0.2,0.1,0.1,0.1,0.1,0.1,0.1,0.1,0.1,0.1,0.1,0.1,0.4,0.4,0.4,0.4,0.4,0.4,0.3,0.3,0.3,0.3,0.3,0.3,0.3,0.4,0.5,0.7,1.2,1.5,2.8,1.7],"fetchReefNM":[0.2,0.2,0.2,0.2,0.2,0.1,0.1,0.1,0.1,0.1,0.1,0.1,0.1,0.1,0.1,0.1,0.4,0.4,0.4,0.4,0.4,0.4,0.3,0.3,0.3,0.3,0.3,0.3,0.3,0.4,0.5,0.7,1.2,1.5,2.8,1.7]}},{"type":"Feature","geometry":{"type":"Point","coordinates":[152.9803,-27.50951]},"properties":{"id":"osm-node13518342350","name":"Indooroopilly Reach","kind":"anchorage","source":"OpenStreetMap","sourceRef":"node/13518342350","likelyAnchorage":true,"noAnchoring":false,"noAnchoringName":null,"notes":null,"fetchLandNM":[15,15,13.2,11.8,12.1,12.5,11.9,11.3,11.9,15,15,15,15,15,15,15,15,15,15,15,15,15,15,15,15,15,15,15,15,15,15,15,15,15,15,15],"fetchReefNM":[15,15,13.2,11.8,12.1,12.5,11.9,11.3,11.9,15,15,15,15,15,15,15,15,15,15,15,15,15,15,15,15,15,15,15,15,15,15,15,15,15,15,15]}},{"type":"Feature","geometry":{"type":"Point","coordinates":[153.17213,-27.36195]},"properties":{"id":"osm-node13518342376","name":"Inner Bar Reach","kind":"anchorage","source":"OpenStreetMap","sourceRef":"node/13518342376","likelyAnchorage":true,"noAnchoring":false,"noAnchoringName":null,"notes":null,"fetchLandNM":[15,15,15,15,15,0.9,0.6,0.4,0.4,0.3,0.3,0.3,0.3,0.3,0.3,0.3,0.3,0.4,0.5,0.7,1.2,2.3,1.1,1.1,0.9,0.9,0.9,1,2.5,4.9,6.5,7.6,7.7,6.9,8.8,15],"fetchReefNM":[15,15,15,15,15,0.9,0.6,0.4,0.4,0.3,0.3,0.3,0.3,0.3,0.3,0.3,0.3,0.4,0.5,0.7,1.2,2.3,1.1,1.1,0.9,0.9,0.9,1,2.5,4.9,6.5,7.6,7.7,6.9,8.8,15]}},{"type":"Feature","geometry":{"type":"Point","coordinates":[153.44635,-27.73451]},"properties":{"id":"osm-node4336263819","name":"Jumpinpin","kind":"anchorage","source":"OpenStreetMap","sourceRef":"node/4336263819","likelyAnchorage":true,"noAnchoring":false,"noAnchoringName":null,"notes":null,"fetchLandNM":[0.2,0.2,0.3,0.3,15,15,15,15,15,15,15,15,15,15,15,15,15,0.3,0.2,0.2,0.2,0.2,0.2,0.5,1.4,2.4,0.8,0.6,0.6,0.8,0.9,0.9,1,0.3,0.3,0.3],"fetchReefNM":[0.2,0.2,0.3,0.3,15,15,15,15,15,15,15,15,15,15,15,15,15,0.3,0.2,0.2,0.2,0.2,0.2,0.5,1.4,2.4,0.8,0.6,0.6,0.8,0.9,0.9,1,0.3,0.3,0.3]}},{"type":"Feature","geometry":{"type":"Point","coordinates":[153.41729,-27.35675]},"properties":{"id":"osm-node6612831891","name":"Kooringal","kind":"anchorage","source":"OpenStreetMap","sourceRef":"node/6612831891","likelyAnchorage":true,"noAnchoring":false,"noAnchoringName":null,"notes":null,"fetchLandNM":[1.1,0.9,0.2,0.1,0.1,0.1,0.1,0.1,0.2,0.2,0.3,0.1,0.1,0.2,2.7,2.5,3,5.1,0.1,0.1,0.1,0.3,12.5,12.1,13.7,13.8,9.6,11.7,8.4,15,0.9,0.8,0.8,1.3,1.8,3.2],"fetchReefNM":[1.1,0.9,0.2,0.1,0.1,0.1,0.1,0.1,0.2,0.2,0.3,0.1,0.1,0.2,2.7,2.5,3,5.1,0.1,0.1,0.1,0.3,12.5,12.1,13.7,13.8,9.6,11.7,8.4,15,0.9,0.8,0.8,1.3,1.8,3.2]}},{"type":"Feature","geometry":{"type":"Point","coordinates":[153.08691,-26.38051]},"properties":{"id":"osm-node2873300622","name":"Laguna Bay","kind":"anchorage","source":"OpenStreetMap","sourceRef":"node/2873300622","likelyAnchorage":true,"noAnchoring":false,"noAnchoringName":null,"notes":null,"fetchLandNM":[11.4,15,15,15,15,15,15,15,1.1,0.7,0.6,0.6,0.5,0.5,0.5,0.4,0.3,0.3,0.3,0.3,0.2,0.2,0.2,0.2,0.3,0.3,0.3,0.4,0.5,0.6,0.7,1.1,1.5,2.4,3.9,6.3],"fetchReefNM":[11.4,15,15,15,15,15,15,15,1.1,0.7,0.6,0.6,0.5,0.5,0.5,0.4,0.3,0.3,0.3,0.3,0.2,0.2,0.2,0.2,0.3,0.3,0.3,0.4,0.5,0.6,0.7,1.1,1.5,2.4,3.9,6.3]}},{"type":"Feature","geometry":{"type":"Point","coordinates":[153.12869,-26.70054]},"properties":{"id":"osm-way394328766","name":"Lawrie's Boat Services","kind":"marina","source":"OpenStreetMap","sourceRef":"way/394328766","likelyAnchorage":true,"noAnchoring":false,"noAnchoringName":null,"notes":null,"fetchLandNM":[1,1.1,1.3,0.9,0.7,0.6,0.5,0.4,0.4,0.4,0.4,0.4,0.5,0.5,0.6,0.8,1.1,1.9,6.3,8.9,15,15,15,15,15,15,15,15,15,15,15,15,15,2,1.4,1.1],"fetchReefNM":[1,1.1,1.3,0.9,0.7,0.6,0.5,0.4,0.4,0.4,0.4,0.4,0.5,0.5,0.6,0.8,1.1,1.9,6.3,8.9,15,15,15,15,15,15,15,15,15,15,15,15,15,2,1.4,1.1]}},{"type":"Feature","geometry":{"type":"Point","coordinates":[153.35256,-27.4793]},"properties":{"id":"osm-node6531603352","name":"Lazaret","kind":"anchorage","source":"OpenStreetMap","sourceRef":"node/6531603352","likelyAnchorage":true,"noAnchoring":false,"noAnchoringName":null,"notes":null,"fetchLandNM":[15,12.9,8.3,8.1,15,6.1,5,4.4,3.9,3.2,2.9,2.7,3.7,0.9,0.5,0.5,0.7,0.8,0.8,0.8,0.9,1.1,1.4,4.9,3.8,5.1,5,6,6.3,10.3,10.9,7.8,15,9.7,15,15],"fetchReefNM":[15,12.9,8.3,8.1,15,6.1,5,4.4,3.9,3.2,2.9,2.7,3.7,0.9,0.5,0.5,0.7,0.8,0.8,0.8,0.9,1.1,1.4,4.9,3.8,5.1,5,6,6.3,10.3,10.9,7.8,15,9.7,15,15]}},{"type":"Feature","geometry":{"type":"Point","coordinates":[153.0957,-26.38368]},"properties":{"id":"osm-node2873300621","name":"Little Cove","kind":"anchorage","source":"OpenStreetMap","sourceRef":"node/2873300621","likelyAnchorage":true,"noAnchoring":false,"noAnchoringName":null,"notes":null,"fetchLandNM":[13.4,15,15,15,15,0.1,0.1,0.1,0.1,0,0,0,0,0,0,0,0,0,0,0.1,0.1,0.1,0.1,0.1,0.3,0.4,0.5,0.5,0.8,1.1,1.4,1.8,2.5,3.6,5.1,7.7],"fetchReefNM":[13.4,15,15,15,15,0.1,0.1,0.1,0.1,0,0,0,0,0,0,0,0,0,0,0.1,0.1,0.1,0.1,0.1,0.3,0.4,0.5,0.5,0.8,1.1,1.4,1.8,2.5,3.6,5.1,7.7]}},{"type":"Feature","geometry":{"type":"Point","coordinates":[152.99929,-27.51097]},"properties":{"id":"osm-node13518342348","name":"Long Pocket Reach","kind":"anchorage","source":"OpenStreetMap","sourceRef":"node/13518342348","likelyAnchorage":true,"noAnchoring":false,"noAnchoringName":null,"notes":null,"fetchLandNM":[15,15,12.1,11.4,11.3,10.6,10.5,10.6,11,13.9,15,15,15,15,15,15,15,15,15,15,15,15,15,15,15,15,15,15,15,15,15,15,15,15,15,15],"fetchReefNM":[15,15,12.1,11.4,11.3,10.6,10.5,10.6,11,13.9,15,15,15,15,15,15,15,15,15,15,15,15,15,15,15,15,15,15,15,15,15,15,15,15,15,15]}},{"type":"Feature","geometry":{"type":"Point","coordinates":[153.15836,-27.38472]},"properties":{"id":"osm-node13518342372","name":"Lower Reach","kind":"anchorage","source":"OpenStreetMap","sourceRef":"node/13518342372","likelyAnchorage":true,"noAnchoring":false,"noAnchoringName":null,"notes":null,"fetchLandNM":[0.3,0.4,15,15,1.2,0.5,0.3,0.2,0.2,0.2,0.1,0.2,0.2,0.2,0.2,0.2,0.2,0.3,0.4,1,0.9,0.8,0.7,1.3,1.1,0.8,0.5,0.4,0.3,0.3,0.3,0.3,0.3,0.3,0.3,0.3],"fetchReefNM":[0.3,0.4,15,15,1.2,0.5,0.3,0.2,0.2,0.2,0.1,0.2,0.2,0.2,0.2,0.2,0.2,0.3,0.4,1,0.9,0.8,0.7,1.3,1.1,0.8,0.5,0.4,0.3,0.3,0.3,0.3,0.3,0.3,0.3,0.3]}},{"type":"Feature","geometry":{"type":"Point","coordinates":[153.13635,-27.42351]},"properties":{"id":"osm-node13518342368","name":"Lytton Reach","kind":"anchorage","source":"OpenStreetMap","sourceRef":"node/13518342368","likelyAnchorage":true,"noAnchoring":false,"noAnchoringName":null,"notes":null,"fetchLandNM":[3.4,1.5,2,1.7,1.7,2.1,2.3,2.1,1.8,1.8,1.9,2.1,3.1,3.9,13.7,15,15,15,15,15,15,15,15,15,15,15,15,15,15,15,15,15,15,15,5,4.3],"fetchReefNM":[3.4,1.5,2,1.7,1.7,2.1,2.3,2.1,1.8,1.8,1.9,2.1,3.1,3.9,13.7,15,15,15,15,15,15,15,15,15,15,15,15,15,15,15,15,15,15,15,5,4.3]}},{"type":"Feature","geometry":{"type":"Point","coordinates":[153.15023,-27.40157]},"properties":{"id":"osm-node13518342370","name":"Lytton Rocks Reach","kind":"anchorage","source":"OpenStreetMap","sourceRef":"node/13518342370","likelyAnchorage":true,"noAnchoring":false,"noAnchoringName":null,"notes":null,"fetchLandNM":[0.4,0.3,0.3,0.2,0.2,0.2,0.2,0.2,0.2,0.2,1.3,1.4,1.5,1.5,1.7,2.4,15,15,15,15,15,15,15,15,15,15,15,15,15,0.4,0.4,0.4,0.4,0.4,0.5,0.5],"fetchReefNM":[0.4,0.3,0.3,0.2,0.2,0.2,0.2,0.2,0.2,0.2,1.3,1.4,1.5,1.5,1.7,2.4,15,15,15,15,15,15,15,15,15,15,15,15,15,0.4,0.4,0.4,0.4,0.4,0.5,0.5]}},{"type":"Feature","geometry":{"type":"Point","coordinates":[153.4241,-27.96877]},"properties":{"id":"osm-way436810669","name":"Marina Mirage","kind":"marina","source":"OpenStreetMap","sourceRef":"way/436810669","likelyAnchorage":true,"noAnchoring":false,"noAnchoringName":null,"notes":null,"fetchLandNM":[0.3,0.3,0.3,0.1,0.1,0.1,0.1,0.1,0.1,0.1,0.1,0.1,0.1,0.2,0.3,0.3,0.3,0.3,0.3,0.3,0.3,0.3,0.3,0.2,0.2,0.2,0.2,0.3,0.3,0.3,0.3,0.5,0.9,1.5,2.7,1.8],"fetchReefNM":[0.3,0.3,0.3,0.1,0.1,0.1,0.1,0.1,0.1,0.1,0.1,0.1,0.1,0.2,0.3,0.3,0.3,0.3,0.3,0.3,0.3,0.3,0.3,0.2,0.2,0.2,0.2,0.3,0.3,0.3,0.3,0.5,0.9,1.5,2.7,1.8]}},{"type":"Feature","geometry":{"type":"Point","coordinates":[153.42446,-27.9522]},"properties":{"id":"osm-way422539815","name":"Marine Rescue Southport","kind":"marina","source":"OpenStreetMap","sourceRef":"way/422539815","likelyAnchorage":true,"noAnchoring":false,"noAnchoringName":null,"notes":null,"fetchLandNM":[0,0.1,0.8,0.5,0.4,0.4,0.3,0.3,0.3,0.3,0.3,0.3,0.3,0.4,0.4,0.5,0.8,1.9,0.7,0.1,0,0,0,0,0,0,0,0,0,0,0,0,0,0,0,0],"fetchReefNM":[0,0.1,0.8,0.5,0.4,0.4,0.3,0.3,0.3,0.3,0.3,0.3,0.3,0.4,0.4,0.5,0.8,1.9,0.7,0.1,0,0,0,0,0,0,0,0,0,0,0,0,0,0,0,0]}},{"type":"Feature","geometry":{"type":"Point","coordinates":[153.42355,-27.94649]},"properties":{"id":"osm-node8616342957","name":"Marine Stadium","kind":"anchorage","source":"OpenStreetMap","sourceRef":"node/8616342957","likelyAnchorage":true,"noAnchoring":false,"noAnchoringName":null,"notes":null,"fetchLandNM":[0.3,0.3,0.1,0.1,0.1,0.1,0.1,0.1,0.1,0.1,0.1,0.1,0.1,0.1,0.2,0.2,0.2,0.3,1.7,1.4,1.1,0.1,0.1,0.1,0.1,0.1,0.1,0.1,0.1,0.1,0.1,0.1,0.1,0.2,0.3,0.3],"fetchReefNM":[0.3,0.3,0.1,0.1,0.1,0.1,0.1,0.1,0.1,0.1,0.1,0.1,0.1,0.1,0.2,0.2,0.2,0.3,1.7,1.4,1.1,0.1,0.1,0.1,0.1,0.1,0.1,0.1,0.1,0.1,0.1,0.1,0.1,0.2,0.3,0.3]}},{"type":"Feature","geometry":{"type":"Point","coordinates":[153.42475,-27.96976]},"properties":{"id":"osm-way436813755","name":"Mariner's Cove Marina","kind":"marina","source":"OpenStreetMap","sourceRef":"way/436813755","likelyAnchorage":true,"noAnchoring":false,"noAnchoringName":null,"notes":null,"fetchLandNM":[0.3,0.1,0.1,0.1,0.1,0.1,0.1,0.1,0.1,0.1,0.1,0.1,0.1,0.2,0.2,0.2,0.2,0.3,0.3,0.3,0.3,0.3,0.3,0.3,0.2,0.2,0.2,0.3,0.3,0.4,0.4,0.5,0.9,1.6,2.9,1.8],"fetchReefNM":[0.3,0.1,0.1,0.1,0.1,0.1,0.1,0.1,0.1,0.1,0.1,0.1,0.1,0.2,0.2,0.2,0.2,0.3,0.3,0.3,0.3,0.3,0.3,0.3,0.2,0.2,0.2,0.3,0.3,0.4,0.4,0.5,0.9,1.6,2.9,1.8]}},{"type":"Feature","geometry":{"type":"Point","coordinates":[153.00465,-27.4758]},"properties":{"id":"osm-node13518342342","name":"Milton Reach","kind":"anchorage","source":"OpenStreetMap","sourceRef":"node/13518342342","likelyAnchorage":true,"noAnchoring":false,"noAnchoringName":null,"notes":null,"fetchLandNM":[15,15,10.3,9.4,9.6,10.5,9.1,9.4,9.9,10.5,13.9,15,15,15,15,15,15,15,15,15,15,15,15,15,15,15,15,15,15,15,15,15,15,15,15,15],"fetchReefNM":[15,15,10.3,9.4,9.6,10.5,9.1,9.4,9.9,10.5,13.9,15,15,15,15,15,15,15,15,15,15,15,15,15,15,15,15,15,15,15,15,15,15,15,15,15]}},{"type":"Feature","geometry":{"type":"Point","coordinates":[153.3233,-27.88081]},"properties":{"id":"osm-way502518289","name":"Moorings On Coomera","kind":"marina","source":"OpenStreetMap","sourceRef":"way/502518289","likelyAnchorage":true,"noAnchoring":false,"noAnchoringName":null,"notes":null,"fetchLandNM":[11,7.9,6.5,1.3,1.1,0.8,0.7,0.6,0.6,0.5,0.6,4.3,4.1,4,8.9,12.9,15,15,15,15,15,15,15,15,15,15,15,15,15,15,15,15,15,15,15,15],"fetchReefNM":[11,7.9,6.5,1.3,1.1,0.8,0.7,0.6,0.6,0.5,0.6,4.3,4.1,4,8.9,12.9,15,15,15,15,15,15,15,15,15,15,15,15,15,15,15,15,15,15,15,15]}},{"type":"Feature","geometry":{"type":"Point","coordinates":[153.254,-27.23978]},"properties":{"id":"osm-node2678277422","name":"Moreton Bay","kind":"anchorage","source":"OpenStreetMap","sourceRef":"node/2678277422","likelyAnchorage":true,"noAnchoring":false,"noAnchoringName":null,"notes":null,"fetchLandNM":[15,15,15,11.8,9.4,7.9,7.3,6.4,6.6,6.7,7.3,8.5,10.1,11.3,15,15,15,15,5.4,9.2,12.5,10.9,9.5,10.1,10.3,10.7,8.1,7.5,7.5,7.9,12.4,12.5,12,15,9.1,15],"fetchReefNM":[15,15,15,11.8,9.4,7.9,7.3,6.4,6.6,6.7,7.3,8.5,10.1,11.3,15,15,15,15,5.4,9.2,12.5,10.9,9.5,10.1,10.3,10.7,8.1,7.5,7.5,7.9,12.4,12.5,12,15,9.1,15]}},{"type":"Feature","geometry":{"type":"Point","coordinates":[153.10848,-27.19396]},"properties":{"id":"osm-way200248922","name":"Moreton Bay Boat Club","kind":"marina","source":"OpenStreetMap","sourceRef":"way/200248922","likelyAnchorage":true,"noAnchoring":false,"noAnchoringName":null,"notes":null,"fetchLandNM":[0.1,0.1,0.1,0.1,0.1,0.1,0.1,0,0,0,0,0,0,0,0,0,0,0,0,0,0.1,0.1,0.1,0.1,0.2,0.2,0.2,0.2,0.2,0.2,0.2,0.1,0.1,0.1,0.1,0.1],"fetchReefNM":[0.1,0.1,0.1,0.1,0.1,0.1,0.1,0,0,0,0,0,0,0,0,0,0,0,0,0,0.1,0.1,0.1,0.1,0.2,0.2,0.2,0.2,0.2,0.2,0.2,0.1,0.1,0.1,0.1,0.1]}},{"type":"Feature","geometry":{"type":"Point","coordinates":[153.41476,-27.47087]},"properties":{"id":"osm-node6535108374","name":"Myora","kind":"anchorage","source":"OpenStreetMap","sourceRef":"node/6535108374","likelyAnchorage":true,"noAnchoring":false,"noAnchoringName":null,"notes":null,"fetchLandNM":[6.5,15,3.9,2,1.3,1,0.8,0.6,0.5,0.4,0.4,0.4,0.4,0.3,0.3,0.3,0.3,0.3,0.4,0.5,0.9,9.5,8.7,8.7,2.6,3,8.4,9.3,13.1,13.8,10.8,11.4,15,15,15,15],"fetchReefNM":[6.5,15,3.9,2,1.3,1,0.8,0.6,0.5,0.4,0.4,0.4,0.4,0.3,0.3,0.3,0.3,0.3,0.4,0.5,0.9,9.5,8.7,8.7,2.6,3,8.4,9.3,13.1,13.8,10.8,11.4,15,15,15,15]}},{"type":"Feature","geometry":{"type":"Point","coordinates":[153.04169,-26.39463]},"properties":{"id":"osm-way331617106","name":"Noosa Marina and Markets","kind":"marina","source":"OpenStreetMap","sourceRef":"way/331617106","likelyAnchorage":true,"noAnchoring":false,"noAnchoringName":null,"notes":null,"fetchLandNM":[15,15,3.4,2.7,2.4,2.2,2.1,2.3,2.8,4,3.9,4,4.1,4.5,5,6.1,8.1,15,15,15,15,15,15,15,15,15,15,15,15,15,15,15,15,15,15,15],"fetchReefNM":[15,15,3.4,2.7,2.4,2.2,2.1,1.9,1.6,4,3.9,4,4.1,4.5,5,6.1,8.1,15,15,15,15,15,15,15,15,15,15,15,15,15,15,15,15,15,15,15]}},{"type":"Feature","geometry":{"type":"Point","coordinates":[153.40273,-27.48938]},"properties":{"id":"osm-node6535108379","name":"One Mile","kind":"anchorage","source":"OpenStreetMap","sourceRef":"node/6535108379","likelyAnchorage":true,"noAnchoring":false,"noAnchoringName":null,"notes":null,"fetchLandNM":[8.4,7.7,5.2,3.3,2.1,0.4,0.3,0.2,0.2,0.2,0.2,0.2,0.2,0.2,0.2,0.2,0.2,0.2,0.3,0.3,0.4,8.2,5.8,6.9,7.5,1.6,1.5,1.8,8.9,13,13.5,15,11.7,15,15,15],"fetchReefNM":[8.4,7.7,5.2,3.3,2.1,0.4,0.3,0.2,0.2,0.2,0.2,0.2,0.2,0.2,0.2,0.2,0.2,0.2,0.3,0.3,0.4,8.2,5.8,6.9,7.5,1.6,1.5,1.8,8.9,13,13.5,15,11.7,15,15,15]}},{"type":"Feature","geometry":{"type":"Point","coordinates":[153.10641,-27.44289]},"properties":{"id":"osm-node13518342365","name":"Parker Island Reach","kind":"anchorage","source":"OpenStreetMap","sourceRef":"node/13518342365","likelyAnchorage":true,"noAnchoring":false,"noAnchoringName":null,"notes":null,"fetchLandNM":[5.7,5.4,5.3,5.3,3.7,3.8,4.2,3.6,3.5,3.8,4.3,5.2,10.8,13.9,15,15,15,15,15,15,15,15,15,15,15,15,15,15,15,15,15,15,15,15,15,6.7],"fetchReefNM":[5.7,5.4,5.3,5.3,3.7,3.8,4.2,3.6,3.5,3.8,4.3,5.2,10.8,13.9,15,15,15,15,15,15,15,15,15,15,15,15,15,15,15,15,15,15,15,15,15,6.7]}},{"type":"Feature","geometry":{"type":"Point","coordinates":[153.36436,-27.61266]},"properties":{"id":"osm-node3020493294","name":"Perulpa Bay","kind":"anchorage","source":"OpenStreetMap","sourceRef":"node/3020493294","likelyAnchorage":true,"noAnchoring":false,"noAnchoringName":null,"notes":null,"fetchLandNM":[1.2,5.8,0.2,0.2,0.2,0.2,0.2,0.2,0.2,0.2,0.2,0.3,0.3,0.3,0.3,0.3,0.3,0.2,0.2,0.2,0.2,0.2,0.2,0.2,0.2,0.2,0.2,0.2,0.2,0.3,0.3,0.3,0.4,0.5,0.5,0.7],"fetchReefNM":[1.2,5.8,0.2,0.2,0.2,0.2,0.2,0.2,0.2,0.2,0.2,0.3,0.3,0.3,0.3,0.3,0.3,0.2,0.2,0.2,0.2,0.2,0.2,0.2,0.2,0.2,0.2,0.2,0.2,0.3,0.3,0.3,0.4,0.5,0.5,0.7]}},{"type":"Feature","geometry":{"type":"Point","coordinates":[153.03434,-27.46352]},"properties":{"id":"osm-node13518342337","name":"Petrie Bight","kind":"anchorage","source":"OpenStreetMap","sourceRef":"node/13518342337","likelyAnchorage":true,"noAnchoring":false,"noAnchoringName":null,"notes":null,"fetchLandNM":[15,9.7,8.2,8,8.2,8.5,7.4,7.7,7.7,8.4,12.2,13.6,15,15,15,15,15,15,15,15,15,15,15,15,15,15,15,15,15,15,15,15,15,15,15,15],"fetchReefNM":[15,9.7,8.2,8,8.2,8.5,7.4,7.7,7.7,8.4,12.2,13.6,15,15,15,15,15,15,15,15,15,15,15,15,15,15,15,15,15,15,15,15,15,15,15,15]}},{"type":"Feature","geometry":{"type":"Point","coordinates":[153.11484,-26.37716]},"properties":{"id":"osm-node765716036","name":"Picnic Cove","kind":"anchorage","source":"OpenStreetMap","sourceRef":"node/765716036","likelyAnchorage":true,"noAnchoring":false,"noAnchoringName":null,"notes":null,"fetchLandNM":[15,15,15,15,15,0.1,0,0,0,0,0,0,0,0,0,0,0,0,0,0,0,0,0,0,0,0.3,0.3,0.3,2.3,2.6,3,3.6,4.4,5.5,7.2,10.2],"fetchReefNM":[15,15,15,15,15,0.1,0,0,0,0,0,0,0,0,0,0,0,0,0,0,0,0,0,0,0,0.3,0.3,0.3,2.3,2.6,3,3.6,4.4,5.5,7.2,10.2]}},{"type":"Feature","geometry":{"type":"Point","coordinates":[153.12438,-27.42901]},"properties":{"id":"osm-node13518342367","name":"Pinkenba Reach","kind":"anchorage","source":"OpenStreetMap","sourceRef":"node/13518342367","likelyAnchorage":true,"noAnchoring":false,"noAnchoringName":null,"notes":null,"fetchLandNM":[4.5,4.1,4.3,2.1,2.4,2.5,3,2.8,2.5,2.5,2.6,3.5,4.1,10.4,15,15,15,15,15,15,15,15,15,15,15,15,15,15,15,15,15,15,15,15,6.1,4.9],"fetchReefNM":[4.5,4.1,4.3,2.1,2.4,2.5,3,2.8,2.5,2.5,2.6,3.5,4.1,10.4,15,15,15,15,15,15,15,15,15,15,15,15,15,15,15,15,15,15,15,15,6.1,4.9]}},{"type":"Feature","geometry":{"type":"Point","coordinates":[153.14388,-27.4162]},"properties":{"id":"osm-node13518342369","name":"Quarantine Flats Reach","kind":"anchorage","source":"OpenStreetMap","sourceRef":"node/13518342369","likelyAnchorage":false,"noAnchoring":false,"noAnchoringName":null,"notes":null,"fetchLandNM":[1,1.4,1.2,1.1,1.1,1.4,1.7,1.7,1.6,1.5,1.5,1.4,1.7,2.2,4.1,15,15,15,15,15,15,15,15,15,15,15,15,15,15,15,15,15,15,5.2,4.1,1],"fetchReefNM":[1,1.4,1.2,1.1,1.1,1.4,1.7,1.7,1.6,1.5,1.5,1.4,1.7,2.2,4.1,15,15,15,15,15,15,15,15,15,15,15,15,15,15,15,15,15,15,5.2,4.1,1]}},{"type":"Feature","geometry":{"type":"Point","coordinates":[153.09326,-27.44677]},"properties":{"id":"osm-node13518342364","name":"Quarries Reach","kind":"anchorage","source":"OpenStreetMap","sourceRef":"node/13518342364","likelyAnchorage":true,"noAnchoring":false,"noAnchoringName":null,"notes":null,"fetchLandNM":[6.4,5.9,5.7,5.7,3.9,4.3,4.9,4.4,4.3,5,5.3,9.4,11.2,14.5,15,15,15,15,15,15,15,15,15,15,15,15,15,15,15,15,15,15,15,15,15,15],"fetchReefNM":[6.4,5.9,5.7,5.7,3.9,4.3,4.9,4.4,4.3,5,5.3,9.4,11.2,14.5,15,15,15,15,15,15,15,15,15,15,15,15,15,15,15,15,15,15,15,15,15,15]}},{"type":"Feature","geometry":{"type":"Point","coordinates":[153.27624,-27.5127]},"properties":{"id":"osm-node638378773","name":"Raby Bay","kind":"anchorage","source":"OpenStreetMap","sourceRef":"node/638378773","likelyAnchorage":true,"noAnchoring":false,"noAnchoringName":null,"notes":null,"fetchLandNM":[15,15,15,14.2,12,15,9.9,4.6,0.7,0.7,0.6,0.4,0.3,0.3,0.3,0.2,0.2,0.2,0.2,0.2,0.2,0.2,0.3,0.3,0.4,0.6,0.8,0.8,0.8,0.8,0.9,1.1,1.3,9.5,7.7,10.2],"fetchReefNM":[15,15,15,14.2,12,15,9.9,4.6,0.7,0.7,0.6,0.4,0.3,0.3,0.3,0.2,0.2,0.2,0.2,0.2,0.2,0.2,0.3,0.3,0.4,0.6,0.8,0.8,0.8,0.8,0.9,1.1,1.3,9.5,7.7,10.2]}},{"type":"Feature","geometry":{"type":"Point","coordinates":[153.26635,-27.52278]},"properties":{"id":"osm-way1079336933","name":"Raby Bay Marina","kind":"marina","source":"OpenStreetMap","sourceRef":"way/1079336933","likelyAnchorage":true,"noAnchoring":false,"noAnchoringName":null,"notes":null,"fetchLandNM":[0.4,0.4,0.4,0.5,0.5,0.7,0.9,1.3,1.2,1.1,1,0.9,1,1.1,1.1,1.1,1.2,15,15,15,15,15,15,15,15,15,15,15,15,15,15,3.8,3.1,0.5,0.4,0.4],"fetchReefNM":[0.4,0.4,0.4,0.5,0.5,0.7,0.9,1.3,1.2,1.1,1,0.9,1,1.1,1.1,1.1,1.2,15,15,15,15,15,15,15,15,15,15,15,15,15,15,3.8,3.1,0.5,0.4,0.4]}},{"type":"Feature","geometry":{"type":"Point","coordinates":[153.27706,-27.51018]},"properties":{"id":"osm-node6310417978","name":"Raby Bay North","kind":"anchorage","source":"OpenStreetMap","sourceRef":"node/6310417978","likelyAnchorage":true,"noAnchoring":false,"noAnchoringName":null,"notes":null,"fetchLandNM":[15,15,15,14,11.9,15,9.9,8.6,3.4,0.6,0.7,0.6,0.6,0.5,0.4,0.4,0.4,0.3,0.3,0.3,0.4,0.4,0.5,0.6,0.7,0.9,0.9,0.8,0.8,0.9,1.1,1.2,3.1,9.5,7.4,10],"fetchReefNM":[15,15,15,14,11.9,15,9.9,8.6,3.4,0.6,0.7,0.6,0.6,0.5,0.4,0.4,0.4,0.3,0.3,0.3,0.4,0.4,0.5,0.6,0.7,0.9,0.9,0.8,0.8,0.9,1.1,1.2,3.1,9.5,7.4,10]}},{"type":"Feature","geometry":{"type":"Point","coordinates":[153.28128,-27.51435]},"properties":{"id":"osm-node6310417979","name":"Raby Bay South","kind":"anchorage","source":"OpenStreetMap","sourceRef":"node/6310417979","likelyAnchorage":true,"noAnchoring":false,"noAnchoringName":null,"notes":null,"fetchLandNM":[15,15,15,12.2,11.8,10.9,0.5,0.4,0.4,0.3,0.3,0.1,0.1,0.1,0.1,0.1,0.1,0.1,0.1,0.1,0.1,0.1,0.1,0.1,0.2,0.2,0.5,1.1,1.1,1.1,1.2,1.5,3.4,9.9,7.6,10.1],"fetchReefNM":[15,15,15,12.2,11.8,10.9,0.5,0.4,0.4,0.3,0.3,0.1,0.1,0.1,0.1,0.1,0.1,0.1,0.1,0.1,0.1,0.1,0.1,0.1,0.2,0.2,0.5,1.1,1.1,1.1,1.2,1.5,3.4,9.9,7.6,10.1]}},{"type":"Feature","geometry":{"type":"Point","coordinates":[153.10872,-27.19267]},"properties":{"id":"osm-way200248933","name":"Redcliffe Marina","kind":"marina","source":"OpenStreetMap","sourceRef":"way/200248933","likelyAnchorage":true,"noAnchoring":false,"noAnchoringName":null,"notes":null,"fetchLandNM":[0,0,0,0,0,0,0,0.1,0.1,0.1,0.1,0.1,0.1,0.1,0.1,0.1,0.1,0.1,0.1,0.1,0.2,0.2,0.2,0.2,0.2,0.2,2.3,0.2,0.1,0.1,0.1,0.1,0.1,0,0,0],"fetchReefNM":[0,0,0,0,0,0,0,0.1,0.1,0.1,0.1,0.1,0.1,0.1,0.1,0.1,0.1,0.1,0.1,0.1,0.2,0.2,0.2,0.2,0.2,0.2,2.3,0.2,0.1,0.1,0.1,0.1,0.1,0,0,0]}},{"type":"Feature","geometry":{"type":"Point","coordinates":[153.29149,-27.57486]},"properties":{"id":"osm-way52064619","name":"Redland City Marina","kind":"marina","source":"OpenStreetMap","sourceRef":"way/52064619","likelyAnchorage":true,"noAnchoring":false,"noAnchoringName":null,"notes":null,"fetchLandNM":[0.6,0.6,0.7,0.8,0.9,1,1,0.9,0.7,0.7,0.9,1,1.3,1.3,1.3,1.3,1.6,15,15,15,15,15,15,15,15,15,15,15,15,15,15,15,15,6.4,1.3,1.1],"fetchReefNM":[0.6,0.6,0.7,0.8,0.9,1,1,0.9,0.7,0.7,0.9,1,1.3,1.3,1.3,1.3,1.6,15,15,15,15,15,15,15,15,15,15,15,15,15,15,15,15,6.4,1.3,1.1]}},{"type":"Feature","geometry":{"type":"Point","coordinates":[153.28755,-27.57376]},"properties":{"id":"osm-way1190748533","name":"Redlands Coast Marina","kind":"marina","source":"OpenStreetMap","sourceRef":"way/1190748533","likelyAnchorage":true,"noAnchoring":false,"noAnchoringName":null,"notes":null,"fetchLandNM":[1,0.9,0.6,0.6,0.8,1,1.1,1.2,1,0.9,1,1.2,1.5,1.5,1.5,1.6,3.8,15,15,15,15,15,15,15,15,15,15,15,15,15,15,15,15,6.3,1.3,1.1],"fetchReefNM":[1,0.9,0.6,0.6,0.8,1,1.1,1.2,1,0.9,1,1.2,1.5,1.5,1.5,1.6,3.8,15,15,15,15,15,15,15,15,15,15,15,15,15,15,15,15,6.3,1.3,1.1]}},{"type":"Feature","geometry":{"type":"Point","coordinates":[153.35022,-27.74964]},"properties":{"id":"osm-way615645649","name":"Rudi Maas Marina","kind":"marina","source":"OpenStreetMap","sourceRef":"way/615645649","likelyAnchorage":true,"noAnchoring":false,"noAnchoringName":null,"notes":null,"fetchLandNM":[3.2,1.3,1.1,0.8,0.1,0.1,0.1,0.1,0.1,0.1,0.1,0.1,0.1,0.1,0.1,0.1,0,0,0,0.1,0.1,0.1,15,15,15,15,15,15,15,15,15,15,15,15,3.4,3.1],"fetchReefNM":[3.2,1.3,1.1,0.8,0.1,0.1,0.1,0.1,0.1,0.1,0.1,0.1,0.1,0.1,0.1,0.1,0,0,0,0.1,0.1,0.1,15,15,15,15,15,15,15,15,15,15,15,15,3.4,3.1]}},{"type":"Feature","geometry":{"type":"Point","coordinates":[153.40304,-27.90066]},"properties":{"id":"osm-way176160981","name":"Runaway Bay Marina","kind":"marina","source":"OpenStreetMap","sourceRef":"way/176160981","likelyAnchorage":true,"noAnchoring":false,"noAnchoringName":null,"notes":null,"fetchLandNM":[0.1,0.1,2.3,0,0,0,0,0,0,0,0,0,0,0,0,0.1,0.1,0.1,0.1,0.1,0.1,0.1,0.1,0.1,0.1,0,0,0,0,0.1,0.1,0.1,0.1,0.1,0.1,0.1],"fetchReefNM":[0.1,0.1,2.3,0,0,0,0,0,0,0,0,0,0,0,0,0.1,0.1,0.1,0.1,0.1,0.1,0.1,0.1,0.1,0.1,0,0,0,0,0.1,0.1,0.1,0.1,0.1,0.1,0.1]}},{"type":"Feature","geometry":{"type":"Point","coordinates":[153.39703,-27.87353]},"properties":{"id":"osm-way427751655","name":"Salacia Marina","kind":"marina","source":"OpenStreetMap","sourceRef":"way/427751655","likelyAnchorage":true,"noAnchoring":false,"noAnchoringName":null,"notes":null,"fetchLandNM":[0.4,0.4,0.5,0.7,0.3,0.1,0,0,0,0,0,0,0,0,0,0,0,0,0,0,0.1,0.1,0.2,0.3,0.5,0.8,0.2,0.1,0.1,0.1,0.1,0.1,0.2,0.2,0.2,0.2],"fetchReefNM":[0.4,0.4,0.5,0.7,0.3,0.1,0,0,0,0,0,0,0,0,0,0,0,0,0,0,0.1,0.1,0.2,0.3,0.5,0.8,0.2,0.1,0.1,0.1,0.1,0.1,0.2,0.2,0.2,0.2]}},{"type":"Feature","geometry":{"type":"Point","coordinates":[153.10612,-27.19439]},"properties":{"id":"osm-way177706416","name":"Scarborough Marina","kind":"marina","source":"OpenStreetMap","sourceRef":"way/177706416","likelyAnchorage":true,"noAnchoring":false,"noAnchoringName":null,"notes":null,"fetchLandNM":[0.1,0.1,0.1,0.2,0.2,0.2,0.2,0.2,0.2,0.1,0.1,0.1,0.1,0.1,0.1,0.1,0.1,0.1,0.1,0.1,0,0,0,0,0,0,0,0,0.1,0.1,0.1,0.1,0.1,0.1,0.1,0.1],"fetchReefNM":[0.1,0.1,0.1,0.2,0.2,0.2,0.2,0.2,0.2,0.1,0.1,0.1,0.1,0.1,0.1,0.1,0.1,0.1,0.1,0.1,0,0,0,0,0,0,0,0,0.1,0.1,0.1,0.1,0.1,0.1,0.1,0.1]}},{"type":"Feature","geometry":{"type":"Point","coordinates":[153.04014,-27.47193]},"properties":{"id":"osm-node13518342338","name":"Shafston Reach","kind":"anchorage","source":"OpenStreetMap","sourceRef":"node/13518342338","likelyAnchorage":true,"noAnchoring":false,"noAnchoringName":null,"notes":null,"fetchLandNM":[15,9.5,8.3,8.3,8.5,6.9,8.1,7.5,7.9,8.3,12,13.5,15,15,15,15,15,15,15,15,15,15,15,15,15,15,15,15,15,15,15,15,15,15,15,15],"fetchReefNM":[15,9.5,8.3,8.3,8.5,6.9,8.1,7.5,7.9,8.3,12,13.5,15,15,15,15,15,15,15,15,15,15,15,15,15,15,15,15,15,15,15,15,15,15,15,15]}},{"type":"Feature","geometry":{"type":"Point","coordinates":[153.02379,-27.47635]},"properties":{"id":"osm-node13518342336","name":"South Brisbane Reach","kind":"anchorage","source":"OpenStreetMap","sourceRef":"node/13518342336","likelyAnchorage":true,"noAnchoring":false,"noAnchoringName":null,"notes":null,"fetchLandNM":[15,12.8,9.3,8.9,9.1,9.4,9,8.4,8.8,9.5,12.8,15,15,15,15,15,15,15,15,15,15,15,15,15,15,15,15,15,15,15,15,15,15,15,15,15],"fetchReefNM":[15,12.8,9.3,8.9,9.1,9.4,9,8.4,8.8,9.5,12.8,15,15,15,15,15,15,15,15,15,15,15,15,15,15,15,15,15,15,15,15,15,15,15,15,15]}},{"type":"Feature","geometry":{"type":"Point","coordinates":[153.42578,-27.9728]},"properties":{"id":"osm-way437107456","name":"Southport Yacht Club Marina","kind":"marina","source":"OpenStreetMap","sourceRef":"way/437107456","likelyAnchorage":true,"noAnchoring":false,"noAnchoringName":null,"notes":null,"fetchLandNM":[0.2,0.2,0.2,0.1,0.1,0.1,0.1,0.1,0.1,0.1,0.1,0.1,0.1,0.1,0.1,0,0,0,0,0.1,0.1,0.1,0.1,0.1,0.2,0.2,0.2,0.3,0.3,0.3,0.4,0.5,0.8,1.7,3,2.2],"fetchReefNM":[0.2,0.2,0.2,0.1,0.1,0.1,0.1,0.1,0.1,0.1,0.1,0.1,0.1,0.1,0.1,0,0,0,0,0.1,0.1,0.1,0.1,0.1,0.2,0.2,0.2,0.3,0.3,0.3,0.4,0.5,0.8,1.7,3,2.2]}},{"type":"Feature","geometry":{"type":"Point","coordinates":[153.13481,-27.07006]},"properties":{"id":"osm-way324166258","name":"Spinmaker Sound Marina","kind":"marina","source":"OpenStreetMap","sourceRef":"way/324166258","likelyAnchorage":false,"noAnchoring":false,"noAnchoringName":null,"notes":null,"fetchLandNM":[0,0,0,0,0,0,0.1,0.1,0.7,0.1,0.1,0.1,0.1,0,0,0,0,0,0,0,0,0,0.1,0.1,0.1,0.1,0.1,0.1,0.1,0.1,0.1,0.1,0.1,0,0,0],"fetchReefNM":[0,0,0,0,0,0,0.1,0.1,0.7,0.1,0.1,0.1,0.1,0,0,0,0,0,0,0,0,0,0.1,0.1,0.1,0.1,0.1,0.1,0.1,0.1,0.1,0.1,0.1,0,0,0]}},{"type":"Feature","geometry":{"type":"Point","coordinates":[153.00615,-27.49137]},"properties":{"id":"osm-node13518342343","name":"St. Lucia Reach","kind":"anchorage","source":"OpenStreetMap","sourceRef":"node/13518342343","likelyAnchorage":true,"noAnchoring":false,"noAnchoringName":null,"notes":null,"fetchLandNM":[15,15,10.9,10.2,10.4,10.7,10.3,9.5,10,12.9,15,15,15,15,15,15,15,15,15,15,15,15,15,15,15,15,15,15,15,15,15,15,15,15,15,15],"fetchReefNM":[15,15,10.9,10.2,10.4,10.7,10.3,9.5,10,12.9,15,15,15,15,15,15,15,15,15,15,15,15,15,15,15,15,15,15,15,15,15,15,15,15,15,15]}},{"type":"Feature","geometry":{"type":"Point","coordinates":[153.43787,-27.72373]},"properties":{"id":"osm-node3020494135","name":"Swan Bay","kind":"anchorage","source":"OpenStreetMap","sourceRef":"node/3020494135","likelyAnchorage":true,"noAnchoring":false,"noAnchoringName":null,"notes":null,"fetchLandNM":[0.4,0.4,0.5,0.5,0.6,0.6,0.5,0.5,0.4,0.4,0.4,0.4,0.4,0.4,0.4,15,0.9,0.9,1,2.3,0.5,0.5,0.5,0.4,0.3,0.2,0.2,0.2,0.2,0.2,0.2,0.2,0.3,0.3,0.3,0.4],"fetchReefNM":[0.4,0.4,0.5,0.5,0.6,0.6,0.5,0.5,0.4,0.4,0.4,0.4,0.4,0.4,0.4,15,0.9,0.9,1,2.3,0.5,0.5,0.5,0.4,0.3,0.2,0.2,0.2,0.2,0.2,0.2,0.2,0.3,0.3,0.3,0.4]}},{"type":"Feature","geometry":{"type":"Point","coordinates":[153.3699,-27.17437]},"properties":{"id":"osm-node9533672976","name":"Tangalooma","kind":"anchorage","source":"OpenStreetMap","sourceRef":"node/9533672976","likelyAnchorage":true,"noAnchoring":false,"noAnchoringName":null,"notes":null,"fetchLandNM":[0.6,0.5,0.4,0.3,0.2,0.2,0.2,0.2,0.2,0.2,0.2,0.2,0.2,0.2,0.2,0.3,0.4,0.5,0.7,1.4,15,14.2,14.3,15,15,14.8,13.7,15,15,15,10.2,12.8,15,15,15,2],"fetchReefNM":[0.6,0.5,0.4,0.3,0.2,0.2,0.2,0.2,0.2,0.2,0.2,0.2,0.2,0.2,0.2,0.3,0.4,0.5,0.7,1.4,15,14.2,14.3,15,15,14.8,13.7,15,15,15,10.2,12.8,15,15,15,2]}},{"type":"Feature","geometry":{"type":"Point","coordinates":[153.36944,-27.16425]},"properties":{"id":"osm-node9533672977","name":"Tangalooma wrecks","kind":"anchorage","source":"OpenStreetMap","sourceRef":"node/9533672977","likelyAnchorage":true,"noAnchoring":false,"noAnchoringName":null,"notes":null,"fetchLandNM":[0.1,0.1,0,0,0,0,0,0,0.1,0.1,0.1,0.1,0.1,0.1,0.2,0.3,0.5,0.9,1.3,15,15,11.6,14.5,15,15,14.7,13.7,15,15,11.3,10,13.4,15,15,15,0.9],"fetchReefNM":[0.1,0.1,0,0,0,0,0,0,0.1,0.1,0.1,0.1,0.1,0.1,0.2,0.3,0.5,0.9,1.3,15,15,11.6,14.5,15,15,14.7,13.7,15,15,11.3,10,13.4,15,15,15,0.9]}},{"type":"Feature","geometry":{"type":"Point","coordinates":[153.10412,-26.37859]},"properties":{"id":"osm-node2873300635","name":"Tea Tree Bay","kind":"anchorage","source":"OpenStreetMap","sourceRef":"node/2873300635","likelyAnchorage":true,"noAnchoring":false,"noAnchoringName":null,"notes":null,"fetchLandNM":[14.6,15,15,15,15,15,15,0.2,0.1,0.1,0.1,0.1,0.1,0.1,0.1,0.1,0.1,0.1,0.1,0.1,0.1,0.1,0.1,0.1,0.1,0.1,1.2,1.5,1.6,1.9,2.2,2.7,3.5,4.5,6,8.8],"fetchReefNM":[14.6,15,15,15,15,15,15,0.2,0.1,0.1,0.1,0.1,0.1,0.1,0.1,0.1,0.1,0.1,0.1,0.1,0.1,0.1,0.1,0.1,0.1,0.1,1.2,1.5,1.6,1.9,2.2,2.7,3.5,4.5,6,8.8]}},{"type":"Feature","geometry":{"type":"Point","coordinates":[153.42835,-27.77528]},"properties":{"id":"osm-node4336260153","name":"The Broadwater","kind":"anchorage","source":"OpenStreetMap","sourceRef":"node/4336260153","likelyAnchorage":true,"noAnchoring":false,"noAnchoringName":null,"notes":null,"fetchLandNM":[0.7,3.6,2.1,1.2,0.7,0.4,0.5,0.6,0.6,0.5,0.5,0.5,0.5,0.5,0.5,0.5,0.3,0.3,1.5,1.8,0.6,0.5,1.5,1.2,1.1,1.4,1.1,0.6,0.5,0.4,0.4,0.4,0.4,0.4,0.7,0.7],"fetchReefNM":[0.7,3.6,2.1,1.2,0.7,0.4,0.5,0.6,0.6,0.5,0.5,0.5,0.5,0.5,0.5,0.5,0.3,0.3,1.5,1.8,0.6,0.5,1.5,1.2,1.1,1.4,1.1,0.6,0.5,0.4,0.4,0.4,0.4,0.4,0.7,0.7]}},{"type":"Feature","geometry":{"type":"Point","coordinates":[153.33627,-27.50667]},"properties":{"id":"osm-node6531603351","name":"The Corner","kind":"anchorage","source":"OpenStreetMap","sourceRef":"node/6531603351","likelyAnchorage":true,"noAnchoring":false,"noAnchoringName":null,"notes":null,"fetchLandNM":[0.5,0.5,0.4,0.4,0.3,0.3,0.3,0.3,0.3,0.2,0.2,0.3,0.4,0.5,0.4,7.7,7.3,5.4,3.5,4,4.5,3.9,4,3.7,2.6,2.8,2.5,3.9,4.1,5.4,10.2,11.1,8.8,15,15,15],"fetchReefNM":[0.5,0.5,0.4,0.4,0.3,0.3,0.3,0.3,0.3,0.2,0.2,0.3,0.4,0.5,0.4,7.7,7.3,5.4,3.5,4,4.5,3.9,4,3.7,2.6,2.8,2.5,3.9,4.1,5.4,10.2,11.1,8.8,15,15,15]}},{"type":"Feature","geometry":{"type":"Point","coordinates":[153.35096,-27.48878]},"properties":{"id":"osm-node732075920","name":"The Lazaret","kind":"anchorage","source":"OpenStreetMap","sourceRef":"node/732075920","likelyAnchorage":true,"noAnchoring":false,"noAnchoringName":null,"notes":null,"fetchLandNM":[15,13.4,10.5,15,7.2,6.1,5,0.3,0.3,0.4,0.5,0.4,0.3,0.3,0.3,0.3,0.3,0.3,0.3,0.3,0.3,0.3,0.4,0.4,3.9,4.8,4.9,5.4,6,10.1,7,11.1,15,9.9,15,15],"fetchReefNM":[15,13.4,10.5,15,7.2,6.1,5,0.3,0.3,0.4,0.5,0.4,0.3,0.3,0.3,0.3,0.3,0.3,0.3,0.3,0.3,0.3,0.4,0.4,3.9,4.8,4.9,5.4,6,10.1,7,11.1,15,9.9,15,15]}},{"type":"Feature","geometry":{"type":"Point","coordinates":[153.4202,-27.81181]},"properties":{"id":"osm-node4336260152","name":"Tipplers Passages","kind":"anchorage","source":"OpenStreetMap","sourceRef":"node/4336260152","likelyAnchorage":false,"noAnchoring":false,"noAnchoringName":null,"notes":null,"fetchLandNM":[0.7,0.2,2.6,1.1,0.6,0.4,0.3,0.2,0.2,0.2,0.1,0.1,0.1,0.1,0.1,0.1,0.2,0.2,0.2,0.3,0.4,0.5,0.7,1.2,1,0.3,0.3,0.2,0.2,0.1,0.1,0.1,0.1,0.1,0.4,0.6],"fetchReefNM":[0.7,0.2,2.6,1.1,0.6,0.4,0.3,0.2,0.2,0.2,0.1,0.1,0.1,0.1,0.1,0.1,0.2,0.2,0.2,0.3,0.4,0.5,0.7,1.2,1,0.3,0.3,0.2,0.2,0.1,0.1,0.1,0.1,0.1,0.4,0.6]}},{"type":"Feature","geometry":{"type":"Point","coordinates":[153.03259,-27.47277]},"properties":{"id":"osm-node13518342335","name":"Town Reach","kind":"anchorage","source":"OpenStreetMap","sourceRef":"node/13518342335","likelyAnchorage":true,"noAnchoring":false,"noAnchoringName":null,"notes":null,"fetchLandNM":[15,10.2,8.8,8.5,8.6,7.7,8.5,7.9,8.3,8.8,12.4,14,15,15,15,15,15,15,15,15,15,15,15,15,15,15,15,15,15,15,15,15,15,15,15,15],"fetchReefNM":[15,10.2,8.8,8.5,8.6,7.7,8.5,7.9,8.3,8.8,12.4,14,15,15,15,15,15,15,15,15,15,15,15,15,15,15,15,15,15,15,15,15,15,15,15,15]}},{"type":"Feature","geometry":{"type":"Point","coordinates":[153.05607,-26.94885]},"properties":{"id":"osm-node6193182700","name":"Tripcony Bight","kind":"anchorage","source":"OpenStreetMap","sourceRef":"node/6193182700","likelyAnchorage":true,"noAnchoring":false,"noAnchoringName":null,"notes":null,"fetchLandNM":[0.6,0.6,0.6,0.6,0.6,1.1,1.1,1.6,1.9,0.7,0.7,0.7,0.7,1.1,1.3,8.2,0.8,0.8,0.7,0.3,0.3,0.3,0.3,0.3,0.3,0.4,0.4,0.4,0.4,0.5,0.6,0.6,0.6,0.6,0.6,0.6],"fetchReefNM":[0.6,0.6,0.6,0.6,0.6,1.1,1.1,1.6,1.9,0.7,0.7,0.7,0.7,1.1,1.3,8.2,0.8,0.8,0.7,0.3,0.3,0.3,0.3,0.3,0.3,0.4,0.4,0.4,0.4,0.5,0.6,0.6,0.6,0.6,0.6,0.6]}},{"type":"Feature","geometry":{"type":"Point","coordinates":[153.43107,-27.4221]},"properties":{"id":"osm-node6535108357","name":"Wallen Pool","kind":"anchorage","source":"OpenStreetMap","sourceRef":"node/6535108357","likelyAnchorage":true,"noAnchoring":false,"noAnchoringName":null,"notes":null,"fetchLandNM":[4.3,15,1,0.9,0.8,0.7,0.6,0.5,0.5,0.4,0.4,0.4,0.4,0.5,0.5,0.6,0.8,1,1.8,3.1,4.6,9.9,5.3,10.3,10.4,10.9,12.8,10.4,10.3,15,10.3,15,15,15,4.7,7.1],"fetchReefNM":[4.3,15,1,0.9,0.8,0.7,0.6,0.5,0.5,0.4,0.4,0.4,0.4,0.5,0.5,0.6,0.8,1,1.8,3.1,4.6,9.9,5.3,10.3,10.4,10.9,12.8,10.4,10.3,15,10.3,15,15,15,4.7,7.1]}},{"type":"Feature","geometry":{"type":"Point","coordinates":[153.22004,-27.47733]},"properties":{"id":"osm-node619624408","name":"Waterloo Bay","kind":"anchorage","source":"OpenStreetMap","sourceRef":"node/619624408","likelyAnchorage":true,"noAnchoring":false,"noAnchoringName":null,"notes":null,"fetchLandNM":[15,3.2,15,1.4,1.3,1.2,1.1,1,1,1,0.9,0.7,0.6,0.5,0.4,0.4,0.4,0.3,0.3,0.3,0.3,0.3,0.4,0.5,0.6,0.7,0.9,0.9,1.1,1.5,1.8,1.8,4.2,4.9,6.2,7.2],"fetchReefNM":[15,3.2,15,1.4,1.3,1.2,1.1,1,1,1,0.9,0.7,0.6,0.5,0.4,0.4,0.4,0.3,0.3,0.3,0.3,0.3,0.4,0.5,0.6,0.7,0.9,0.9,1.1,1.5,1.8,1.8,4.2,4.9,6.2,7.2]}},{"type":"Feature","geometry":{"type":"Point","coordinates":[153.24095,-27.46413]},"properties":{"id":"osm-node619624409","name":"Wellington Point","kind":"anchorage","source":"OpenStreetMap","sourceRef":"node/619624409","likelyAnchorage":true,"noAnchoring":false,"noAnchoringName":null,"notes":null,"fetchLandNM":[4.3,15,15,15,13.5,10.9,15,11.1,10.6,9.9,8.9,5.5,10.5,12,3.9,3.6,1.9,0.1,0.1,0.1,0.1,0.1,0.1,0.1,0.1,0.1,0.1,0.2,0.2,0.3,0.3,0.4,0.6,6.1,6.8,2.2],"fetchReefNM":[4.3,15,15,15,13.5,10.9,15,11.1,10.6,9.9,8.9,5.5,10.5,12,3.9,3.6,1.9,0.1,0.1,0.1,0.1,0.1,0.1,0.1,0.1,0.1,0.1,0.2,0.2,0.3,0.3,0.4,0.6,6.1,6.8,2.2]}},{"type":"Feature","geometry":{"type":"Point","coordinates":[153.11278,-26.3787]},"properties":{"id":"osm-node765716037","name":"Winch Cove","kind":"anchorage","source":"OpenStreetMap","sourceRef":"node/765716037","likelyAnchorage":true,"noAnchoring":false,"noAnchoringName":null,"notes":null,"fetchLandNM":[15,15,15,15,0,0,0,0,0,0,0,0,0,0,0,0,0,0,0,0,0,0,0,0,0.1,0.1,0.1,0.1,0.2,0.2,2.9,3.4,4.2,5.3,7,10],"fetchReefNM":[15,15,15,15,0,0,0,0,0,0,0,0,0,0,0,0,0,0,0,0,0,0,0,0,0.1,0.1,0.1,0.1,0.2,0.2,2.9,3.4,4.2,5.3,7,10]}}]}