{"type":"FeatureCollection","meta":{"region":"QLD","tile":"t-30e152","built":"2026-08-25","sources":["OpenStreetMap (ODbL)","GBRMPA (CC BY)"]},"features":[{"type":"Feature","geometry":{"type":"Point","coordinates":[153.54527,-28.86738]},"properties":{"id":"osm-node6403210879","name":"Ballina Boat Harbour","kind":"marina","source":"OpenStreetMap","sourceRef":"node/6403210879","likelyAnchorage":true,"noAnchoring":false,"noAnchoringName":null,"notes":null,"fetchLandNM":[15,14.6,10.6,5.2,4.8,4.3,3.6,3.2,2.9,2.6,2.4,2.1,1.9,1.9,1.9,2,2.2,2.5,2.9,3.8,6,15,15,15,15,15,15,15,15,15,15,15,15,15,15,15],"fetchReefNM":[15,14.6,10.6,5.2,4.8,4.3,3.6,3.2,2.9,2.6,2.4,2.1,1.9,1.9,1.9,2,2.2,2.5,2.9,3.8,6,15,15,15,15,15,15,15,15,15,15,15,15,15,15,15]}},{"type":"Feature","geometry":{"type":"Point","coordinates":[153.32594,-29.67802]},"properties":{"id":"osm-node3972497205","name":"Bat Bay","kind":"anchorage","source":"OpenStreetMap","sourceRef":"node/3972497205","likelyAnchorage":true,"noAnchoring":false,"noAnchoringName":null,"notes":null,"fetchLandNM":[0.3,0.3,0.3,0.4,0.4,0.4,0.5,0.4,0.4,0.3,0.3,0.3,0.3,0.4,0.4,0.5,0.5,0.6,0.6,0.7,1.2,15,15,15,15,15,15,15,15,15,15,15,15,15,0.6,0.4],"fetchReefNM":[0.3,0.3,0.3,0.4,0.4,0.4,0.5,0.4,0.4,0.3,0.3,0.3,0.3,0.4,0.4,0.5,0.5,0.6,0.6,0.7,1.2,15,15,15,15,15,15,15,15,15,15,15,15,15,0.6,0.4]}},{"type":"Feature","geometry":{"type":"Point","coordinates":[153.49738,-28.20474]},"properties":{"id":"osm-node3977332163","name":"Bingam Bay","kind":"anchorage","source":"OpenStreetMap","sourceRef":"node/3977332163","likelyAnchorage":true,"noAnchoring":false,"noAnchoringName":null,"notes":null,"fetchLandNM":[3.7,3.1,2.8,2.8,3.1,3.8,3.6,3.5,3.7,3.8,3.7,3.9,4.4,5.9,6.6,7.9,11.4,15,15,15,15,15,15,15,15,15,15,15,15,15,15,15,15,15,15,4.7],"fetchReefNM":[3.7,3.1,2.8,2.8,3.1,3.8,3.6,3.5,3.7,3.8,3.7,3.9,4.4,5.9,6.6,7.9,11.4,15,15,15,15,15,15,15,15,15,15,15,15,15,15,15,15,15,15,4.7]}},{"type":"Feature","geometry":{"type":"Point","coordinates":[153.50394,-28.19951]},"properties":{"id":"osm-node3977332164","name":"Birds Bay","kind":"anchorage","source":"OpenStreetMap","sourceRef":"node/3977332164","likelyAnchorage":true,"noAnchoring":false,"noAnchoringName":null,"notes":null,"fetchLandNM":[2.9,2.5,2.4,2.4,2.7,3.3,3.2,3.1,3.2,3.6,3.4,3.5,3.9,5,6.3,7.4,10.9,15,15,15,15,15,15,15,15,15,15,15,15,15,15,15,15,15,7,4.1],"fetchReefNM":[2.9,2.5,2.4,2.4,2.7,3.3,3.2,3.1,3.2,3.6,3.4,3.5,3.9,5,6.3,7.4,10.9,15,15,15,15,15,15,15,15,15,15,15,15,15,15,15,15,15,7,4.1]}},{"type":"Feature","geometry":{"type":"Point","coordinates":[153.62114,-28.63856]},"properties":{"id":"osm-node3020491481","name":"Byron Bay","kind":"anchorage","source":"OpenStreetMap","sourceRef":"node/3020491481","likelyAnchorage":true,"noAnchoring":false,"noAnchoringName":null,"notes":null,"fetchLandNM":[15,15,15,15,15,15,15,0.4,0.4,0.3,0.3,0.3,0.3,0.2,0.2,0.2,0.2,0.2,0.2,0.2,0.2,0.2,0.2,0.2,0.3,0.3,0.5,0.7,0.9,1.3,1.9,3,4.6,6.7,10.6,15],"fetchReefNM":[15,15,15,15,15,15,15,0.4,0.4,0.3,0.3,0.3,0.3,0.2,0.2,0.2,0.2,0.2,0.2,0.2,0.2,0.2,0.2,0.2,0.3,0.3,0.5,0.7,0.9,1.3,1.9,3,4.6,6.7,10.6,15]}},{"type":"Feature","geometry":{"type":"Point","coordinates":[153.35411,-29.41708]},"properties":{"id":"osm-node1137240203","name":"Charted anchorage","kind":"anchorage","source":"OpenStreetMap","sourceRef":"node/1137240203","likelyAnchorage":true,"noAnchoring":false,"noAnchoringName":null,"notes":null,"fetchLandNM":[3.5,3.2,2.4,1.6,1.1,0.8,0.7,0.6,0.5,0.5,0.5,0.5,0.6,1.1,0.9,1.1,1.8,2.3,6.9,15,15,15,15,15,15,15,15,15,15,15,15,15,15,15,15,15],"fetchReefNM":[3.5,3.2,2.4,1.6,1.1,0.8,0.7,0.6,0.5,0.5,0.5,0.5,0.6,1.1,0.9,1.1,1.8,2.3,6.9,15,15,15,15,15,15,15,15,15,15,15,15,15,15,15,15,15]}},{"type":"Feature","geometry":{"type":"Point","coordinates":[153.54246,-28.18714]},"properties":{"id":"osm-node5602016526","name":"Charted anchorage","kind":"anchorage","source":"OpenStreetMap","sourceRef":"node/5602016526","likelyAnchorage":true,"noAnchoring":false,"noAnchoringName":null,"notes":null,"fetchLandNM":[1.3,1.4,1.5,1.2,1.1,1,0.9,0.9,0.9,1,1.1,1.3,1.7,1.8,2,2.6,5.8,9.7,15,15,15,15,15,15,15,15,15,15,15,15,15,15,2,1.5,1.4,1.3],"fetchReefNM":[1.3,1.4,1.5,1.2,1.1,1,0.9,0.9,0.9,1,1.1,1.3,1.7,1.8,2,2.6,5.8,9.7,15,15,15,15,15,15,15,15,15,15,15,15,15,15,2,1.5,1.4,1.3]}},{"type":"Feature","geometry":{"type":"Point","coordinates":[153.63497,-28.64228]},"properties":{"id":"osm-node3020491742","name":"Cosy Corner","kind":"anchorage","source":"OpenStreetMap","sourceRef":"node/3020491742","likelyAnchorage":true,"noAnchoring":false,"noAnchoringName":null,"notes":null,"fetchLandNM":[0.4,0.5,0.5,0.4,0.2,0.1,0.1,0.1,0.1,0.1,0.1,0.1,0.1,0,0,0,0,0,0,0,0,0.1,15,15,15,15,15,15,0.5,0.4,0.4,0.5,0.5,0.4,0.4,0.4],"fetchReefNM":[0.4,0.5,0.5,0.4,0.2,0.1,0.1,0.1,0.1,0.1,0.1,0.1,0.1,0,0,0,0,0,0,0,0,0.1,15,15,15,15,15,15,0.5,0.4,0.4,0.5,0.5,0.4,0.4,0.4]}},{"type":"Feature","geometry":{"type":"Point","coordinates":[153.49482,-28.20592]},"properties":{"id":"osm-node3977332165","name":"Dog Bay","kind":"anchorage","source":"OpenStreetMap","sourceRef":"node/3977332165","likelyAnchorage":true,"noAnchoring":false,"noAnchoringName":null,"notes":null,"fetchLandNM":[4,3.2,3,2.9,3.1,3.9,3.8,3.7,3.8,3.9,3.9,4.1,4.6,6,6.8,8.2,11.6,15,15,15,15,15,15,15,15,15,15,15,15,15,15,15,15,15,15,4.9],"fetchReefNM":[4,3.2,3,2.9,3.1,3.9,3.8,3.7,3.8,3.9,3.9,4.1,4.6,6,6.8,8.2,11.6,15,15,15,15,15,15,15,15,15,15,15,15,15,15,15,15,15,15,4.9]}},{"type":"Feature","geometry":{"type":"Point","coordinates":[153.43362,-29.12258]},"properties":{"id":"osm-way1089791127","name":"Evans Head Boat harbour","kind":"marina","source":"OpenStreetMap","sourceRef":"way/1089791127","likelyAnchorage":true,"noAnchoring":false,"noAnchoringName":null,"notes":null,"fetchLandNM":[0.8,0.6,0.5,0.6,0.6,0.6,0.7,0.9,0.9,0.9,0.9,0.9,0.9,1,1.6,1.7,1.9,2.1,2.5,3.1,5,15,15,15,15,15,15,15,15,15,15,15,15,15,15,15],"fetchReefNM":[0.8,0.6,0.5,0.6,0.6,0.6,0.7,0.9,0.9,0.9,0.9,0.9,0.9,1,1.6,1.7,1.9,2.1,2.5,3.1,5,15,15,15,15,15,15,15,15,15,15,15,15,15,15,15]}},{"type":"Feature","geometry":{"type":"Point","coordinates":[153.34889,-29.40911]},"properties":{"id":"osm-node8584945023","name":"Iluka Bay","kind":"anchorage","source":"OpenStreetMap","sourceRef":"node/8584945023","likelyAnchorage":true,"noAnchoring":false,"noAnchoringName":null,"notes":null,"fetchLandNM":[3.4,3,2.8,2.2,1.6,1.4,1.5,1,0.9,0.9,0.9,0.9,0.9,1,1.5,1.7,2.4,3.2,7.9,15,15,15,15,15,15,15,15,15,15,15,15,15,15,15,15,15],"fetchReefNM":[3.4,3,2.8,2.2,1.6,1.4,1.5,1,0.9,0.9,0.9,0.9,0.9,1,1.5,1.7,2.4,3.2,7.9,15,15,15,15,15,15,15,15,15,15,15,15,15,15,15,15,15]}},{"type":"Feature","geometry":{"type":"Point","coordinates":[153.5387,-28.18206]},"properties":{"id":"osm-way1248002448","name":"Ivory Waterside Marina","kind":"marina","source":"OpenStreetMap","sourceRef":"way/1248002448","likelyAnchorage":true,"noAnchoring":false,"noAnchoringName":null,"notes":null,"fetchLandNM":[1,1,1.1,1.3,1.1,1.1,1,1,1,1.1,1.2,1.4,1.8,2.1,2.4,3,6.3,11.3,15,15,15,15,15,15,15,15,15,15,15,15,15,15,1.6,1.2,1,1],"fetchReefNM":[1,1,1.1,1.3,1.1,1.1,1,1,1,1.1,1.2,1.4,1.8,2.1,2.4,3,6.3,11.3,15,15,15,15,15,15,15,15,15,15,15,15,15,15,1.6,1.2,1,1]}},{"type":"Feature","geometry":{"type":"Point","coordinates":[153.54685,-28.16968]},"properties":{"id":"osm-way426948900","name":"Jack Evans Boat Harbour","kind":"marina","source":"OpenStreetMap","sourceRef":"way/426948900","likelyAnchorage":true,"noAnchoring":false,"noAnchoringName":null,"notes":null,"fetchLandNM":[0.3,0.4,0.5,0.4,0.4,0.3,0.3,0.3,0.3,0.4,0.4,0.5,0.6,0.7,1,2.4,3.1,8.3,15,15,15,15,15,15,15,15,15,15,15,0.7,0.5,0.3,0.3,0.3,0.3,0.3],"fetchReefNM":[0.3,0.4,0.5,0.4,0.4,0.3,0.3,0.3,0.3,0.4,0.4,0.5,0.6,0.7,1,2.4,3.1,8.3,15,15,15,15,15,15,15,15,15,15,15,0.7,0.5,0.3,0.3,0.3,0.3,0.3]}},{"type":"Feature","geometry":{"type":"Point","coordinates":[153.54582,-28.53493]},"properties":{"id":"osm-node21679804","name":"Marina","kind":"marina","source":"OpenStreetMap","sourceRef":"node/21679804","likelyAnchorage":true,"noAnchoring":false,"noAnchoringName":null,"notes":null,"fetchLandNM":[15,1.7,0.9,0.7,0.5,0.5,0.4,0.4,0.4,0.4,0.5,0.6,0.7,0.8,1,1.4,3.4,15,15,15,15,15,15,15,15,15,15,15,15,15,15,15,15,15,15,15],"fetchReefNM":[15,1.7,0.9,0.7,0.5,0.5,0.4,0.4,0.4,0.4,0.5,0.6,0.7,0.8,1,1.4,3.4,15,15,15,15,15,15,15,15,15,15,15,15,15,15,15,15,15,15,15]}},{"type":"Feature","geometry":{"type":"Point","coordinates":[153.56336,-28.87313]},"properties":{"id":"osm-way980403753","name":"Martin Street Boat Harbour","kind":"marina","source":"OpenStreetMap","sourceRef":"way/980403753","likelyAnchorage":true,"noAnchoring":false,"noAnchoringName":null,"notes":null,"fetchLandNM":[15,14.2,4.9,4.5,3.6,2.9,2.1,1.8,1.6,1.4,1.2,1.1,1,1,1,1,1.1,1.2,1.4,1.9,2.7,6.4,15,15,15,15,15,15,15,15,15,15,15,15,15,15],"fetchReefNM":[15,14.2,4.9,4.5,3.6,2.9,2.1,1.8,1.6,1.4,1.2,1.1,1,1,1,1,1.1,1.2,1.4,1.9,2.7,6.4,15,15,15,15,15,15,15,15,15,15,15,15,15,15]}},{"type":"Feature","geometry":{"type":"Point","coordinates":[153.547,-28.16379]},"properties":{"id":"osm-node4315299451","name":"Rainbow Bay","kind":"anchorage","source":"OpenStreetMap","sourceRef":"node/4315299451","likelyAnchorage":true,"noAnchoring":false,"noAnchoringName":null,"notes":null,"fetchLandNM":[15,15,15,15,15,15,0.1,0.1,0.1,0.1,0,0,0,0,0,0,0,0,0,0,0,0,0,0,0.1,0.4,0.5,1.3,1.8,2.5,3.3,5.7,8.7,12.3,15,15],"fetchReefNM":[15,15,15,15,15,15,0.1,0.1,0.1,0.1,0,0,0,0,0,0,0,0,0,0,0,0,0,0,0.1,0.4,0.5,1.3,1.8,2.5,3.3,5.7,8.7,12.3,15,15]}},{"type":"Feature","geometry":{"type":"Point","coordinates":[153.45066,-29.12304]},"properties":{"id":"osm-node3984028002","name":"Red Hill Cove","kind":"anchorage","source":"OpenStreetMap","sourceRef":"node/3984028002","likelyAnchorage":true,"noAnchoring":false,"noAnchoringName":null,"notes":null,"fetchLandNM":[0.1,7.4,12.1,15,15,15,15,15,15,15,15,15,15,15,15,15,1,1,0.8,0.6,0.1,0.1,0.1,0.1,0.1,0.1,0.1,0.1,0.1,0.1,0.1,0,0.1,0,0,0.1],"fetchReefNM":[0.1,7.4,12.1,15,15,15,15,15,15,15,15,15,15,15,15,15,1,1,0.8,0.6,0.1,0.1,0.1,0.1,0.1,0.1,0.1,0.1,0.1,0.1,0.1,0,0.1,0,0,0.1]}},{"type":"Feature","geometry":{"type":"Point","coordinates":[153.35895,-29.35711]},"properties":{"id":"osm-node3020493857","name":"Shark Bay","kind":"anchorage","source":"OpenStreetMap","sourceRef":"node/3020493857","likelyAnchorage":true,"noAnchoring":false,"noAnchoringName":null,"notes":null,"fetchLandNM":[5.5,7.9,12.9,15,15,15,15,15,15,15,0.2,0.2,0.2,0.2,0.2,0.2,0.2,0.2,0.2,0.2,0.2,0.2,0.2,0.2,0.2,0.2,0.3,0.3,0.4,0.5,0.6,0.9,1.3,1.9,2.8,3.9],"fetchReefNM":[5.5,7.9,12.9,15,15,15,15,15,15,15,0.2,0.2,0.2,0.2,0.2,0.2,0.2,0.2,0.2,0.2,0.2,0.2,0.2,0.2,0.2,0.2,0.3,0.3,0.4,0.5,0.6,0.9,1.3,1.9,2.8,3.9]}},{"type":"Feature","geometry":{"type":"Point","coordinates":[153.57485,-28.23259]},"properties":{"id":"osm-node3020494586","name":"Wommin Bay","kind":"anchorage","source":"OpenStreetMap","sourceRef":"node/3020494586","likelyAnchorage":true,"noAnchoring":false,"noAnchoringName":null,"notes":null,"fetchLandNM":[15,15,15,15,15,15,15,15,15,15,15,15,15,15,15,15,1.5,1.4,1.1,0.9,0.7,0.6,0.5,0.5,0.4,0.4,0.4,0.4,0.4,0.4,0.5,0.5,0.7,0.9,1.2,1.7],"fetchReefNM":[15,15,15,15,15,15,15,15,15,15,15,15,15,15,15,15,1.5,1.4,1.1,0.9,0.7,0.6,0.5,0.5,0.4,0.4,0.4,0.4,0.4,0.4,0.5,0.5,0.7,0.9,1.2,1.7]}},{"type":"Feature","geometry":{"type":"Point","coordinates":[153.36975,-29.3619]},"properties":{"id":"osm-node3020494590","name":"Woody Bay","kind":"anchorage","source":"OpenStreetMap","sourceRef":"node/3020494590","likelyAnchorage":true,"noAnchoring":false,"noAnchoringName":null,"notes":null,"fetchLandNM":[6.9,10,15,15,15,15,15,15,15,15,15,15,0.3,0.2,0.2,0.2,0.2,0.2,0.2,0.2,0.2,0.2,0.2,0.2,0.3,0.3,0.3,0.3,0.4,0.4,0.4,0.4,2.3,3.1,4,5.2],"fetchReefNM":[6.9,10,9.1,15,15,15,15,15,15,15,15,15,0.3,0.2,0.2,0.2,0.2,0.2,0.2,0.2,0.2,0.2,0.2,0.2,0.3,0.3,0.3,0.3,0.4,0.4,0.4,0.4,2.3,3.1,4,5.2]}},{"type":"Feature","geometry":{"type":"Point","coordinates":[153.348,-29.43584]},"properties":{"id":"osm-node408838844","name":"Yamba Marina","kind":"marina","source":"OpenStreetMap","sourceRef":"node/408838844","likelyAnchorage":true,"noAnchoring":false,"noAnchoringName":null,"notes":null,"fetchLandNM":[5.1,4.5,3.5,1.9,1.3,1.2,1.3,0.9,0.9,0.9,1.3,1.1,1.1,1.1,1.2,1.4,1.7,3.5,6.5,15,15,15,15,15,15,15,15,15,15,15,15,15,15,15,15,15],"fetchReefNM":[5.1,4.5,3.5,1.9,1.3,1.2,1.3,0.9,0.9,0.9,1.3,1.1,1.1,1.1,1.2,1.4,1.7,3.5,6.5,15,15,15,15,15,15,15,15,15,15,15,15,15,15,15,15,15]}}]}